;-------------------------------Cut file parameters------------------------
; Input file name : red_x16.dxf
; File rotation : -20 File scale : 1
; Machine : Desktop
; Material name : Glass - Soda Lime
; Material thickness : 0.125 in
; Cut path  : Outside
; Cut quality : mediumRate
; Raw Material width : 200.1mm
; Raw Material height : 196.9mm
;-------------------------------Do Not modify the Gcode file---------------
G90
G21
M1403
M1405 X6.47 Y-0.98
M1406 X206.53 Y-197.88
M1407 S3.33
M1410 2.2.0; Generated on Wam
M1411 Glass - Soda Lime
M1412 0.125 in
G0 X24.05 Y-3.64
M3
M8
G4 S3.33
G1 X23.64 Y-8.62 F176.25
G1 X23.24 Y-13.61
G1 X22.84 Y-18.59
G1 X22.43 Y-23.57
G1 X22.03 Y-28.56
G1 X21.63 Y-33.54
G1 X21.22 Y-38.52
G1 X20.82 Y-43.51
G1 X20.42 Y-48.49
G1 X20.01 Y-53.48
G1 X19.61 Y-58.46
G1 X19.20 Y-63.44
G1 X18.80 Y-68.43
G1 X18.40 Y-73.41
G1 X17.99 Y-78.39
G1 X17.59 Y-83.38
G1 X17.19 Y-88.36
G1 X16.78 Y-93.34
G1 X16.40 Y-98.00
G1 X16.00 Y-102.98
G1 X15.60 Y-107.96
G1 X15.19 Y-112.95
G1 X14.79 Y-117.93
G1 X14.39 Y-122.92
G1 X13.98 Y-127.90
G1 X13.58 Y-132.88
G1 X13.17 Y-137.87
G1 X12.77 Y-142.85
G1 X12.37 Y-147.83
G1 X11.96 Y-152.82
G1 X11.56 Y-157.80
G1 X11.16 Y-162.78
G1 X10.75 Y-167.77
G1 X10.35 Y-172.75
G1 X9.95 Y-177.74
G1 X9.54 Y-182.72 F149.81
G1 X9.14 Y-187.70 F114.56
G1 X8.76 Y-192.35 F79.31
G1 X8.30 Y-192.34
G1 X7.84 Y-192.32
G1 X7.82 Y-187.32 F114.56
G1 X7.79 Y-182.32 F149.81
G1 X7.77 Y-177.32 F176.25
G1 X7.74 Y-172.32
G1 X7.72 Y-167.32
G1 X7.70 Y-162.32
G1 X7.67 Y-157.32
G1 X7.65 Y-152.32
G1 X7.62 Y-147.32
G1 X7.60 Y-142.32
G1 X7.58 Y-137.32
G1 X7.55 Y-132.32
G1 X7.53 Y-127.32
G1 X7.50 Y-122.32
G1 X7.48 Y-117.32
G1 X7.45 Y-112.32
G1 X7.43 Y-107.32
G1 X7.41 Y-102.32
G1 X7.40 Y-100.95
G1 X7.38 Y-95.95
G1 X7.35 Y-90.95
G1 X7.33 Y-85.95
G1 X7.30 Y-80.95
G1 X7.28 Y-75.95
G1 X7.25 Y-70.95
G1 X7.23 Y-65.95
G1 X7.21 Y-60.95
G1 X7.18 Y-55.95
G1 X7.16 Y-50.95
G1 X7.13 Y-45.95
G1 X7.11 Y-40.95
G1 X7.08 Y-35.95
G1 X7.06 Y-30.95
G1 X7.04 Y-25.95
G1 X7.01 Y-20.95
G1 X6.99 Y-15.95 F149.81
G1 X6.96 Y-10.95 F123.37
G1 X6.96 Y-9.58
G1 X7.04 Y-9.45
G1 X7.13 Y-9.33
G1 X11.83 Y-7.62 F149.81
G1 X15.38 Y-6.32 F176.25
G1 X20.08 Y-4.61 F149.81
G1 X23.63 Y-3.32 F123.37
G1 X23.84 Y-3.48 F88.13
G1 X24.05 Y-3.64
G1 X24.05 Y-3.64
G4 S1.
M9
G4 S1.
M5
G4 S1.
G0 X201.50 Y-3.16
M3
M8
G4 S3.33
G1 X201.10 Y-8.14
G1 X200.69 Y-13.13 F176.25
G1 X200.29 Y-18.11
G1 X199.89 Y-23.09
G1 X199.48 Y-28.08
G1 X199.08 Y-33.06
G1 X198.67 Y-38.04
G1 X198.27 Y-43.03
G1 X197.87 Y-48.01
G1 X197.46 Y-53.00
G1 X197.06 Y-57.98
G1 X196.66 Y-62.96
G1 X196.25 Y-67.95
G1 X195.85 Y-72.93
G1 X195.44 Y-77.91
G1 X195.04 Y-82.90
G1 X194.64 Y-87.88
G1 X194.23 Y-92.86
G1 X193.86 Y-97.52
G1 X193.45 Y-102.50
G1 X193.05 Y-107.48
G1 X192.65 Y-112.47
G1 X192.24 Y-117.45
G1 X191.84 Y-122.44
G1 X191.43 Y-127.42
G1 X191.03 Y-132.40
G1 X190.63 Y-137.39
G1 X190.22 Y-142.37
G1 X189.82 Y-147.35
G1 X189.42 Y-152.34
G1 X189.01 Y-157.32
G1 X188.61 Y-162.30
G1 X188.20 Y-167.29
G1 X187.80 Y-172.27
G1 X187.40 Y-177.26
G1 X186.99 Y-182.24 F149.81
G1 X186.59 Y-187.22 F114.56
G1 X186.21 Y-191.88 F79.31
G1 X185.75 Y-191.86
G1 X185.29 Y-191.84
G1 X185.27 Y-186.84 F114.56
G1 X185.25 Y-181.84 F149.81
G1 X185.22 Y-176.84 F176.25
G1 X185.20 Y-171.84
G1 X185.17 Y-166.84
G1 X185.15 Y-161.84
G1 X185.12 Y-156.84
G1 X185.10 Y-151.84
G1 X185.08 Y-146.84
G1 X185.05 Y-141.84
G1 X185.03 Y-136.84
G1 X185.00 Y-131.84
G1 X184.98 Y-126.84
G1 X184.95 Y-121.84
G1 X184.93 Y-116.84
G1 X184.91 Y-111.84
G1 X184.88 Y-106.84
G1 X184.86 Y-101.84
G1 X184.85 Y-100.47
G1 X184.83 Y-95.47
G1 X184.80 Y-90.47
G1 X184.78 Y-85.47
G1 X184.75 Y-80.47
G1 X184.73 Y-75.47
G1 X184.71 Y-70.47
G1 X184.68 Y-65.47
G1 X184.66 Y-60.47
G1 X184.63 Y-55.47
G1 X184.61 Y-50.47
G1 X184.59 Y-45.47
G1 X184.56 Y-40.47
G1 X184.54 Y-35.47
G1 X184.51 Y-30.47
G1 X184.49 Y-25.47
G1 X184.46 Y-20.47
G1 X184.44 Y-15.47 F149.81
G1 X184.42 Y-10.47 F123.37
G1 X184.41 Y-9.10
G1 X184.50 Y-8.97
G1 X184.58 Y-8.85
G1 X189.28 Y-7.14 F149.81
G1 X192.83 Y-5.84 F176.25
G1 X197.53 Y-4.13 F149.81
G1 X201.08 Y-2.84 F123.37
G1 X201.29 Y-3.00 F88.13
G1 X201.50 Y-3.16
G1 X201.50 Y-3.16
G4 S1.
M9
G4 S1.
M5
G4 S1.
G0 X110.93 Y-195.70
M3
M8
G4 S3.33
G1 X111.33 Y-190.71
G1 X111.74 Y-185.73 F176.25
G1 X112.14 Y-180.75
G1 X112.54 Y-175.76
G1 X112.95 Y-170.78
G1 X113.35 Y-165.79
G1 X113.75 Y-160.81
G1 X114.16 Y-155.83
G1 X114.56 Y-150.84
G1 X114.97 Y-145.86
G1 X115.37 Y-140.88
G1 X115.77 Y-135.89
G1 X116.18 Y-130.91
G1 X116.58 Y-125.93
G1 X116.98 Y-120.94
G1 X117.39 Y-115.96
G1 X117.79 Y-110.97
G1 X118.20 Y-105.99
G1 X118.57 Y-101.34
G1 X118.98 Y-96.35
G1 X119.38 Y-91.37
G1 X119.78 Y-86.39
G1 X120.19 Y-81.40
G1 X120.59 Y-76.42
G1 X120.99 Y-71.44
G1 X121.40 Y-66.45
G1 X121.80 Y-61.47
G1 X122.21 Y-56.49
G1 X122.61 Y-51.50
G1 X123.01 Y-46.52
G1 X123.42 Y-41.53
G1 X123.82 Y-36.55
G1 X124.22 Y-31.57
G1 X124.63 Y-26.58
G1 X125.03 Y-21.60
G1 X125.44 Y-16.62 F149.81
G1 X125.84 Y-11.63 F114.56
G1 X126.22 Y-6.98 F79.31
G1 X126.68 Y-7.00
G1 X127.14 Y-7.02
G1 X127.16 Y-12.02 F114.56
G1 X127.18 Y-17.02 F149.81
G1 X127.21 Y-22.02 F176.25
G1 X127.23 Y-27.02
G1 X127.26 Y-32.02
G1 X127.28 Y-37.02
G1 X127.30 Y-42.01
G1 X127.33 Y-47.01
G1 X127.35 Y-52.01
G1 X127.38 Y-57.01
G1 X127.40 Y-62.01
G1 X127.43 Y-67.01
G1 X127.45 Y-72.01
G1 X127.47 Y-77.01
G1 X127.50 Y-82.01
G1 X127.52 Y-87.01
G1 X127.55 Y-92.01
G1 X127.57 Y-97.01
G1 X127.58 Y-98.39
G1 X127.60 Y-103.39
G1 X127.63 Y-108.39
G1 X127.65 Y-113.39
G1 X127.67 Y-118.39
G1 X127.70 Y-123.39
G1 X127.72 Y-128.39
G1 X127.75 Y-133.39
G1 X127.77 Y-138.39
G1 X127.79 Y-143.39
G1 X127.82 Y-148.39
G1 X127.84 Y-153.39
G1 X127.87 Y-158.39
G1 X127.89 Y-163.39
G1 X127.92 Y-168.39
G1 X127.94 Y-173.39
G1 X127.96 Y-178.39
G1 X127.99 Y-183.39 F149.81
G1 X128.01 Y-188.39 F123.37
G1 X128.02 Y-189.76
G1 X127.93 Y-189.88
G1 X127.85 Y-190.01
G1 X123.15 Y-191.72 F149.81
G1 X119.60 Y-193.01 F176.25
G1 X114.90 Y-194.72 F149.81
G1 X111.35 Y-196.01 F123.37
G1 X111.14 Y-195.86 F88.13
G1 X110.93 Y-195.70
G1 X110.93 Y-195.70
G4 S1.
M9
G4 S1.
M5
G4 S1.
G0 X50.26 Y-1.72
M3
M8
G4 S3.33
G1 X49.85 Y-6.70
G1 X49.45 Y-11.69 F176.25
G1 X49.05 Y-16.67
G1 X48.64 Y-21.65
G1 X48.24 Y-26.64
G1 X47.84 Y-31.62
G1 X47.43 Y-36.61
G1 X47.03 Y-41.59
G1 X46.62 Y-46.57
G1 X46.22 Y-51.56
G1 X45.82 Y-56.54
G1 X45.41 Y-61.52
G1 X45.01 Y-66.51
G1 X44.61 Y-71.49
G1 X44.20 Y-76.47
G1 X43.80 Y-81.46
G1 X43.39 Y-86.44
G1 X42.99 Y-91.43
G1 X42.61 Y-96.08
G1 X42.21 Y-101.06
G1 X41.81 Y-106.04
G1 X41.40 Y-111.03
G1 X41.00 Y-116.01
G1 X40.60 Y-121.00
G1 X40.19 Y-125.98
G1 X39.79 Y-130.96
G1 X39.38 Y-135.95
G1 X38.98 Y-140.93
G1 X38.58 Y-145.91
G1 X38.17 Y-150.90
G1 X37.77 Y-155.88
G1 X37.37 Y-160.87
G1 X36.96 Y-165.85
G1 X36.56 Y-170.83
G1 X36.15 Y-175.82
G1 X35.75 Y-180.80 F149.81
G1 X35.35 Y-185.78 F114.56
G1 X34.97 Y-190.44 F79.31
G1 X34.51 Y-190.42
G1 X34.05 Y-190.40
G1 X34.03 Y-185.40 F114.56
G1 X34.00 Y-180.40 F149.81
G1 X33.98 Y-175.40 F176.25
G1 X33.95 Y-170.40
G1 X33.93 Y-165.40
G1 X33.91 Y-160.40
G1 X33.88 Y-155.40
G1 X33.86 Y-150.40
G1 X33.83 Y-145.40
G1 X33.81 Y-140.40
G1 X33.78 Y-135.40
G1 X33.76 Y-130.40
G1 X33.74 Y-125.40
G1 X33.71 Y-120.40
G1 X33.69 Y-115.40
G1 X33.66 Y-110.40
G1 X33.64 Y-105.40
G1 X33.62 Y-100.40
G1 X33.61 Y-99.03
G1 X33.58 Y-94.03
G1 X33.56 Y-89.03
G1 X33.54 Y-84.03
G1 X33.51 Y-79.03
G1 X33.49 Y-74.03
G1 X33.46 Y-69.03
G1 X33.44 Y-64.03
G1 X33.41 Y-59.03
G1 X33.39 Y-54.03
G1 X33.37 Y-49.03
G1 X33.34 Y-44.03
G1 X33.32 Y-39.03
G1 X33.29 Y-34.03
G1 X33.27 Y-29.03
G1 X33.25 Y-24.03
G1 X33.22 Y-19.03
G1 X33.20 Y-14.03 F149.81
G1 X33.17 Y-9.03 F123.37
G1 X33.17 Y-7.66
G1 X33.25 Y-7.53
G1 X33.34 Y-7.41
G1 X38.04 Y-5.70 F149.81
G1 X41.59 Y-4.40 F176.25
G1 X46.29 Y-2.69 F149.81
G1 X49.84 Y-1.40 F123.37
G1 X50.05 Y-1.56 F88.13
G1 X50.26 Y-1.72
G1 X50.26 Y-1.72
G4 S1.
M9
G4 S1.
M5
G4 S1.
G0 X100.09 Y-2.68
M3
M8
G4 S3.33
G1 X99.68 Y-7.66
G1 X99.28 Y-12.65 F176.25
G1 X98.87 Y-17.63
G1 X98.47 Y-22.61
G1 X98.07 Y-27.60
G1 X97.66 Y-32.58
G1 X97.26 Y-37.56
G1 X96.86 Y-42.55
G1 X96.45 Y-47.53
G1 X96.05 Y-52.52
G1 X95.64 Y-57.50
G1 X95.24 Y-62.48
G1 X94.84 Y-67.47
G1 X94.43 Y-72.45
G1 X94.03 Y-77.43
G1 X93.63 Y-82.42
G1 X93.22 Y-87.40
G1 X92.82 Y-92.39
G1 X92.44 Y-97.04
G1 X92.04 Y-102.02
G1 X91.63 Y-107.00
G1 X91.23 Y-111.99
G1 X90.83 Y-116.97
G1 X90.42 Y-121.96
G1 X90.02 Y-126.94
G1 X89.62 Y-131.92
G1 X89.21 Y-136.91
G1 X88.81 Y-141.89
G1 X88.40 Y-146.87
G1 X88.00 Y-151.86
G1 X87.60 Y-156.84
G1 X87.19 Y-161.82
G1 X86.79 Y-166.81
G1 X86.39 Y-171.79
G1 X85.98 Y-176.78
G1 X85.58 Y-181.76 F149.81
G1 X85.17 Y-186.74 F114.56
G1 X84.80 Y-191.40 F79.31
G1 X84.34 Y-191.38
G1 X83.88 Y-191.36
G1 X83.85 Y-186.36 F114.56
G1 X83.83 Y-181.36 F149.81
G1 X83.81 Y-176.36 F176.25
G1 X83.78 Y-171.36
G1 X83.76 Y-166.36
G1 X83.73 Y-161.36
G1 X83.71 Y-156.36
G1 X83.69 Y-151.36
G1 X83.66 Y-146.36
G1 X83.64 Y-141.36
G1 X83.61 Y-136.36
G1 X83.59 Y-131.36
G1 X83.56 Y-126.36
G1 X83.54 Y-121.36
G1 X83.52 Y-116.36
G1 X83.49 Y-111.36
G1 X83.47 Y-106.36
G1 X83.44 Y-101.36
G1 X83.44 Y-99.99
G1 X83.41 Y-94.99
G1 X83.39 Y-89.99
G1 X83.36 Y-84.99
G1 X83.34 Y-79.99
G1 X83.32 Y-74.99
G1 X83.29 Y-69.99
G1 X83.27 Y-64.99
G1 X83.24 Y-59.99
G1 X83.22 Y-54.99
G1 X83.19 Y-49.99
G1 X83.17 Y-44.99
G1 X83.15 Y-39.99
G1 X83.12 Y-34.99
G1 X83.10 Y-29.99
G1 X83.07 Y-24.99
G1 X83.05 Y-19.99
G1 X83.03 Y-14.99 F149.81
G1 X83.00 Y-9.99 F123.37
G1 X82.99 Y-8.62
G1 X83.08 Y-8.49
G1 X83.17 Y-8.37
G1 X87.87 Y-6.66 F149.81
G1 X91.42 Y-5.36 F176.25
G1 X96.12 Y-3.65 F149.81
G1 X99.67 Y-2.36 F123.37
G1 X99.88 Y-2.52 F88.13
G1 X100.09 Y-2.68
G1 X100.09 Y-2.68
G4 S1.
M9
G4 S1.
M5
G4 S1.
G0 X188.95 Y-192.34
M3
M8
G4 S3.33
G1 X189.36 Y-187.35
G1 X189.76 Y-182.37 F176.25
G1 X190.17 Y-177.39
G1 X190.57 Y-172.40
G1 X190.97 Y-167.42
G1 X191.38 Y-162.44
G1 X191.78 Y-157.45
G1 X192.18 Y-152.47
G1 X192.59 Y-147.49
G1 X192.99 Y-142.50
G1 X193.40 Y-137.52
G1 X193.80 Y-132.53
G1 X194.20 Y-127.55
G1 X194.61 Y-122.57
G1 X195.01 Y-117.58
G1 X195.41 Y-112.60
G1 X195.82 Y-107.62
G1 X196.22 Y-102.63
G1 X196.60 Y-97.98
G1 X197.00 Y-93.00
G1 X197.41 Y-88.01
G1 X197.81 Y-83.03
G1 X198.21 Y-78.05
G1 X198.62 Y-73.06
G1 X199.02 Y-68.08
G1 X199.42 Y-63.09
G1 X199.83 Y-58.11
G1 X200.23 Y-53.13
G1 X200.64 Y-48.14
G1 X201.04 Y-43.16
G1 X201.44 Y-38.18
G1 X201.85 Y-33.19
G1 X202.25 Y-28.21
G1 X202.65 Y-23.22
G1 X203.06 Y-18.24
G1 X203.46 Y-13.26 F149.81
G1 X203.87 Y-8.27 F114.56
G1 X204.24 Y-3.62 F79.31
G1 X204.70 Y-3.64
G1 X205.16 Y-3.66
G1 X205.19 Y-8.66 F114.56
G1 X205.21 Y-13.66 F149.81
G1 X205.23 Y-18.66 F176.25
G1 X205.26 Y-23.66
G1 X205.28 Y-28.66
G1 X205.31 Y-33.66
G1 X205.33 Y-38.66
G1 X205.35 Y-43.66
G1 X205.38 Y-48.66
G1 X205.40 Y-53.66
G1 X205.43 Y-58.66
G1 X205.45 Y-63.66
G1 X205.48 Y-68.66
G1 X205.50 Y-73.66
G1 X205.52 Y-78.66
G1 X205.55 Y-83.66
G1 X205.57 Y-88.66
G1 X205.60 Y-93.66
G1 X205.60 Y-95.03
G1 X205.63 Y-100.03
G1 X205.65 Y-105.03
G1 X205.68 Y-110.03
G1 X205.70 Y-115.03
G1 X205.72 Y-120.03
G1 X205.75 Y-125.03
G1 X205.77 Y-130.03
G1 X205.80 Y-135.03
G1 X205.82 Y-140.03
G1 X205.85 Y-145.03
G1 X205.87 Y-150.03
G1 X205.89 Y-155.03
G1 X205.92 Y-160.03
G1 X205.94 Y-165.03
G1 X205.97 Y-170.03
G1 X205.99 Y-175.03
G1 X206.01 Y-180.03 F149.81
G1 X206.04 Y-185.03 F123.37
G1 X206.05 Y-186.40
G1 X205.96 Y-186.53
G1 X205.87 Y-186.65
G1 X201.17 Y-188.36 F149.81
G1 X197.62 Y-189.65 F176.25
G1 X192.92 Y-191.36 F149.81
G1 X189.37 Y-192.66 F123.37
G1 X189.16 Y-192.50 F88.13
G1 X188.95 Y-192.34
G1 X188.95 Y-192.34
G4 S1.
M9
G4 S1.
M5
G4 S1.
G0 X64.14 Y-196.66
M3
M8
G4 S3.33
G1 X64.54 Y-191.67
G1 X64.95 Y-186.69 F176.25
G1 X65.35 Y-181.71
G1 X65.75 Y-176.72
G1 X66.16 Y-171.74
G1 X66.56 Y-166.75
G1 X66.97 Y-161.77
G1 X67.37 Y-156.79
G1 X67.77 Y-151.80
G1 X68.18 Y-146.82
G1 X68.58 Y-141.84
G1 X68.98 Y-136.85
G1 X69.39 Y-131.87
G1 X69.79 Y-126.88
G1 X70.20 Y-121.90
G1 X70.60 Y-116.92
G1 X71.00 Y-111.93
G1 X71.41 Y-106.95
G1 X71.78 Y-102.30
G1 X72.19 Y-97.31
G1 X72.59 Y-92.33
G1 X72.99 Y-87.35
G1 X73.40 Y-82.36
G1 X73.80 Y-77.38
G1 X74.21 Y-72.40
G1 X74.61 Y-67.41
G1 X75.01 Y-62.43
G1 X75.42 Y-57.45
G1 X75.82 Y-52.46
G1 X76.22 Y-47.48
G1 X76.63 Y-42.49
G1 X77.03 Y-37.51
G1 X77.44 Y-32.53
G1 X77.84 Y-27.54
G1 X78.24 Y-22.56
G1 X78.65 Y-17.58 F149.81
G1 X79.05 Y-12.59 F114.56
G1 X79.43 Y-7.94 F79.31
G1 X79.89 Y-7.96
G1 X80.35 Y-7.97
G1 X80.37 Y-12.97 F114.56
G1 X80.39 Y-17.97 F149.81
G1 X80.42 Y-22.97 F176.25
G1 X80.44 Y-27.97
G1 X80.47 Y-32.97
G1 X80.49 Y-37.97
G1 X80.52 Y-42.97
G1 X80.54 Y-47.97
G1 X80.56 Y-52.97
G1 X80.59 Y-57.97
G1 X80.61 Y-62.97
G1 X80.64 Y-67.97
G1 X80.66 Y-72.97
G1 X80.69 Y-77.97
G1 X80.71 Y-82.97
G1 X80.73 Y-87.97
G1 X80.76 Y-92.97
G1 X80.78 Y-97.97
G1 X80.79 Y-99.35
G1 X80.81 Y-104.35
G1 X80.84 Y-109.35
G1 X80.86 Y-114.35
G1 X80.89 Y-119.35
G1 X80.91 Y-124.35
G1 X80.93 Y-129.35
G1 X80.96 Y-134.35
G1 X80.98 Y-139.35
G1 X81.01 Y-144.35
G1 X81.03 Y-149.35
G1 X81.05 Y-154.35
G1 X81.08 Y-159.35
G1 X81.10 Y-164.35
G1 X81.13 Y-169.35
G1 X81.15 Y-174.35
G1 X81.18 Y-179.35
G1 X81.20 Y-184.35 F149.81
G1 X81.22 Y-189.35 F123.37
G1 X81.23 Y-190.72
G1 X81.14 Y-190.84
G1 X81.06 Y-190.97
G1 X76.36 Y-192.68 F149.81
G1 X72.81 Y-193.97 F176.25
G1 X68.11 Y-195.68 F149.81
G1 X64.56 Y-196.97 F123.37
G1 X64.35 Y-196.82 F88.13
G1 X64.14 Y-196.66
G1 X64.14 Y-196.66
G4 S1.
M9
G4 S1.
M5
G4 S1.
G0 X86.62 Y-192.34
M3
M8
G4 S3.33
G1 X87.02 Y-187.35
G1 X87.43 Y-182.37 F176.25
G1 X87.83 Y-177.39
G1 X88.23 Y-172.40
G1 X88.64 Y-167.42
G1 X89.04 Y-162.44
G1 X89.45 Y-157.45
G1 X89.85 Y-152.47
G1 X90.25 Y-147.49
G1 X90.66 Y-142.50
G1 X91.06 Y-137.52
G1 X91.46 Y-132.53
G1 X91.87 Y-127.55
G1 X92.27 Y-122.57
G1 X92.68 Y-117.58
G1 X93.08 Y-112.60
G1 X93.48 Y-107.62
G1 X93.89 Y-102.63
G1 X94.26 Y-97.98
G1 X94.67 Y-93.00
G1 X95.07 Y-88.01
G1 X95.47 Y-83.03
G1 X95.88 Y-78.05
G1 X96.28 Y-73.06
G1 X96.69 Y-68.08
G1 X97.09 Y-63.09
G1 X97.49 Y-58.11
G1 X97.90 Y-53.13
G1 X98.30 Y-48.14
G1 X98.70 Y-43.16
G1 X99.11 Y-38.18
G1 X99.51 Y-33.19
G1 X99.92 Y-28.21
G1 X100.32 Y-23.22
G1 X100.72 Y-18.24
G1 X101.13 Y-13.26 F149.81
G1 X101.53 Y-8.27 F114.56
G1 X101.91 Y-3.62 F79.31
G1 X102.37 Y-3.64
G1 X102.83 Y-3.66
G1 X102.85 Y-8.66 F114.56
G1 X102.87 Y-13.66 F149.81
G1 X102.90 Y-18.66 F176.25
G1 X102.92 Y-23.66
G1 X102.95 Y-28.66
G1 X102.97 Y-33.66
G1 X103.00 Y-38.66
G1 X103.02 Y-43.66
G1 X103.04 Y-48.66
G1 X103.07 Y-53.66
G1 X103.09 Y-58.66
G1 X103.12 Y-63.66
G1 X103.14 Y-68.66
G1 X103.17 Y-73.66
G1 X103.19 Y-78.66
G1 X103.21 Y-83.66
G1 X103.24 Y-88.66
G1 X103.26 Y-93.66
G1 X103.27 Y-95.03
G1 X103.29 Y-100.03
G1 X103.32 Y-105.03
G1 X103.34 Y-110.03
G1 X103.37 Y-115.03
G1 X103.39 Y-120.03
G1 X103.41 Y-125.03
G1 X103.44 Y-130.03
G1 X103.46 Y-135.03
G1 X103.49 Y-140.03
G1 X103.51 Y-145.03
G1 X103.53 Y-150.03
G1 X103.56 Y-155.03
G1 X103.58 Y-160.03
G1 X103.61 Y-165.03
G1 X103.63 Y-170.03
G1 X103.66 Y-175.03
G1 X103.68 Y-180.03 F149.81
G1 X103.70 Y-185.03 F123.37
G1 X103.71 Y-186.40
G1 X103.62 Y-186.53
G1 X103.54 Y-186.65
G1 X98.84 Y-188.36 F149.81
G1 X95.29 Y-189.65 F176.25
G1 X90.59 Y-191.36 F149.81
G1 X87.04 Y-192.66 F123.37
G1 X86.83 Y-192.50 F88.13
G1 X86.62 Y-192.34
G1 X86.62 Y-192.34
G4 S1.
M9
G4 S1.
M5
G4 S1.
G0 X77.13 Y-3.16
M3
M8
G4 S3.33
G1 X76.72 Y-8.14
G1 X76.32 Y-13.13 F176.25
G1 X75.91 Y-18.11
G1 X75.51 Y-23.09
G1 X75.11 Y-28.08
G1 X74.70 Y-33.06
G1 X74.30 Y-38.04
G1 X73.90 Y-43.03
G1 X73.49 Y-48.01
G1 X73.09 Y-53.00
G1 X72.68 Y-57.98
G1 X72.28 Y-62.96
G1 X71.88 Y-67.95
G1 X71.47 Y-72.93
G1 X71.07 Y-77.91
G1 X70.67 Y-82.90
G1 X70.26 Y-87.88
G1 X69.86 Y-92.86
G1 X69.48 Y-97.52
G1 X69.08 Y-102.50
G1 X68.67 Y-107.48
G1 X68.27 Y-112.47
G1 X67.87 Y-117.45
G1 X67.46 Y-122.44
G1 X67.06 Y-127.42
G1 X66.66 Y-132.40
G1 X66.25 Y-137.39
G1 X65.85 Y-142.37
G1 X65.44 Y-147.35
G1 X65.04 Y-152.34
G1 X64.64 Y-157.32
G1 X64.23 Y-162.30
G1 X63.83 Y-167.29
G1 X63.43 Y-172.27
G1 X63.02 Y-177.26
G1 X62.62 Y-182.24 F149.81
G1 X62.21 Y-187.22 F114.56
G1 X61.84 Y-191.88 F79.31
G1 X61.38 Y-191.86
G1 X60.92 Y-191.84
G1 X60.89 Y-186.84 F114.56
G1 X60.87 Y-181.84 F149.81
G1 X60.85 Y-176.84 F176.25
G1 X60.82 Y-171.84
G1 X60.80 Y-166.84
G1 X60.77 Y-161.84
G1 X60.75 Y-156.84
G1 X60.73 Y-151.84
G1 X60.70 Y-146.84
G1 X60.68 Y-141.84
G1 X60.65 Y-136.84
G1 X60.63 Y-131.84
G1 X60.60 Y-126.84
G1 X60.58 Y-121.84
G1 X60.56 Y-116.84
G1 X60.53 Y-111.84
G1 X60.51 Y-106.84
G1 X60.48 Y-101.84
G1 X60.48 Y-100.47
G1 X60.45 Y-95.47
G1 X60.43 Y-90.47
G1 X60.40 Y-85.47
G1 X60.38 Y-80.47
G1 X60.36 Y-75.47
G1 X60.33 Y-70.47
G1 X60.31 Y-65.47
G1 X60.28 Y-60.47
G1 X60.26 Y-55.47
G1 X60.23 Y-50.47
G1 X60.21 Y-45.47
G1 X60.19 Y-40.47
G1 X60.16 Y-35.47
G1 X60.14 Y-30.47
G1 X60.11 Y-25.47
G1 X60.09 Y-20.47
G1 X60.07 Y-15.47 F149.81
G1 X60.04 Y-10.47 F123.37
G1 X60.03 Y-9.10
G1 X60.12 Y-8.97
G1 X60.21 Y-8.85
G1 X64.91 Y-7.14 F149.81
G1 X68.46 Y-5.84 F176.25
G1 X73.16 Y-4.13 F149.81
G1 X76.71 Y-2.84 F123.37
G1 X76.92 Y-3.00 F88.13
G1 X77.13 Y-3.16
G1 X77.13 Y-3.16
G4 S1.
M9
G4 S1.
M5
G4 S1.
G0 X123.12 Y-3.64
M3
M8
G4 S3.33
G1 X122.71 Y-8.62
G1 X122.31 Y-13.61 F176.25
G1 X121.90 Y-18.59
G1 X121.50 Y-23.57
G1 X121.10 Y-28.56
G1 X120.69 Y-33.54
G1 X120.29 Y-38.52
G1 X119.89 Y-43.51
G1 X119.48 Y-48.49
G1 X119.08 Y-53.48
G1 X118.67 Y-58.46
G1 X118.27 Y-63.44
G1 X117.87 Y-68.43
G1 X117.46 Y-73.41
G1 X117.06 Y-78.39
G1 X116.66 Y-83.38
G1 X116.25 Y-88.36
G1 X115.85 Y-93.34
G1 X115.47 Y-98.00
G1 X115.07 Y-102.98
G1 X114.66 Y-107.96
G1 X114.26 Y-112.95
G1 X113.86 Y-117.93
G1 X113.45 Y-122.92
G1 X113.05 Y-127.90
G1 X112.65 Y-132.88
G1 X112.24 Y-137.87
G1 X111.84 Y-142.85
G1 X111.43 Y-147.83
G1 X111.03 Y-152.82
G1 X110.63 Y-157.80
G1 X110.22 Y-162.78
G1 X109.82 Y-167.77
G1 X109.42 Y-172.75
G1 X109.01 Y-177.74
G1 X108.61 Y-182.72 F149.81
G1 X108.20 Y-187.70 F114.56
G1 X107.83 Y-192.35 F79.31
G1 X107.37 Y-192.34
G1 X106.91 Y-192.32
G1 X106.88 Y-187.32 F114.56
G1 X106.86 Y-182.32 F149.81
G1 X106.84 Y-177.32 F176.25
G1 X106.81 Y-172.32
G1 X106.79 Y-167.32
G1 X106.76 Y-162.32
G1 X106.74 Y-157.32
G1 X106.72 Y-152.32
G1 X106.69 Y-147.32
G1 X106.67 Y-142.32
G1 X106.64 Y-137.32
G1 X106.62 Y-132.32
G1 X106.59 Y-127.32
G1 X106.57 Y-122.32
G1 X106.55 Y-117.32
G1 X106.52 Y-112.32
G1 X106.50 Y-107.32
G1 X106.47 Y-102.32
G1 X106.47 Y-100.95
G1 X106.44 Y-95.95
G1 X106.42 Y-90.95
G1 X106.39 Y-85.95
G1 X106.37 Y-80.95
G1 X106.35 Y-75.95
G1 X106.32 Y-70.95
G1 X106.30 Y-65.95
G1 X106.27 Y-60.95
G1 X106.25 Y-55.95
G1 X106.22 Y-50.95
G1 X106.20 Y-45.95
G1 X106.18 Y-40.95
G1 X106.15 Y-35.95
G1 X106.13 Y-30.95
G1 X106.10 Y-25.95
G1 X106.08 Y-20.95
G1 X106.06 Y-15.95 F149.81
G1 X106.03 Y-10.95 F123.37
G1 X106.02 Y-9.58
G1 X106.11 Y-9.45
G1 X106.20 Y-9.33
G1 X110.90 Y-7.62 F149.81
G1 X114.45 Y-6.32 F176.25
G1 X119.15 Y-4.61 F149.81
G1 X122.70 Y-3.32 F123.37
G1 X122.91 Y-3.48 F88.13
G1 X123.12 Y-3.64
G1 X123.12 Y-3.64
G4 S1.
M9
G4 S1.
M5
G4 S1.
G0 X163.53 Y-192.82
M3
M8
G4 S3.33
G1 X163.93 Y-187.83
G1 X164.33 Y-182.85 F176.25
G1 X164.74 Y-177.87
G1 X165.14 Y-172.88
G1 X165.54 Y-167.90
G1 X165.95 Y-162.92
G1 X166.35 Y-157.93
G1 X166.76 Y-152.95
G1 X167.16 Y-147.96
G1 X167.56 Y-142.98
G1 X167.97 Y-138.00
G1 X168.37 Y-133.01
G1 X168.77 Y-128.03
G1 X169.18 Y-123.05
G1 X169.58 Y-118.06
G1 X169.98 Y-113.08
G1 X170.39 Y-108.10
G1 X170.79 Y-103.11
G1 X171.17 Y-98.46
G1 X171.57 Y-93.48
G1 X171.98 Y-88.49
G1 X172.38 Y-83.51
G1 X172.78 Y-78.53
G1 X173.19 Y-73.54
G1 X173.59 Y-68.56
G1 X174.00 Y-63.57
G1 X174.40 Y-58.59
G1 X174.80 Y-53.61
G1 X175.21 Y-48.62
G1 X175.61 Y-43.64
G1 X176.01 Y-38.66
G1 X176.42 Y-33.67
G1 X176.82 Y-28.69
G1 X177.23 Y-23.70
G1 X177.63 Y-18.72
G1 X178.03 Y-13.74 F149.81
G1 X178.44 Y-8.75 F114.56
G1 X178.81 Y-4.10 F79.31
G1 X179.27 Y-4.12
G1 X179.73 Y-4.14
G1 X179.76 Y-9.14 F114.56
G1 X179.78 Y-14.14 F149.81
G1 X179.80 Y-19.14 F176.25
G1 X179.83 Y-24.14
G1 X179.85 Y-29.14
G1 X179.88 Y-34.14
G1 X179.90 Y-39.14
G1 X179.93 Y-44.14
G1 X179.95 Y-49.14
G1 X179.97 Y-54.14
G1 X180.00 Y-59.14
G1 X180.02 Y-64.14
G1 X180.05 Y-69.14
G1 X180.07 Y-74.14
G1 X180.10 Y-79.14
G1 X180.12 Y-84.14
G1 X180.14 Y-89.14
G1 X180.17 Y-94.14
G1 X180.17 Y-95.51
G1 X180.20 Y-100.51
G1 X180.22 Y-105.51
G1 X180.25 Y-110.51
G1 X180.27 Y-115.51
G1 X180.30 Y-120.51
G1 X180.32 Y-125.51
G1 X180.34 Y-130.51
G1 X180.37 Y-135.51
G1 X180.39 Y-140.51
G1 X180.42 Y-145.51
G1 X180.44 Y-150.51
G1 X180.46 Y-155.51
G1 X180.49 Y-160.51
G1 X180.51 Y-165.51
G1 X180.54 Y-170.51
G1 X180.56 Y-175.51
G1 X180.59 Y-180.51 F149.81
G1 X180.61 Y-185.51 F123.37
G1 X180.62 Y-186.88
G1 X180.53 Y-187.01
G1 X180.44 Y-187.13
G1 X175.74 Y-188.84 F149.81
G1 X172.19 Y-190.13 F176.25
G1 X167.49 Y-191.84 F149.81
G1 X163.94 Y-193.14 F123.37
G1 X163.73 Y-192.98 F88.13
G1 X163.53 Y-192.82
G1 X163.53 Y-192.82
G4 S1.
M9
G4 S1.
M5
G4 S1.
G0 X12.80 Y-197.14
M3
M8
G4 S3.33
G1 X13.21 Y-192.15
G1 X13.61 Y-187.17 F176.25
G1 X14.01 Y-182.19
G1 X14.42 Y-177.20
G1 X14.82 Y-172.22
G1 X15.22 Y-167.23
G1 X15.63 Y-162.25
G1 X16.03 Y-157.27
G1 X16.44 Y-152.28
G1 X16.84 Y-147.30
G1 X17.24 Y-142.32
G1 X17.65 Y-137.33
G1 X18.05 Y-132.35
G1 X18.45 Y-127.36
G1 X18.86 Y-122.38
G1 X19.26 Y-117.40
G1 X19.67 Y-112.41
G1 X20.07 Y-107.43
G1 X20.45 Y-102.78
G1 X20.85 Y-97.79
G1 X21.25 Y-92.81
G1 X21.66 Y-87.83
G1 X22.06 Y-82.84
G1 X22.46 Y-77.86
G1 X22.87 Y-72.88
G1 X23.27 Y-67.89
G1 X23.68 Y-62.91
G1 X24.08 Y-57.92
G1 X24.48 Y-52.94
G1 X24.89 Y-47.96
G1 X25.29 Y-42.97
G1 X25.69 Y-37.99
G1 X26.10 Y-33.01
G1 X26.50 Y-28.02
G1 X26.91 Y-23.04
G1 X27.31 Y-18.06 F149.81
G1 X27.71 Y-13.07 F114.56
G1 X28.09 Y-8.42 F79.31
G1 X28.55 Y-8.44
G1 X29.01 Y-8.45
G1 X29.03 Y-13.45 F114.56
G1 X29.06 Y-18.45 F149.81
G1 X29.08 Y-23.45 F176.25
G1 X29.11 Y-28.45
G1 X29.13 Y-33.45
G1 X29.15 Y-38.45
G1 X29.18 Y-43.45
G1 X29.20 Y-48.45
G1 X29.23 Y-53.45
G1 X29.25 Y-58.45
G1 X29.28 Y-63.45
G1 X29.30 Y-68.45
G1 X29.32 Y-73.45
G1 X29.35 Y-78.45
G1 X29.37 Y-83.45
G1 X29.40 Y-88.45
G1 X29.42 Y-93.45
G1 X29.44 Y-98.45
G1 X29.45 Y-99.83
G1 X29.48 Y-104.83
G1 X29.50 Y-109.83
G1 X29.52 Y-114.83
G1 X29.55 Y-119.83
G1 X29.57 Y-124.83
G1 X29.60 Y-129.83
G1 X29.62 Y-134.83
G1 X29.64 Y-139.83
G1 X29.67 Y-144.83
G1 X29.69 Y-149.83
G1 X29.72 Y-154.83
G1 X29.74 Y-159.83
G1 X29.77 Y-164.83
G1 X29.79 Y-169.83
G1 X29.81 Y-174.83
G1 X29.84 Y-179.83
G1 X29.86 Y-184.83 F149.81
G1 X29.89 Y-189.83 F123.37
G1 X29.89 Y-191.20
G1 X29.81 Y-191.32
G1 X29.72 Y-191.45
G1 X25.02 Y-193.16 F149.81
G1 X21.47 Y-194.45 F176.25
G1 X16.77 Y-196.16 F149.81
G1 X13.22 Y-197.45 F123.37
G1 X13.01 Y-197.30 F88.13
G1 X12.80 Y-197.14
G1 X12.80 Y-197.14
G4 S1.
M9
G4 S1.
M5
G4 S1.
G0 X39.60 Y-192.82
M3
M8
G4 S3.33
G1 X40.00 Y-187.83
G1 X40.41 Y-182.85 F176.25
G1 X40.81 Y-177.87
G1 X41.22 Y-172.88
G1 X41.62 Y-167.90
G1 X42.02 Y-162.92
G1 X42.43 Y-157.93
G1 X42.83 Y-152.95
G1 X43.23 Y-147.96
G1 X43.64 Y-142.98
G1 X44.04 Y-138.00
G1 X44.44 Y-133.01
G1 X44.85 Y-128.03
G1 X45.25 Y-123.05
G1 X45.66 Y-118.06
G1 X46.06 Y-113.08
G1 X46.46 Y-108.10
G1 X46.87 Y-103.11
G1 X47.24 Y-98.46
G1 X47.65 Y-93.48
G1 X48.05 Y-88.49
G1 X48.46 Y-83.51
G1 X48.86 Y-78.53
G1 X49.26 Y-73.54
G1 X49.67 Y-68.56
G1 X50.07 Y-63.57
G1 X50.47 Y-58.59
G1 X50.88 Y-53.61
G1 X51.28 Y-48.62
G1 X51.69 Y-43.64
G1 X52.09 Y-38.66
G1 X52.49 Y-33.67
G1 X52.90 Y-28.69
G1 X53.30 Y-23.70
G1 X53.70 Y-18.72
G1 X54.11 Y-13.74 F149.81
G1 X54.51 Y-8.75 F114.56
G1 X54.89 Y-4.10 F79.31
G1 X55.35 Y-4.12
G1 X55.81 Y-4.14
G1 X55.83 Y-9.14 F114.56
G1 X55.86 Y-14.14 F149.81
G1 X55.88 Y-19.14 F176.25
G1 X55.90 Y-24.14
G1 X55.93 Y-29.14
G1 X55.95 Y-34.14
G1 X55.98 Y-39.14
G1 X56.00 Y-44.14
G1 X56.03 Y-49.14
G1 X56.05 Y-54.14
G1 X56.07 Y-59.14
G1 X56.10 Y-64.14
G1 X56.12 Y-69.14
G1 X56.15 Y-74.14
G1 X56.17 Y-79.14
G1 X56.19 Y-84.14
G1 X56.22 Y-89.14
G1 X56.24 Y-94.14
G1 X56.25 Y-95.51
G1 X56.27 Y-100.51
G1 X56.30 Y-105.51
G1 X56.32 Y-110.51
G1 X56.35 Y-115.51
G1 X56.37 Y-120.51
G1 X56.39 Y-125.51
G1 X56.42 Y-130.51
G1 X56.44 Y-135.51
G1 X56.47 Y-140.51
G1 X56.49 Y-145.51
G1 X56.52 Y-150.51
G1 X56.54 Y-155.51
G1 X56.56 Y-160.51
G1 X56.59 Y-165.51
G1 X56.61 Y-170.51
G1 X56.64 Y-175.51
G1 X56.66 Y-180.51 F149.81
G1 X56.68 Y-185.51 F123.37
G1 X56.69 Y-186.88
G1 X56.60 Y-187.01
G1 X56.52 Y-187.13
G1 X51.82 Y-188.84 F149.81
G1 X48.27 Y-190.13 F176.25
G1 X43.57 Y-191.84 F149.81
G1 X40.02 Y-193.14 F123.37
G1 X39.81 Y-192.98 F88.13
G1 X39.60 Y-192.82
G1 X39.60 Y-192.82
G4 S1.
M9
G4 S1.
M5
G4 S1.
G0 X137.28 Y-194.26
M3
M8
G4 S3.33
G1 X137.68 Y-189.27
G1 X138.08 Y-184.29 F176.25
G1 X138.49 Y-179.31
G1 X138.89 Y-174.32
G1 X139.30 Y-169.34
G1 X139.70 Y-164.36
G1 X140.10 Y-159.37
G1 X140.51 Y-154.39
G1 X140.91 Y-149.40
G1 X141.31 Y-144.42
G1 X141.72 Y-139.44
G1 X142.12 Y-134.45
G1 X142.53 Y-129.47
G1 X142.93 Y-124.49
G1 X143.33 Y-119.50
G1 X143.74 Y-114.52
G1 X144.14 Y-109.53
G1 X144.54 Y-104.55
G1 X144.92 Y-99.90
G1 X145.32 Y-94.92
G1 X145.73 Y-89.93
G1 X146.13 Y-84.95
G1 X146.54 Y-79.96
G1 X146.94 Y-74.98
G1 X147.34 Y-70.00
G1 X147.75 Y-65.01
G1 X148.15 Y-60.03
G1 X148.55 Y-55.05
G1 X148.96 Y-50.06
G1 X149.36 Y-45.08
G1 X149.77 Y-40.10
G1 X150.17 Y-35.11
G1 X150.57 Y-30.13
G1 X150.98 Y-25.14
G1 X151.38 Y-20.16
G1 X151.78 Y-15.18 F149.81
G1 X152.19 Y-10.19 F114.56
G1 X152.56 Y-5.54 F79.31
G1 X153.02 Y-5.56
G1 X153.48 Y-5.58
G1 X153.51 Y-10.58 F114.56
G1 X153.53 Y-15.58 F149.81
G1 X153.56 Y-20.58 F176.25
G1 X153.58 Y-25.58
G1 X153.60 Y-30.58
G1 X153.63 Y-35.58
G1 X153.65 Y-40.58
G1 X153.68 Y-45.58
G1 X153.70 Y-50.58
G1 X153.73 Y-55.58
G1 X153.75 Y-60.58
G1 X153.77 Y-65.58
G1 X153.80 Y-70.58
G1 X153.82 Y-75.58
G1 X153.85 Y-80.58
G1 X153.87 Y-85.58
G1 X153.90 Y-90.58
G1 X153.92 Y-95.57
G1 X153.93 Y-96.95
G1 X153.95 Y-101.95
G1 X153.97 Y-106.95
G1 X154.00 Y-111.95
G1 X154.02 Y-116.95
G1 X154.05 Y-121.95
G1 X154.07 Y-126.95
G1 X154.10 Y-131.95
G1 X154.12 Y-136.95
G1 X154.14 Y-141.95
G1 X154.17 Y-146.95
G1 X154.19 Y-151.95
G1 X154.22 Y-156.95
G1 X154.24 Y-161.95
G1 X154.26 Y-166.95
G1 X154.29 Y-171.95
G1 X154.31 Y-176.95
G1 X154.34 Y-181.95 F149.81
G1 X154.36 Y-186.95 F123.37
G1 X154.37 Y-188.32
G1 X154.28 Y-188.45
G1 X154.19 Y-188.57
G1 X149.50 Y-190.28 F149.81
G1 X145.94 Y-191.57 F176.25
G1 X141.25 Y-193.28 F149.81
G1 X137.69 Y-194.58 F123.37
G1 X137.49 Y-194.42 F88.13
G1 X137.28 Y-194.26
G1 X137.28 Y-194.26
G4 S1.
M9
G4 S1.
M5
G4 S1.
G0 X174.45 Y-3.16
M3
M8
G4 S3.33
G1 X174.05 Y-8.14
G1 X173.65 Y-13.13 F176.25
G1 X173.24 Y-18.11
G1 X172.84 Y-23.09
G1 X172.43 Y-28.08
G1 X172.03 Y-33.06
G1 X171.63 Y-38.04
G1 X171.22 Y-43.03
G1 X170.82 Y-48.01
G1 X170.42 Y-53.00
G1 X170.01 Y-57.98
G1 X169.61 Y-62.96
G1 X169.20 Y-67.95
G1 X168.80 Y-72.93
G1 X168.40 Y-77.91
G1 X167.99 Y-82.90
G1 X167.59 Y-87.88
G1 X167.19 Y-92.86
G1 X166.81 Y-97.52
G1 X166.41 Y-102.50
G1 X166.00 Y-107.48
G1 X165.60 Y-112.47
G1 X165.19 Y-117.45
G1 X164.79 Y-122.44
G1 X164.39 Y-127.42
G1 X163.98 Y-132.40
G1 X163.58 Y-137.39
G1 X163.18 Y-142.37
G1 X162.77 Y-147.35
G1 X162.37 Y-152.34
G1 X161.96 Y-157.32
G1 X161.56 Y-162.30
G1 X161.16 Y-167.29
G1 X160.75 Y-172.27
G1 X160.35 Y-177.26
G1 X159.95 Y-182.24 F149.81
G1 X159.54 Y-187.22 F114.56
G1 X159.17 Y-191.88 F79.31
G1 X158.71 Y-191.86
G1 X158.25 Y-191.84
G1 X158.22 Y-186.84 F114.56
G1 X158.20 Y-181.84 F149.81
G1 X158.17 Y-176.84 F176.25
G1 X158.15 Y-171.84
G1 X158.12 Y-166.84
G1 X158.10 Y-161.84
G1 X158.08 Y-156.84
G1 X158.05 Y-151.84
G1 X158.03 Y-146.84
G1 X158.00 Y-141.84
G1 X157.98 Y-136.84
G1 X157.96 Y-131.84
G1 X157.93 Y-126.84
G1 X157.91 Y-121.84
G1 X157.88 Y-116.84
G1 X157.86 Y-111.84
G1 X157.83 Y-106.84
G1 X157.81 Y-101.84
G1 X157.80 Y-100.47
G1 X157.78 Y-95.47
G1 X157.76 Y-90.47
G1 X157.73 Y-85.47
G1 X157.71 Y-80.47
G1 X157.68 Y-75.47
G1 X157.66 Y-70.47
G1 X157.63 Y-65.47
G1 X157.61 Y-60.47
G1 X157.59 Y-55.47
G1 X157.56 Y-50.47
G1 X157.54 Y-45.47
G1 X157.51 Y-40.47
G1 X157.49 Y-35.47
G1 X157.47 Y-30.47
G1 X157.44 Y-25.47
G1 X157.42 Y-20.47
G1 X157.39 Y-15.47 F149.81
G1 X157.37 Y-10.47 F123.37
G1 X157.36 Y-9.10
G1 X157.45 Y-8.97
G1 X157.54 Y-8.85
G1 X162.23 Y-7.14 F149.81
G1 X165.79 Y-5.84 F176.25
G1 X170.48 Y-4.13 F149.81
G1 X174.04 Y-2.84 F123.37
G1 X174.24 Y-3.00 F88.13
G1 X174.45 Y-3.16
G1 X174.45 Y-3.16
G4 S1.
M9
G4 S1.
M5
G4 S1.
G0 X147.99 Y-2.68
M3
M8
G4 S3.33
G1 X147.59 Y-7.66
G1 X147.19 Y-12.65 F176.25
G1 X146.78 Y-17.63
G1 X146.38 Y-22.61
G1 X145.98 Y-27.60
G1 X145.57 Y-32.58
G1 X145.17 Y-37.56
G1 X144.77 Y-42.55
G1 X144.36 Y-47.53
G1 X143.96 Y-52.52
G1 X143.55 Y-57.50
G1 X143.15 Y-62.48
G1 X142.75 Y-67.47
G1 X142.34 Y-72.45
G1 X141.94 Y-77.43
G1 X141.54 Y-82.42
G1 X141.13 Y-87.40
G1 X140.73 Y-92.39
G1 X140.35 Y-97.04
G1 X139.95 Y-102.02
G1 X139.54 Y-107.00
G1 X139.14 Y-111.99
G1 X138.74 Y-116.97
G1 X138.33 Y-121.96
G1 X137.93 Y-126.94
G1 X137.52 Y-131.92
G1 X137.12 Y-136.91
G1 X136.72 Y-141.89
G1 X136.31 Y-146.87
G1 X135.91 Y-151.86
G1 X135.51 Y-156.84
G1 X135.10 Y-161.82
G1 X134.70 Y-166.81
G1 X134.29 Y-171.79
G1 X133.89 Y-176.78
G1 X133.49 Y-181.76 F149.81
G1 X133.08 Y-186.74 F114.56
G1 X132.71 Y-191.40 F79.31
G1 X132.25 Y-191.38
G1 X131.79 Y-191.36
G1 X131.76 Y-186.36 F114.56
G1 X131.74 Y-181.36 F149.81
G1 X131.72 Y-176.36 F176.25
G1 X131.69 Y-171.36
G1 X131.67 Y-166.36
G1 X131.64 Y-161.36
G1 X131.62 Y-156.36
G1 X131.59 Y-151.36
G1 X131.57 Y-146.36
G1 X131.55 Y-141.36
G1 X131.52 Y-136.36
G1 X131.50 Y-131.36
G1 X131.47 Y-126.36
G1 X131.45 Y-121.36
G1 X131.42 Y-116.36
G1 X131.40 Y-111.36
G1 X131.38 Y-106.36
G1 X131.35 Y-101.36
G1 X131.35 Y-99.99
G1 X131.32 Y-94.99
G1 X131.30 Y-89.99
G1 X131.27 Y-84.99
G1 X131.25 Y-79.99
G1 X131.22 Y-74.99
G1 X131.20 Y-69.99
G1 X131.18 Y-64.99
G1 X131.15 Y-59.99
G1 X131.13 Y-54.99
G1 X131.10 Y-49.99
G1 X131.08 Y-44.99
G1 X131.06 Y-39.99
G1 X131.03 Y-34.99
G1 X131.01 Y-29.99
G1 X130.98 Y-24.99
G1 X130.96 Y-19.99
G1 X130.93 Y-14.99 F149.81
G1 X130.91 Y-9.99 F123.37
G1 X130.90 Y-8.62
G1 X130.99 Y-8.49
G1 X131.08 Y-8.37
G1 X135.78 Y-6.66 F149.81
G1 X139.33 Y-5.36 F176.25
G1 X144.03 Y-3.65 F149.81
G1 X147.58 Y-2.36 F123.37
G1 X147.79 Y-2.52 F88.13
G1 X147.99 Y-2.68
G1 X147.99 Y-2.68
G4 S1.
M9
G4 S1.
M5
G4 S1.
M1413 00:44:35
M1404
