;-------------------------------Cut file parameters------------------------
; Input file name : yellow_x16 (1).dxf
; File rotation : 0 File scale : 1
; Machine : Desktop
; Material name : Glass - Soda Lime
; Material thickness : 0.125 in
; Cut path  : Outside
; Cut quality : mediumRate
; Raw Material width : 335.2mm
; Raw Material height : 181.6mm
;-------------------------------Do Not modify the Gcode file---------------
G90
G21
M1403
M1405 X2.59 Y-1.88
M1406 X337.77 Y-183.49
M1407 S3.33
M1410 2.2.0; Generated on Wam
M1411 Glass - Soda Lime
M1412 0.125 in
G0 X337.29 Y-4.44
M3
M8
G4 S3.33
G1 X337.29 Y-9.44 F176.25
G1 X337.29 Y-14.44
G1 X337.29 Y-19.44
G1 X337.29 Y-24.44
G1 X337.29 Y-29.44
G1 X337.29 Y-34.44
G1 X337.29 Y-39.44
G1 X337.29 Y-44.44
G1 X337.29 Y-49.44
G1 X337.29 Y-54.44
G1 X337.29 Y-59.44
G1 X337.29 Y-64.44
G1 X337.29 Y-69.44
G1 X337.29 Y-74.44
G1 X337.29 Y-79.44
G1 X337.29 Y-84.44
G1 X337.29 Y-89.44
G1 X337.29 Y-89.58 F167.44
G1 X337.29 Y-94.58 F176.25
G1 X337.29 Y-99.58
G1 X337.29 Y-104.58
G1 X337.29 Y-109.58
G1 X337.29 Y-114.58
G1 X337.29 Y-119.58
G1 X337.29 Y-124.58
G1 X337.29 Y-129.58
G1 X337.29 Y-134.58
G1 X337.29 Y-139.58
G1 X337.29 Y-144.58
G1 X337.29 Y-149.58
G1 X337.29 Y-154.58
G1 X337.29 Y-159.58
G1 X337.29 Y-164.58
G1 X337.29 Y-169.58 F149.81
G1 X337.29 Y-174.58 F123.37
G1 X337.29 Y-174.73
G1 X337.15 Y-174.87
G1 X337.01 Y-175.01
G1 X332.01 Y-175.01 F149.81
G1 X327.01 Y-175.01 F176.25
G1 X322.01 Y-175.01
G1 X317.01 Y-175.01
G1 X312.01 Y-175.01
G1 X307.01 Y-175.01
G1 X302.01 Y-175.01
G1 X297.88 Y-175.01
G1 X292.88 Y-175.01
G1 X287.88 Y-175.01
G1 X282.88 Y-175.01
G1 X277.88 Y-175.01
G1 X272.88 Y-175.01
G1 X267.88 Y-175.01
G1 X262.88 Y-175.01 F149.81
G1 X258.74 Y-175.01 F123.37
G1 X258.60 Y-174.79
G1 X258.46 Y-174.57
G1 X260.54 Y-170.02 F149.81
G1 X262.62 Y-165.48 F176.25
G1 X264.71 Y-160.93
G1 X266.79 Y-156.39
G1 X268.88 Y-151.84
G1 X270.96 Y-147.30
G1 X273.04 Y-142.75
G1 X275.13 Y-138.20
G1 X277.21 Y-133.66
G1 X279.30 Y-129.11
G1 X281.38 Y-124.57
G1 X283.46 Y-120.02
G1 X285.55 Y-115.48
G1 X287.63 Y-110.93
G1 X289.71 Y-106.39
G1 X291.80 Y-101.84
G1 X293.88 Y-97.30
G1 X295.97 Y-92.75
G1 X297.50 Y-89.42
G1 X299.58 Y-84.87
G1 X301.66 Y-80.33
G1 X303.75 Y-75.78
G1 X305.83 Y-71.24
G1 X307.92 Y-66.69
G1 X310.00 Y-62.15
G1 X312.08 Y-57.60
G1 X314.17 Y-53.06
G1 X316.25 Y-48.51
G1 X318.34 Y-43.97
G1 X320.42 Y-39.42
G1 X322.50 Y-34.88
G1 X324.59 Y-30.33
G1 X326.67 Y-25.79
G1 X328.76 Y-21.24
G1 X330.84 Y-16.70
G1 X332.92 Y-12.15 F149.81
G1 X335.01 Y-7.61 F114.56
G1 X336.54 Y-4.27 F132.19
G1 X336.91 Y-4.35 F88.13
G1 X337.29 Y-4.44
G1 X337.29 Y-4.44
G4 S1.
M9
G4 S1.
M5
G4 S1.
G0 X3.08 Y-174.87
M3
M8
G4 S3.33
G1 X3.08 Y-169.87
G1 X3.08 Y-164.87 F176.25
G1 X3.08 Y-159.87
G1 X3.08 Y-154.87
G1 X3.08 Y-149.87
G1 X3.08 Y-144.87
G1 X3.08 Y-139.87
G1 X3.08 Y-134.87
G1 X3.08 Y-129.87
G1 X3.08 Y-124.87
G1 X3.08 Y-119.87
G1 X3.08 Y-114.87
G1 X3.08 Y-109.87
G1 X3.08 Y-104.87
G1 X3.08 Y-99.87
G1 X3.08 Y-94.87
G1 X3.08 Y-89.87
G1 X3.08 Y-89.72 F167.44
G1 X3.08 Y-84.72 F176.25
G1 X3.08 Y-79.72
G1 X3.08 Y-74.72
G1 X3.08 Y-69.72
G1 X3.08 Y-64.72
G1 X3.08 Y-59.72
G1 X3.08 Y-54.72
G1 X3.08 Y-49.72
G1 X3.08 Y-44.72
G1 X3.08 Y-39.72
G1 X3.08 Y-34.72
G1 X3.08 Y-29.72
G1 X3.08 Y-24.72
G1 X3.08 Y-19.72
G1 X3.08 Y-14.72
G1 X3.08 Y-9.72 F149.81
G1 X3.08 Y-4.72 F123.37
G1 X3.08 Y-4.58
G1 X3.22 Y-4.44
G1 X3.36 Y-4.30
G1 X8.36 Y-4.30 F149.81
G1 X13.36 Y-4.30 F176.25
G1 X18.36 Y-4.30
G1 X23.36 Y-4.30
G1 X28.36 Y-4.30
G1 X33.36 Y-4.30
G1 X38.36 Y-4.30
G1 X42.49 Y-4.30
G1 X47.49 Y-4.30
G1 X52.49 Y-4.30
G1 X57.49 Y-4.30
G1 X62.49 Y-4.30
G1 X67.49 Y-4.30
G1 X72.49 Y-4.30
G1 X77.49 Y-4.30 F149.81
G1 X81.63 Y-4.30 F123.37
G1 X81.77 Y-4.52
G1 X81.91 Y-4.74
G1 X79.83 Y-9.28 F149.81
G1 X77.74 Y-13.83 F176.25
G1 X75.66 Y-18.37
G1 X73.58 Y-22.92
G1 X71.49 Y-27.46
G1 X69.41 Y-32.01
G1 X67.32 Y-36.55
G1 X65.24 Y-41.10
G1 X63.16 Y-45.64
G1 X61.07 Y-50.19
G1 X58.99 Y-54.73
G1 X56.90 Y-59.28
G1 X54.82 Y-63.82
G1 X52.74 Y-68.37
G1 X50.65 Y-72.91
G1 X48.57 Y-77.46
G1 X46.49 Y-82.00
G1 X44.40 Y-86.55
G1 X42.87 Y-89.88
G1 X40.79 Y-94.43
G1 X38.70 Y-98.97
G1 X36.62 Y-103.52
G1 X34.54 Y-108.06
G1 X32.45 Y-112.61
G1 X30.37 Y-117.15
G1 X28.28 Y-121.70
G1 X26.20 Y-126.24
G1 X24.12 Y-130.79
G1 X22.03 Y-135.33
G1 X19.95 Y-139.88
G1 X17.86 Y-144.42
G1 X15.78 Y-148.97
G1 X13.70 Y-153.51
G1 X11.61 Y-158.06
G1 X9.53 Y-162.60
G1 X7.45 Y-167.15 F149.81
G1 X5.36 Y-171.69 F114.56
G1 X3.83 Y-175.03 F132.19
G1 X3.45 Y-174.95 F88.13
G1 X3.08 Y-174.87
G1 X3.08 Y-174.87
G4 S1.
M9
G4 S1.
M5
G4 S1.
G0 X168.44 Y-10.02
M3
M8
G4 S3.33
G1 X168.44 Y-15.02
G1 X168.44 Y-20.02 F176.25
G1 X168.44 Y-25.02
G1 X168.44 Y-30.02
G1 X168.44 Y-35.02
G1 X168.44 Y-40.02
G1 X168.44 Y-45.02
G1 X168.44 Y-50.02
G1 X168.44 Y-55.02
G1 X168.44 Y-60.02
G1 X168.44 Y-65.02
G1 X168.44 Y-70.02
G1 X168.44 Y-75.02
G1 X168.44 Y-80.02
G1 X168.44 Y-85.02
G1 X168.44 Y-90.02
G1 X168.44 Y-95.02
G1 X168.44 Y-95.17 F167.44
G1 X168.44 Y-100.17 F176.25
G1 X168.44 Y-105.17
G1 X168.44 Y-110.17
G1 X168.44 Y-115.17
G1 X168.44 Y-120.17
G1 X168.44 Y-125.17
G1 X168.44 Y-130.17
G1 X168.44 Y-135.17
G1 X168.44 Y-140.17
G1 X168.44 Y-145.17
G1 X168.44 Y-150.17
G1 X168.44 Y-155.17
G1 X168.44 Y-160.17
G1 X168.44 Y-165.17
G1 X168.44 Y-170.17
G1 X168.44 Y-175.17 F149.81
G1 X168.44 Y-180.17 F123.37
G1 X168.44 Y-180.31
G1 X168.30 Y-180.45
G1 X168.16 Y-180.59
G1 X163.16 Y-180.59 F149.81
G1 X158.16 Y-180.59 F176.25
G1 X153.16 Y-180.59
G1 X148.16 Y-180.59
G1 X143.16 Y-180.59
G1 X138.16 Y-180.59
G1 X133.16 Y-180.59
G1 X129.02 Y-180.59
G1 X124.02 Y-180.59
G1 X119.02 Y-180.59
G1 X114.02 Y-180.59
G1 X109.02 Y-180.59
G1 X104.02 Y-180.59
G1 X99.02 Y-180.59
G1 X94.02 Y-180.59 F149.81
G1 X89.88 Y-180.59 F123.37
G1 X89.74 Y-180.37
G1 X89.60 Y-180.15
G1 X91.69 Y-175.61 F149.81
G1 X93.77 Y-171.06 F176.25
G1 X95.85 Y-166.52
G1 X97.94 Y-161.97
G1 X100.02 Y-157.43
G1 X102.10 Y-152.88
G1 X104.19 Y-148.34
G1 X106.27 Y-143.79
G1 X108.36 Y-139.25
G1 X110.44 Y-134.70
G1 X112.52 Y-130.16
G1 X114.61 Y-125.61
G1 X116.69 Y-121.07
G1 X118.78 Y-116.52
G1 X120.86 Y-111.98
G1 X122.94 Y-107.43
G1 X125.03 Y-102.89
G1 X127.11 Y-98.34
G1 X128.64 Y-95.00
G1 X130.73 Y-90.46
G1 X132.81 Y-85.91
G1 X134.89 Y-81.37
G1 X136.98 Y-76.82
G1 X139.06 Y-72.28
G1 X141.14 Y-67.73
G1 X143.23 Y-63.19
G1 X145.31 Y-58.64
G1 X147.40 Y-54.10
G1 X149.48 Y-49.55
G1 X151.56 Y-45.01
G1 X153.65 Y-40.46
G1 X155.73 Y-35.92
G1 X157.82 Y-31.37
G1 X159.90 Y-26.83
G1 X161.98 Y-22.28
G1 X164.07 Y-17.74 F149.81
G1 X166.15 Y-13.19 F114.56
G1 X167.68 Y-9.86 F132.19
G1 X168.06 Y-9.94 F88.13
G1 X168.44 Y-10.02
G1 X168.44 Y-10.02
G4 S1.
M9
G4 S1.
M5
G4 S1.
G0 X253.69 Y-172.94
M3
M8
G4 S3.33
G1 X253.69 Y-167.94
G1 X253.69 Y-162.94 F176.25
G1 X253.69 Y-157.94
G1 X253.69 Y-152.94
G1 X253.69 Y-147.94
G1 X253.69 Y-142.94
G1 X253.69 Y-137.94
G1 X253.69 Y-132.94
G1 X253.69 Y-127.94
G1 X253.69 Y-122.94
G1 X253.69 Y-117.94
G1 X253.69 Y-112.94
G1 X253.69 Y-107.94
G1 X253.69 Y-102.94
G1 X253.69 Y-97.94
G1 X253.69 Y-92.94
G1 X253.69 Y-87.94
G1 X253.69 Y-87.79 F167.44
G1 X253.69 Y-82.79 F176.25
G1 X253.69 Y-77.79
G1 X253.69 Y-72.79
G1 X253.69 Y-67.79
G1 X253.69 Y-62.79
G1 X253.69 Y-57.79
G1 X253.69 Y-52.79
G1 X253.69 Y-47.79
G1 X253.69 Y-42.79
G1 X253.69 Y-37.79
G1 X253.69 Y-32.79
G1 X253.69 Y-27.79
G1 X253.69 Y-22.79
G1 X253.69 Y-17.79
G1 X253.69 Y-12.79
G1 X253.69 Y-7.79 F149.81
G1 X253.69 Y-2.79 F123.37
G1 X253.69 Y-2.65
G1 X253.83 Y-2.51
G1 X253.97 Y-2.37
G1 X258.97 Y-2.37 F149.81
G1 X263.97 Y-2.37 F176.25
G1 X268.97 Y-2.37
G1 X273.97 Y-2.37
G1 X278.97 Y-2.37
G1 X283.97 Y-2.37
G1 X288.97 Y-2.37
G1 X293.10 Y-2.37
G1 X298.10 Y-2.37
G1 X303.10 Y-2.37
G1 X308.10 Y-2.37
G1 X313.10 Y-2.37
G1 X318.10 Y-2.37
G1 X323.10 Y-2.37
G1 X328.10 Y-2.37 F149.81
G1 X332.24 Y-2.37 F123.37
G1 X332.38 Y-2.59
G1 X332.52 Y-2.81
G1 X330.44 Y-7.35 F149.81
G1 X328.35 Y-11.90 F176.25
G1 X326.27 Y-16.44
G1 X324.19 Y-20.99
G1 X322.10 Y-25.53
G1 X320.02 Y-30.08
G1 X317.93 Y-34.62
G1 X315.85 Y-39.17
G1 X313.77 Y-43.71
G1 X311.68 Y-48.26
G1 X309.60 Y-52.80
G1 X307.52 Y-57.35
G1 X305.43 Y-61.89
G1 X303.35 Y-66.44
G1 X301.26 Y-70.98
G1 X299.18 Y-75.53
G1 X297.10 Y-80.07
G1 X295.01 Y-84.62
G1 X293.48 Y-87.96
G1 X291.40 Y-92.50
G1 X289.31 Y-97.05
G1 X287.23 Y-101.59
G1 X285.15 Y-106.14
G1 X283.06 Y-110.68
G1 X280.98 Y-115.23
G1 X278.89 Y-119.77
G1 X276.81 Y-124.32
G1 X274.73 Y-128.86
G1 X272.64 Y-133.41
G1 X270.56 Y-137.95
G1 X268.48 Y-142.50
G1 X266.39 Y-147.04
G1 X264.31 Y-151.59
G1 X262.22 Y-156.13
G1 X260.14 Y-160.68
G1 X258.06 Y-165.22 F149.81
G1 X255.97 Y-169.77 F114.56
G1 X254.44 Y-173.10 F132.19
G1 X254.06 Y-173.02 F88.13
G1 X253.69 Y-172.94
G1 X253.69 Y-172.94
G4 S1.
M9
G4 S1.
M5
G4 S1.
G0 X171.90 Y-173.90
M3
M8
G4 S3.33
G1 X171.90 Y-168.90
G1 X171.90 Y-163.90 F176.25
G1 X171.90 Y-158.90
G1 X171.90 Y-153.90
G1 X171.90 Y-148.90
G1 X171.90 Y-143.90
G1 X171.90 Y-138.90
G1 X171.90 Y-133.90
G1 X171.90 Y-128.90
G1 X171.90 Y-123.90
G1 X171.90 Y-118.90
G1 X171.90 Y-113.90
G1 X171.90 Y-108.90
G1 X171.90 Y-103.90
G1 X171.90 Y-98.90
G1 X171.90 Y-93.90
G1 X171.90 Y-88.90
G1 X171.90 Y-88.76 F167.44
G1 X171.90 Y-83.76 F176.25
G1 X171.90 Y-78.76
G1 X171.90 Y-73.76
G1 X171.90 Y-68.76
G1 X171.90 Y-63.76
G1 X171.90 Y-58.76
G1 X171.90 Y-53.76
G1 X171.90 Y-48.76
G1 X171.90 Y-43.76
G1 X171.90 Y-38.76
G1 X171.90 Y-33.76
G1 X171.90 Y-28.76
G1 X171.90 Y-23.76
G1 X171.90 Y-18.76
G1 X171.90 Y-13.76
G1 X171.90 Y-8.76 F149.81
G1 X171.90 Y-3.76 F123.37
G1 X171.90 Y-3.61
G1 X172.04 Y-3.47
G1 X172.18 Y-3.33
G1 X177.18 Y-3.33 F149.81
G1 X182.18 Y-3.33 F176.25
G1 X187.18 Y-3.33
G1 X192.18 Y-3.33
G1 X197.18 Y-3.33
G1 X202.18 Y-3.33
G1 X207.18 Y-3.33
G1 X211.31 Y-3.33
G1 X216.31 Y-3.33
G1 X221.31 Y-3.33
G1 X226.31 Y-3.33
G1 X231.31 Y-3.33
G1 X236.31 Y-3.33
G1 X241.31 Y-3.33
G1 X246.31 Y-3.33 F149.81
G1 X250.45 Y-3.33 F123.37
G1 X250.59 Y-3.55
G1 X250.73 Y-3.77
G1 X248.65 Y-8.32 F149.81
G1 X246.56 Y-12.86 F176.25
G1 X244.48 Y-17.41
G1 X242.40 Y-21.95
G1 X240.31 Y-26.50
G1 X238.23 Y-31.04
G1 X236.14 Y-35.59
G1 X234.06 Y-40.13
G1 X231.98 Y-44.68
G1 X229.89 Y-49.22
G1 X227.81 Y-53.77
G1 X225.72 Y-58.31
G1 X223.64 Y-62.86
G1 X221.56 Y-67.40
G1 X219.47 Y-71.95
G1 X217.39 Y-76.49
G1 X215.31 Y-81.04
G1 X213.22 Y-85.58
G1 X211.69 Y-88.92
G1 X209.61 Y-93.46
G1 X207.52 Y-98.01
G1 X205.44 Y-102.55
G1 X203.36 Y-107.10
G1 X201.27 Y-111.64
G1 X199.19 Y-116.19
G1 X197.10 Y-120.73
G1 X195.02 Y-125.28
G1 X192.94 Y-129.83
G1 X190.85 Y-134.37
G1 X188.77 Y-138.92
G1 X186.68 Y-143.46
G1 X184.60 Y-148.01
G1 X182.52 Y-152.55
G1 X180.43 Y-157.10
G1 X178.35 Y-161.64
G1 X176.27 Y-166.19 F149.81
G1 X174.18 Y-170.73 F114.56
G1 X172.65 Y-174.07 F132.19
G1 X172.27 Y-173.98 F88.13
G1 X171.90 Y-173.90
G1 X171.90 Y-173.90
G4 S1.
M9
G4 S1.
M5
G4 S1.
G0 X250.46 Y-12.43
M3
M8
G4 S3.33
G1 X250.46 Y-17.43
G1 X250.46 Y-22.43 F176.25
G1 X250.46 Y-27.43
G1 X250.46 Y-32.43
G1 X250.46 Y-37.43
G1 X250.46 Y-42.43
G1 X250.46 Y-47.43
G1 X250.46 Y-52.43
G1 X250.46 Y-57.43
G1 X250.46 Y-62.43
G1 X250.46 Y-67.43
G1 X250.46 Y-72.43
G1 X250.46 Y-77.43
G1 X250.46 Y-82.43
G1 X250.46 Y-87.43
G1 X250.46 Y-92.43
G1 X250.46 Y-97.43
G1 X250.46 Y-97.58 F167.44
G1 X250.46 Y-102.58 F176.25
G1 X250.46 Y-107.58
G1 X250.46 Y-112.58
G1 X250.46 Y-117.58
G1 X250.46 Y-122.58
G1 X250.46 Y-127.58
G1 X250.46 Y-132.58
G1 X250.46 Y-137.58
G1 X250.46 Y-142.58
G1 X250.46 Y-147.58
G1 X250.46 Y-152.58
G1 X250.46 Y-157.58
G1 X250.46 Y-162.58
G1 X250.46 Y-167.58
G1 X250.46 Y-172.58
G1 X250.46 Y-177.58 F149.81
G1 X250.46 Y-182.58 F123.37
G1 X250.46 Y-182.72
G1 X250.32 Y-182.86
G1 X250.18 Y-183.00
G1 X245.18 Y-183.00 F149.81
G1 X240.18 Y-183.00 F176.25
G1 X235.18 Y-183.00
G1 X230.18 Y-183.00
G1 X225.18 Y-183.00
G1 X220.18 Y-183.00
G1 X215.18 Y-183.00
G1 X211.05 Y-183.00
G1 X206.05 Y-183.00
G1 X201.05 Y-183.00
G1 X196.05 Y-183.00
G1 X191.05 Y-183.00
G1 X186.05 Y-183.00
G1 X181.05 Y-183.00
G1 X176.05 Y-183.00 F149.81
G1 X171.91 Y-183.00 F123.37
G1 X171.77 Y-182.78
G1 X171.63 Y-182.56
G1 X173.71 Y-178.02 F149.81
G1 X175.80 Y-173.47 F176.25
G1 X177.88 Y-168.93
G1 X179.96 Y-164.38
G1 X182.05 Y-159.84
G1 X184.13 Y-155.29
G1 X186.22 Y-150.75
G1 X188.30 Y-146.20
G1 X190.38 Y-141.66
G1 X192.47 Y-137.11
G1 X194.55 Y-132.57
G1 X196.64 Y-128.02
G1 X198.72 Y-123.48
G1 X200.80 Y-118.93
G1 X202.89 Y-114.39
G1 X204.97 Y-109.84
G1 X207.06 Y-105.30
G1 X209.14 Y-100.75
G1 X210.67 Y-97.41
G1 X212.75 Y-92.87
G1 X214.84 Y-88.32
G1 X216.92 Y-83.78
G1 X219.01 Y-79.23
G1 X221.09 Y-74.69
G1 X223.17 Y-70.14
G1 X225.26 Y-65.60
G1 X227.34 Y-61.05
G1 X229.42 Y-56.51
G1 X231.51 Y-51.96
G1 X233.59 Y-47.42
G1 X235.68 Y-42.87
G1 X237.76 Y-38.33
G1 X239.84 Y-33.78
G1 X241.93 Y-29.24
G1 X244.01 Y-24.69
G1 X246.10 Y-20.15 F149.81
G1 X248.18 Y-15.60 F114.56
G1 X249.71 Y-12.27 F132.19
G1 X250.09 Y-12.35 F88.13
G1 X250.46 Y-12.43
G1 X250.46 Y-12.43
G4 S1.
M9
G4 S1.
M5
G4 S1.
G0 X88.42 Y-173.42
M3
M8
G4 S3.33
G1 X88.42 Y-168.42
G1 X88.42 Y-163.42 F176.25
G1 X88.42 Y-158.42
G1 X88.42 Y-153.42
G1 X88.42 Y-148.42
G1 X88.42 Y-143.42
G1 X88.42 Y-138.42
G1 X88.42 Y-133.42
G1 X88.42 Y-128.42
G1 X88.42 Y-123.42
G1 X88.42 Y-118.42
G1 X88.42 Y-113.42
G1 X88.42 Y-108.42
G1 X88.42 Y-103.42
G1 X88.42 Y-98.42
G1 X88.42 Y-93.42
G1 X88.42 Y-88.42
G1 X88.42 Y-88.27 F167.44
G1 X88.42 Y-83.27 F176.25
G1 X88.42 Y-78.27
G1 X88.42 Y-73.27
G1 X88.42 Y-68.27
G1 X88.42 Y-63.27
G1 X88.42 Y-58.27
G1 X88.42 Y-53.27
G1 X88.42 Y-48.27
G1 X88.42 Y-43.27
G1 X88.42 Y-38.27
G1 X88.42 Y-33.27
G1 X88.42 Y-28.27
G1 X88.42 Y-23.27
G1 X88.42 Y-18.27
G1 X88.42 Y-13.27
G1 X88.42 Y-8.27 F149.81
G1 X88.42 Y-3.27 F123.37
G1 X88.42 Y-3.13
G1 X88.56 Y-2.99
G1 X88.70 Y-2.85
G1 X93.70 Y-2.85 F149.81
G1 X98.70 Y-2.85 F176.25
G1 X103.70 Y-2.85
G1 X108.70 Y-2.85
G1 X113.70 Y-2.85
G1 X118.70 Y-2.85
G1 X123.70 Y-2.85
G1 X127.84 Y-2.85
G1 X132.84 Y-2.85
G1 X137.84 Y-2.85
G1 X142.84 Y-2.85
G1 X147.84 Y-2.85
G1 X152.84 Y-2.85
G1 X157.84 Y-2.85
G1 X162.84 Y-2.85 F149.81
G1 X166.97 Y-2.85 F123.37
G1 X167.12 Y-3.07
G1 X167.26 Y-3.29
G1 X165.17 Y-7.84 F149.81
G1 X163.09 Y-12.38 F176.25
G1 X161.01 Y-16.93
G1 X158.92 Y-21.47
G1 X156.84 Y-26.02
G1 X154.75 Y-30.56
G1 X152.67 Y-35.11
G1 X150.59 Y-39.65
G1 X148.50 Y-44.20
G1 X146.42 Y-48.74
G1 X144.33 Y-53.29
G1 X142.25 Y-57.83
G1 X140.17 Y-62.38
G1 X138.08 Y-66.92
G1 X136.00 Y-71.47
G1 X133.91 Y-76.01
G1 X131.83 Y-80.56
G1 X129.75 Y-85.10
G1 X128.22 Y-88.44
G1 X126.13 Y-92.98
G1 X124.05 Y-97.53
G1 X121.97 Y-102.07
G1 X119.88 Y-106.62
G1 X117.80 Y-111.16
G1 X115.71 Y-115.71
G1 X113.63 Y-120.25
G1 X111.55 Y-124.80
G1 X109.46 Y-129.34
G1 X107.38 Y-133.89
G1 X105.29 Y-138.43
G1 X103.21 Y-142.98
G1 X101.13 Y-147.52
G1 X99.04 Y-152.07
G1 X96.96 Y-156.61
G1 X94.87 Y-161.16
G1 X92.79 Y-165.70 F149.81
G1 X90.71 Y-170.25 F114.56
G1 X89.18 Y-173.59 F132.19
G1 X88.80 Y-173.50 F88.13
G1 X88.42 Y-173.42
G1 X88.42 Y-173.42
G4 S1.
M9
G4 S1.
M5
G4 S1.
G0 X85.50 Y-7.61
M3
M8
G4 S3.33
G1 X85.50 Y-12.61
G1 X85.50 Y-17.61 F176.25
G1 X85.50 Y-22.61
G1 X85.50 Y-27.61
G1 X85.50 Y-32.61
G1 X85.50 Y-37.61
G1 X85.50 Y-42.61
G1 X85.50 Y-47.61
G1 X85.50 Y-52.61
G1 X85.50 Y-57.61
G1 X85.50 Y-62.61
G1 X85.50 Y-67.61
G1 X85.50 Y-72.61
G1 X85.50 Y-77.61
G1 X85.50 Y-82.61
G1 X85.50 Y-87.61
G1 X85.50 Y-92.61
G1 X85.50 Y-92.76 F167.44
G1 X85.50 Y-97.76 F176.25
G1 X85.50 Y-102.76
G1 X85.50 Y-107.76
G1 X85.50 Y-112.76
G1 X85.50 Y-117.76
G1 X85.50 Y-122.76
G1 X85.50 Y-127.76
G1 X85.50 Y-132.76
G1 X85.50 Y-137.76
G1 X85.50 Y-142.76
G1 X85.50 Y-147.76
G1 X85.50 Y-152.76
G1 X85.50 Y-157.76
G1 X85.50 Y-162.76
G1 X85.50 Y-167.76
G1 X85.50 Y-172.76 F149.81
G1 X85.50 Y-177.76 F123.37
G1 X85.50 Y-177.90
G1 X85.36 Y-178.04
G1 X85.22 Y-178.18
G1 X80.22 Y-178.18 F149.81
G1 X75.22 Y-178.18 F176.25
G1 X70.22 Y-178.18
G1 X65.22 Y-178.18
G1 X60.22 Y-178.18
G1 X55.22 Y-178.18
G1 X50.22 Y-178.18
G1 X46.09 Y-178.18
G1 X41.09 Y-178.18
G1 X36.09 Y-178.18
G1 X31.09 Y-178.18
G1 X26.09 Y-178.18
G1 X21.09 Y-178.18
G1 X16.09 Y-178.18
G1 X11.09 Y-178.18 F149.81
G1 X6.95 Y-178.18 F123.37
G1 X6.81 Y-177.96
G1 X6.67 Y-177.74
G1 X8.75 Y-173.20 F149.81
G1 X10.83 Y-168.65 F176.25
G1 X12.92 Y-164.11
G1 X15.00 Y-159.56
G1 X17.09 Y-155.02
G1 X19.17 Y-150.47
G1 X21.25 Y-145.92
G1 X23.34 Y-141.38
G1 X25.42 Y-136.83
G1 X27.51 Y-132.29
G1 X29.59 Y-127.74
G1 X31.67 Y-123.20
G1 X33.76 Y-118.65
G1 X35.84 Y-114.11
G1 X37.93 Y-109.56
G1 X40.01 Y-105.02
G1 X42.09 Y-100.47
G1 X44.18 Y-95.93
G1 X45.71 Y-92.59
G1 X47.79 Y-88.05
G1 X49.87 Y-83.50
G1 X51.96 Y-78.96
G1 X54.04 Y-74.41
G1 X56.13 Y-69.87
G1 X58.21 Y-65.32
G1 X60.29 Y-60.78
G1 X62.38 Y-56.23
G1 X64.46 Y-51.69
G1 X66.55 Y-47.14
G1 X68.63 Y-42.60
G1 X70.71 Y-38.05
G1 X72.80 Y-33.51
G1 X74.88 Y-28.96
G1 X76.97 Y-24.42
G1 X79.05 Y-19.87
G1 X81.13 Y-15.33 F149.81
G1 X83.22 Y-10.78 F114.56
G1 X84.75 Y-7.45 F132.19
G1 X85.12 Y-7.53 F88.13
G1 X85.50 Y-7.61
G1 X85.50 Y-7.61
G4 S1.
M9
G4 S1.
M5
G4 S1.
M1413 00:22:14
M1404
