;-------------------------------Cut file parameters------------------------
; Input file name : red_end_shade_x18.DXF
; File rotation : 0 File scale : 1
; Machine : Desktop
; Material name : Glass - Soda Lime
; Material thickness : 0.125 in
; Cut path  : Outside
; Cut quality : mediumRate
; Raw Material width : 294.0mm
; Raw Material height : 115.7mm
;-------------------------------Do Not modify the Gcode file---------------
G90
G21
M1403
M1405 X1.12 Y-2.70
M1406 X295.08 Y-118.43
M1407 S3.33
M1410 2.2.0; Generated on Wam
M1411 Glass - Soda Lime
M1412 0.125 in
G0 X61.67 Y-25.84
M3
M8
G4 S3.33
G1 X61.55 Y-26.12 F176.25
G1 X61.42 Y-26.41 F79.31
G1 X56.42 Y-26.41 F114.56
G1 X51.42 Y-26.41 F149.81
G1 X46.42 Y-26.41 F176.25
G1 X42.61 Y-26.41
G1 X37.61 Y-26.41
G1 X32.61 Y-26.41 F149.81
G1 X27.61 Y-26.41 F114.56
G1 X23.79 Y-26.41 F79.31
G1 X23.67 Y-26.12
G1 X23.54 Y-25.84
G1 X26.97 Y-22.19 F114.56
G1 X30.39 Y-18.55 F149.81
G1 X32.97 Y-15.81 F176.25
G1 X36.40 Y-12.17
G1 X39.82 Y-8.53 F149.81
G1 X42.40 Y-5.79 F123.37
G1 X42.61 Y-5.79
G1 X42.82 Y-5.79
G1 X46.24 Y-9.43 F149.81
G1 X49.67 Y-13.07 F176.25
G1 X52.25 Y-15.81
G1 X55.67 Y-19.45 F132.19
G1 X59.10 Y-23.10 F88.13
G1 X61.67 Y-25.84
G1 X61.67 Y-25.84
G4 S1.
M9
G4 S1.
M5
G4 S1.
G0 X64.44 Y-50.91
M3
M8
G4 S3.33
G1 X64.32 Y-51.20
G1 X64.19 Y-51.49 F79.31
G1 X59.19 Y-51.49 F114.56
G1 X54.19 Y-51.49 F149.81
G1 X49.19 Y-51.49 F176.25
G1 X45.38 Y-51.49
G1 X40.38 Y-51.49
G1 X35.38 Y-51.49 F149.81
G1 X30.38 Y-51.49 F114.56
G1 X26.56 Y-51.49 F79.31
G1 X26.43 Y-51.20
G1 X26.31 Y-50.91
G1 X29.74 Y-47.27 F114.56
G1 X33.16 Y-43.62 F149.81
G1 X35.74 Y-40.88 F176.25
G1 X39.16 Y-37.24
G1 X42.59 Y-33.60 F149.81
G1 X45.17 Y-30.86 F123.37
G1 X45.38 Y-30.86
G1 X45.58 Y-30.86
G1 X49.01 Y-34.50 F149.81
G1 X52.43 Y-38.15 F176.25
G1 X55.01 Y-40.88
G1 X58.44 Y-44.53 F132.19
G1 X61.86 Y-48.17 F88.13
G1 X64.44 Y-50.91
G1 X64.44 Y-50.91
G4 S1.
M9
G4 S1.
M5
G4 S1.
G0 X107.71 Y-25.35
M3
M8
G4 S3.33
G1 X107.58 Y-25.64
G1 X107.46 Y-25.93 F79.31
G1 X102.46 Y-25.93 F114.56
G1 X97.46 Y-25.93 F149.81
G1 X92.46 Y-25.93 F176.25
G1 X88.64 Y-25.93
G1 X83.64 Y-25.93
G1 X78.64 Y-25.93 F149.81
G1 X73.64 Y-25.93 F114.56
G1 X69.83 Y-25.93 F79.31
G1 X69.70 Y-25.64
G1 X69.58 Y-25.35
G1 X73.00 Y-21.71 F114.56
G1 X76.43 Y-18.07 F149.81
G1 X79.01 Y-15.33 F176.25
G1 X82.43 Y-11.69
G1 X85.86 Y-8.05 F149.81
G1 X88.44 Y-5.31 F123.37
G1 X88.64 Y-5.31
G1 X88.85 Y-5.31
G1 X92.28 Y-8.95 F149.81
G1 X95.70 Y-12.59 F176.25
G1 X98.28 Y-15.33
G1 X101.71 Y-18.97 F132.19
G1 X105.13 Y-22.61 F88.13
G1 X107.71 Y-25.35
G1 X107.71 Y-25.35
G4 S1.
M9
G4 S1.
M5
G4 S1.
G0 X110.48 Y-51.39
M3
M8
G4 S3.33
G1 X110.35 Y-51.68
G1 X110.23 Y-51.97 F79.31
G1 X105.23 Y-51.97 F114.56
G1 X100.23 Y-51.97 F149.81
G1 X95.23 Y-51.97 F176.25
G1 X91.41 Y-51.97
G1 X86.41 Y-51.97
G1 X81.41 Y-51.97 F149.81
G1 X76.41 Y-51.97 F114.56
G1 X72.60 Y-51.97 F79.31
G1 X72.47 Y-51.68
G1 X72.34 Y-51.39
G1 X75.77 Y-47.75 F114.56
G1 X79.20 Y-44.11 F149.81
G1 X81.77 Y-41.37 F176.25
G1 X85.20 Y-37.73
G1 X88.63 Y-34.08 F149.81
G1 X91.20 Y-31.34 F123.37
G1 X91.41 Y-31.34
G1 X91.62 Y-31.34
G1 X95.04 Y-34.99 F149.81
G1 X98.47 Y-38.63 F176.25
G1 X101.05 Y-41.37
G1 X104.47 Y-45.01 F132.19
G1 X107.90 Y-48.65 F88.13
G1 X110.48 Y-51.39
G1 X110.48 Y-51.39
G4 S1.
M9
G4 S1.
M5
G4 S1.
G0 X156.64 Y-27.28
M3
M8
G4 S3.33
G1 X156.51 Y-27.57
G1 X156.39 Y-27.86 F79.31
G1 X151.39 Y-27.86 F114.56
G1 X146.39 Y-27.86 F149.81
G1 X141.39 Y-27.86 F176.25
G1 X137.57 Y-27.86
G1 X132.57 Y-27.86
G1 X127.57 Y-27.86 F149.81
G1 X122.57 Y-27.86 F114.56
G1 X118.76 Y-27.86 F79.31
G1 X118.63 Y-27.57
G1 X118.51 Y-27.28
G1 X121.93 Y-23.64 F114.56
G1 X125.36 Y-20.00 F149.81
G1 X127.94 Y-17.26 F176.25
G1 X131.36 Y-13.62
G1 X134.79 Y-9.97 F149.81
G1 X137.37 Y-7.23 F123.37
G1 X137.57 Y-7.23
G1 X137.78 Y-7.23
G1 X141.21 Y-10.88 F149.81
G1 X144.63 Y-14.52 F176.25
G1 X147.21 Y-17.26
G1 X150.64 Y-20.90 F132.19
G1 X154.06 Y-24.54 F88.13
G1 X156.64 Y-27.28
G1 X156.64 Y-27.28
G4 S1.
M9
G4 S1.
M5
G4 S1.
G0 X157.96 Y-51.87
M3
M8
G4 S3.33
G1 X157.83 Y-52.16
G1 X157.71 Y-52.45 F79.31
G1 X152.71 Y-52.45 F114.56
G1 X147.71 Y-52.45 F149.81
G1 X142.71 Y-52.45 F176.25
G1 X138.89 Y-52.45
G1 X133.89 Y-52.45
G1 X128.89 Y-52.45 F149.81
G1 X123.89 Y-52.45 F114.56
G1 X120.08 Y-52.45 F79.31
G1 X119.95 Y-52.16
G1 X119.83 Y-51.87
G1 X123.25 Y-48.23 F114.56
G1 X126.68 Y-44.59 F149.81
G1 X129.26 Y-41.85 F176.25
G1 X132.68 Y-38.21
G1 X136.11 Y-34.57 F149.81
G1 X138.68 Y-31.83 F123.37
G1 X138.89 Y-31.83
G1 X139.10 Y-31.83
G1 X142.53 Y-35.47 F149.81
G1 X145.95 Y-39.11 F176.25
G1 X148.53 Y-41.85
G1 X151.95 Y-45.49 F132.19
G1 X155.38 Y-49.13 F88.13
G1 X157.96 Y-51.87
G1 X157.96 Y-51.87
G4 S1.
M9
G4 S1.
M5
G4 S1.
G0 X139.95 Y-4.73
M3
M8
G4 S3.33
G1 X140.08 Y-4.44
G1 X140.20 Y-4.15 F79.31
G1 X145.20 Y-4.15 F114.56
G1 X150.20 Y-4.15 F149.81
G1 X155.20 Y-4.15 F176.25
G1 X159.02 Y-4.15
G1 X164.02 Y-4.15
G1 X169.02 Y-4.15 F149.81
G1 X174.02 Y-4.15 F114.56
G1 X177.83 Y-4.15 F79.31
G1 X177.96 Y-4.44
G1 X178.08 Y-4.73
G1 X174.66 Y-8.37 F114.56
G1 X171.23 Y-12.01 F149.81
G1 X168.65 Y-14.75 F176.25
G1 X165.23 Y-18.39
G1 X161.80 Y-22.03 F149.81
G1 X159.22 Y-24.77 F123.37
G1 X159.02 Y-24.77
G1 X158.81 Y-24.77
G1 X155.38 Y-21.13 F149.81
G1 X151.96 Y-17.49 F176.25
G1 X149.38 Y-14.75
G1 X145.95 Y-11.11 F132.19
G1 X142.53 Y-7.47 F88.13
G1 X139.95 Y-4.73
G1 X139.95 Y-4.73
G4 S1.
M9
G4 S1.
M5
G4 S1.
G0 X141.75 Y-30.76
M3
M8
G4 S3.33
G1 X141.88 Y-30.47
G1 X142.00 Y-30.18 F79.31
G1 X147.00 Y-30.18 F114.56
G1 X152.00 Y-30.18 F149.81
G1 X157.00 Y-30.18 F176.25
G1 X160.82 Y-30.18
G1 X165.82 Y-30.18
G1 X170.82 Y-30.18 F149.81
G1 X175.82 Y-30.18 F114.56
G1 X179.63 Y-30.18 F79.31
G1 X179.76 Y-30.47
G1 X179.88 Y-30.76
G1 X176.46 Y-34.41 F114.56
G1 X173.03 Y-38.05 F149.81
G1 X170.46 Y-40.79 F176.25
G1 X167.03 Y-44.43
G1 X163.60 Y-48.07 F149.81
G1 X161.03 Y-50.81 F123.37
G1 X160.82 Y-50.81
G1 X160.61 Y-50.81
G1 X157.19 Y-47.17 F149.81
G1 X153.76 Y-43.53 F176.25
G1 X151.18 Y-40.79
G1 X147.76 Y-37.14 F132.19
G1 X144.33 Y-33.50 F88.13
G1 X141.75 Y-30.76
G1 X141.75 Y-30.76
G4 S1.
M9
G4 S1.
M5
G4 S1.
G0 X200.49 Y-25.84
M3
M8
G4 S3.33
G1 X200.37 Y-26.12
G1 X200.24 Y-26.41 F79.31
G1 X195.24 Y-26.41 F114.56
G1 X190.24 Y-26.41 F149.81
G1 X185.24 Y-26.41 F176.25
G1 X181.43 Y-26.41
G1 X176.43 Y-26.41
G1 X171.43 Y-26.41 F149.81
G1 X166.43 Y-26.41 F114.56
G1 X162.61 Y-26.41 F79.31
G1 X162.49 Y-26.12
G1 X162.36 Y-25.84
G1 X165.79 Y-22.19 F114.56
G1 X169.21 Y-18.55 F149.81
G1 X171.79 Y-15.81 F176.25
G1 X175.21 Y-12.17
G1 X178.64 Y-8.53 F149.81
G1 X181.22 Y-5.79 F123.37
G1 X181.43 Y-5.79
G1 X181.63 Y-5.79
G1 X185.06 Y-9.43 F149.81
G1 X188.48 Y-13.07 F176.25
G1 X191.06 Y-15.81
G1 X194.49 Y-19.45 F132.19
G1 X197.91 Y-23.10 F88.13
G1 X200.49 Y-25.84
G1 X200.49 Y-25.84
G4 S1.
M9
G4 S1.
M5
G4 S1.
G0 X202.78 Y-51.87
M3
M8
G4 S3.33
G1 X202.65 Y-52.16
G1 X202.53 Y-52.45 F79.31
G1 X197.53 Y-52.45 F114.56
G1 X192.53 Y-52.45 F149.81
G1 X187.53 Y-52.45 F176.25
G1 X183.71 Y-52.45
G1 X178.71 Y-52.45
G1 X173.71 Y-52.45 F149.81
G1 X168.71 Y-52.45 F114.56
G1 X164.89 Y-52.45 F79.31
G1 X164.77 Y-52.16
G1 X164.64 Y-51.87
G1 X168.07 Y-48.23 F114.56
G1 X171.50 Y-44.59 F149.81
G1 X174.07 Y-41.85 F176.25
G1 X177.50 Y-38.21
G1 X180.92 Y-34.57 F149.81
G1 X183.50 Y-31.83 F123.37
G1 X183.71 Y-31.83
G1 X183.92 Y-31.83
G1 X187.34 Y-35.47 F149.81
G1 X190.77 Y-39.11 F176.25
G1 X193.35 Y-41.85
G1 X196.77 Y-45.49 F132.19
G1 X200.20 Y-49.13 F88.13
G1 X202.78 Y-51.87
G1 X202.78 Y-51.87
G4 S1.
M9
G4 S1.
M5
G4 S1.
G0 X185.25 Y-3.76
M3
M8
G4 S3.33
G1 X185.38 Y-3.47
G1 X185.50 Y-3.18 F79.31
G1 X190.50 Y-3.18 F114.56
G1 X195.50 Y-3.18 F149.81
G1 X200.50 Y-3.18 F176.25
G1 X204.32 Y-3.18
G1 X209.32 Y-3.18
G1 X214.32 Y-3.18 F149.81
G1 X219.32 Y-3.18 F114.56
G1 X223.13 Y-3.18 F79.31
G1 X223.26 Y-3.47
G1 X223.38 Y-3.76
G1 X219.96 Y-7.40 F114.56
G1 X216.53 Y-11.05 F149.81
G1 X213.95 Y-13.78 F176.25
G1 X210.53 Y-17.43
G1 X207.10 Y-21.07 F149.81
G1 X204.52 Y-23.81 F123.37
G1 X204.32 Y-23.81
G1 X204.11 Y-23.81
G1 X200.68 Y-20.17 F149.81
G1 X197.26 Y-16.52 F176.25
G1 X194.68 Y-13.78
G1 X191.25 Y-10.14 F132.19
G1 X187.83 Y-6.50 F88.13
G1 X185.25 Y-3.76
G1 X185.25 Y-3.76
G4 S1.
M9
G4 S1.
M5
G4 S1.
G0 X186.57 Y-30.76
M3
M8
G4 S3.33
G1 X186.70 Y-30.47
G1 X186.82 Y-30.18 F79.31
G1 X191.82 Y-30.18 F114.56
G1 X196.82 Y-30.18 F149.81
G1 X201.82 Y-30.18 F176.25
G1 X205.64 Y-30.18
G1 X210.64 Y-30.18
G1 X215.64 Y-30.18 F149.81
G1 X220.64 Y-30.18 F114.56
G1 X224.45 Y-30.18 F79.31
G1 X224.58 Y-30.47
G1 X224.70 Y-30.76
G1 X221.28 Y-34.41 F114.56
G1 X217.85 Y-38.05 F149.81
G1 X215.27 Y-40.79 F176.25
G1 X211.85 Y-44.43
G1 X208.42 Y-48.07 F149.81
G1 X205.84 Y-50.81 F123.37
G1 X205.64 Y-50.81
G1 X205.43 Y-50.81
G1 X202.00 Y-47.17 F149.81
G1 X198.58 Y-43.53 F176.25
G1 X196.00 Y-40.79
G1 X192.57 Y-37.14 F132.19
G1 X189.15 Y-33.50 F88.13
G1 X186.57 Y-30.76
G1 X186.57 Y-30.76
G4 S1.
M9
G4 S1.
M5
G4 S1.
G0 X1.85 Y-4.14
M3
M8
G4 S3.33
G1 X1.97 Y-3.85
G1 X2.10 Y-3.56 F79.31
G1 X7.10 Y-3.56 F114.56
G1 X12.10 Y-3.56 F149.81
G1 X17.10 Y-3.56 F176.25
G1 X20.91 Y-3.56
G1 X25.91 Y-3.56
G1 X30.91 Y-3.56 F149.81
G1 X35.91 Y-3.56 F114.56
G1 X39.73 Y-3.56 F79.31
G1 X39.85 Y-3.85
G1 X39.98 Y-4.14
G1 X36.55 Y-7.78 F114.56
G1 X33.12 Y-11.42 F149.81
G1 X30.55 Y-14.16 F176.25
G1 X27.12 Y-17.81
G1 X23.70 Y-21.45 F149.81
G1 X21.12 Y-24.19 F123.37
G1 X20.91 Y-24.19
G1 X20.70 Y-24.19
G1 X17.28 Y-20.55 F149.81
G1 X13.85 Y-16.90 F176.25
G1 X11.27 Y-14.16
G1 X7.85 Y-10.52 F132.19
G1 X4.42 Y-6.88 F88.13
G1 X1.85 Y-4.14
G1 X1.85 Y-4.14
G4 S1.
M9
G4 S1.
M5
G4 S1.
G0 X45.60 Y-5.11
M3
M8
G4 S3.33
G1 X45.72 Y-4.82
G1 X45.85 Y-4.53 F79.31
G1 X50.85 Y-4.53 F114.56
G1 X55.85 Y-4.53 F149.81
G1 X60.85 Y-4.53 F176.25
G1 X64.66 Y-4.53
G1 X69.66 Y-4.53
G1 X74.66 Y-4.53 F149.81
G1 X79.66 Y-4.53 F114.56
G1 X83.48 Y-4.53 F79.31
G1 X83.60 Y-4.82
G1 X83.73 Y-5.11
G1 X80.30 Y-8.75 F114.56
G1 X76.88 Y-12.39 F149.81
G1 X74.30 Y-15.13 F176.25
G1 X70.87 Y-18.77
G1 X67.45 Y-22.41 F149.81
G1 X64.87 Y-25.15 F123.37
G1 X64.66 Y-25.15
G1 X64.45 Y-25.15
G1 X61.03 Y-21.51 F149.81
G1 X57.60 Y-17.87 F176.25
G1 X55.03 Y-15.13
G1 X51.60 Y-11.49 F132.19
G1 X48.17 Y-7.85 F88.13
G1 X45.60 Y-5.11
G1 X45.60 Y-5.11
G4 S1.
M9
G4 S1.
M5
G4 S1.
G0 X2.56 Y-30.66
M3
M8
G4 S3.33
G1 X2.68 Y-30.37
G1 X2.81 Y-30.08 F79.31
G1 X7.81 Y-30.08 F114.56
G1 X12.81 Y-30.08 F149.81
G1 X17.81 Y-30.08 F176.25
G1 X21.62 Y-30.08
G1 X26.62 Y-30.08
G1 X31.62 Y-30.08 F149.81
G1 X36.62 Y-30.08 F114.56
G1 X40.44 Y-30.08 F79.31
G1 X40.56 Y-30.37
G1 X40.69 Y-30.66
G1 X37.26 Y-34.30 F114.56
G1 X33.84 Y-37.94 F149.81
G1 X31.26 Y-40.68 F176.25
G1 X27.83 Y-44.33
G1 X24.41 Y-47.97 F149.81
G1 X21.83 Y-50.71 F123.37
G1 X21.62 Y-50.71
G1 X21.41 Y-50.71
G1 X17.99 Y-47.07 F149.81
G1 X14.56 Y-43.42 F176.25
G1 X11.98 Y-40.68
G1 X8.56 Y-37.04 F132.19
G1 X5.13 Y-33.40 F88.13
G1 X2.56 Y-30.66
G1 X2.56 Y-30.66
G4 S1.
M9
G4 S1.
M5
G4 S1.
G0 X94.52 Y-6.07
M3
M8
G4 S3.33
G1 X94.65 Y-5.78
G1 X94.78 Y-5.49 F79.31
G1 X99.78 Y-5.49 F114.56
G1 X104.78 Y-5.49 F149.81
G1 X109.78 Y-5.49 F176.25
G1 X113.59 Y-5.49
G1 X118.59 Y-5.49
G1 X123.59 Y-5.49 F149.81
G1 X128.59 Y-5.49 F114.56
G1 X132.41 Y-5.49 F79.31
G1 X132.53 Y-5.78
G1 X132.66 Y-6.07
G1 X129.23 Y-9.71 F114.56
G1 X125.80 Y-13.35 F149.81
G1 X123.23 Y-16.09 F176.25
G1 X119.80 Y-19.74
G1 X116.38 Y-23.38 F149.81
G1 X113.80 Y-26.12 F123.37
G1 X113.59 Y-26.12
G1 X113.38 Y-26.12
G1 X109.96 Y-22.47 F149.81
G1 X106.53 Y-18.83 F176.25
G1 X103.95 Y-16.09
G1 X100.53 Y-12.45 F132.19
G1 X97.10 Y-8.81 F88.13
G1 X94.52 Y-6.07
G1 X94.52 Y-6.07
G4 S1.
M9
G4 S1.
M5
G4 S1.
G0 X49.56 Y-29.70
M3
M8
G4 S3.33
G1 X49.68 Y-29.41
G1 X49.81 Y-29.12 F79.31
G1 X54.81 Y-29.12 F114.56
G1 X59.81 Y-29.12 F149.81
G1 X64.81 Y-29.12 F176.25
G1 X68.62 Y-29.12
G1 X73.62 Y-29.12
G1 X78.62 Y-29.12 F149.81
G1 X83.62 Y-29.12 F114.56
G1 X87.44 Y-29.12 F79.31
G1 X87.56 Y-29.41
G1 X87.69 Y-29.70
G1 X84.26 Y-33.34 F114.56
G1 X80.84 Y-36.98 F149.81
G1 X78.26 Y-39.72 F176.25
G1 X74.83 Y-43.36
G1 X71.41 Y-47.00 F149.81
G1 X68.83 Y-49.74 F123.37
G1 X68.62 Y-49.74
G1 X68.41 Y-49.74
G1 X64.99 Y-46.10 F149.81
G1 X61.56 Y-42.46 F176.25
G1 X58.98 Y-39.72
G1 X55.56 Y-36.08 F132.19
G1 X52.13 Y-32.44 F88.13
G1 X49.56 Y-29.70
G1 X49.56 Y-29.70
G4 S1.
M9
G4 S1.
M5
G4 S1.
G0 X96.20 Y-30.66
M3
M8
G4 S3.33
G1 X96.33 Y-30.37
G1 X96.45 Y-30.08 F79.31
G1 X101.45 Y-30.08 F114.56
G1 X106.45 Y-30.08 F149.81
G1 X111.45 Y-30.08 F176.25
G1 X115.27 Y-30.08
G1 X120.27 Y-30.08
G1 X125.27 Y-30.08 F149.81
G1 X130.27 Y-30.08 F114.56
G1 X134.08 Y-30.08 F79.31
G1 X134.21 Y-30.37
G1 X134.33 Y-30.66
G1 X130.91 Y-34.30 F114.56
G1 X127.48 Y-37.94 F149.81
G1 X124.90 Y-40.68 F176.25
G1 X121.48 Y-44.33
G1 X118.05 Y-47.97 F149.81
G1 X115.47 Y-50.71 F123.37
G1 X115.27 Y-50.71
G1 X115.06 Y-50.71
G1 X111.63 Y-47.07 F149.81
G1 X108.21 Y-43.42 F176.25
G1 X105.63 Y-40.68
G1 X102.20 Y-37.04 F132.19
G1 X98.78 Y-33.40 F88.13
G1 X96.20 Y-30.66
G1 X96.20 Y-30.66
G4 S1.
M9
G4 S1.
M5
G4 S1.
G0 X17.97 Y-63.30
M3
M8
G4 S3.33
G1 X18.00 Y-63.38
G1 X18.04 Y-63.47 F123.37
G1 X18.04 Y-68.15 F149.81
G1 X18.04 Y-72.82 F123.37
G1 X17.98 Y-72.93
G1 X17.92 Y-73.04
G1 X13.73 Y-75.76 F149.81
G1 X10.02 Y-78.15
G1 X5.83 Y-80.87 F114.56
G1 X2.13 Y-83.27 F79.31
G1 X1.86 Y-83.10
G1 X1.60 Y-82.92
G1 X2.55 Y-78.01 F114.56
G1 X3.49 Y-73.10 F149.81
G1 X4.44 Y-68.19 F176.25
G1 X4.48 Y-67.98 F167.44
G1 X5.43 Y-63.07 F149.81
G1 X6.38 Y-58.16 F114.56
G1 X7.32 Y-53.25 F79.31
G1 X7.36 Y-53.04
G1 X7.64 Y-52.96
G1 X7.92 Y-52.88
G1 X11.39 Y-56.48 F114.56
G1 X12.95 Y-58.09 F132.19
G1 X16.42 Y-61.69 F88.13
G1 X17.97 Y-63.30
G1 X17.97 Y-63.30
G4 S1.
M9
G4 S1.
M5
G4 S1.
G0 X246.53 Y-41.54
M3
M8
G4 S3.33
G1 X246.45 Y-41.57
G1 X246.36 Y-41.61 F123.37
G1 X241.68 Y-41.61 F149.81
G1 X237.01 Y-41.61 F123.37
G1 X236.90 Y-41.55
G1 X236.79 Y-41.49
G1 X234.07 Y-37.29 F149.81
G1 X231.67 Y-33.59
G1 X228.95 Y-29.40 F114.56
G1 X226.55 Y-25.69 F79.31
G1 X226.73 Y-25.43
G1 X226.91 Y-25.17
G1 X231.82 Y-26.12 F114.56
G1 X236.73 Y-27.06 F149.81
G1 X241.64 Y-28.01 F176.25
G1 X241.85 Y-28.05 F167.44
G1 X246.76 Y-29.00 F149.81
G1 X251.67 Y-29.94 F114.56
G1 X256.58 Y-30.89 F79.31
G1 X256.79 Y-30.93
G1 X256.87 Y-31.21
G1 X256.95 Y-31.49
G1 X253.35 Y-34.96 F114.56
G1 X251.74 Y-36.51 F132.19
G1 X248.14 Y-39.98 F88.13
G1 X246.53 Y-41.54
G1 X246.53 Y-41.54
G4 S1.
M9
G4 S1.
M5
G4 S1.
G0 X277.39 Y-37.68
M3
M8
G4 S3.33
G1 X277.30 Y-37.71
G1 X277.21 Y-37.75 F123.37
G1 X272.54 Y-37.75 F149.81
G1 X267.86 Y-37.75 F123.37
G1 X267.76 Y-37.69
G1 X267.65 Y-37.63
G1 X264.93 Y-33.44 F149.81
G1 X262.53 Y-29.73
G1 X259.81 Y-25.54 F114.56
G1 X257.41 Y-21.84 F79.31
G1 X257.59 Y-21.57
G1 X257.77 Y-21.31
G1 X262.67 Y-22.26 F114.56
G1 X267.58 Y-23.21 F149.81
G1 X272.49 Y-24.15 F176.25
G1 X272.70 Y-24.19 F167.44
G1 X277.61 Y-25.14 F149.81
G1 X282.52 Y-26.09 F114.56
G1 X287.43 Y-27.03 F79.31
G1 X287.64 Y-27.08
G1 X287.73 Y-27.35
G1 X287.81 Y-27.63
G1 X284.21 Y-31.10 F114.56
G1 X282.60 Y-32.66 F132.19
G1 X279.00 Y-36.13 F88.13
G1 X277.39 Y-37.68
G1 X277.39 Y-37.68
G4 S1.
M9
G4 S1.
M5
G4 S1.
G0 X279.31 Y-20.32
M3
M8
G4 S3.33
G1 X279.23 Y-20.35
G1 X279.14 Y-20.39 F123.37
G1 X274.46 Y-20.39 F149.81
G1 X269.79 Y-20.39 F123.37
G1 X269.68 Y-20.33
G1 X269.57 Y-20.27
G1 X266.85 Y-16.08 F149.81
G1 X264.46 Y-12.38
G1 X261.74 Y-8.18 F114.56
G1 X259.34 Y-4.48 F79.31
G1 X259.51 Y-4.22
G1 X259.69 Y-3.95
G1 X264.60 Y-4.90 F114.56
G1 X269.51 Y-5.85 F149.81
G1 X274.42 Y-6.79 F176.25
G1 X274.63 Y-6.83 F167.44
G1 X279.54 Y-7.78 F149.81
G1 X284.45 Y-8.73 F114.56
G1 X289.36 Y-9.68 F79.31
G1 X289.57 Y-9.72
G1 X289.65 Y-10.00
G1 X289.73 Y-10.28
G1 X286.13 Y-13.75 F114.56
G1 X284.52 Y-15.30 F132.19
G1 X280.92 Y-18.77 F88.13
G1 X279.31 Y-20.32
G1 X279.31 Y-20.32
G4 S1.
M9
G4 S1.
M5
G4 S1.
G0 X247.97 Y-19.84
M3
M8
G4 S3.33
G1 X247.88 Y-19.87
G1 X247.79 Y-19.91 F123.37
G1 X243.12 Y-19.91 F149.81
G1 X238.44 Y-19.91 F123.37
G1 X238.34 Y-19.85
G1 X238.23 Y-19.79
G1 X235.51 Y-15.60 F149.81
G1 X233.11 Y-11.89
G1 X230.39 Y-7.70 F114.56
G1 X227.99 Y-4.00 F79.31
G1 X228.17 Y-3.73
G1 X228.35 Y-3.47
G1 X233.25 Y-4.42 F114.56
G1 X238.16 Y-5.36 F149.81
G1 X243.07 Y-6.31 F176.25
G1 X243.28 Y-6.35 F167.44
G1 X248.19 Y-7.30 F149.81
G1 X253.10 Y-8.25 F114.56
G1 X258.01 Y-9.19 F79.31
G1 X258.22 Y-9.23
G1 X258.31 Y-9.51
G1 X258.39 Y-9.79
G1 X254.79 Y-13.26 F114.56
G1 X253.18 Y-14.82 F132.19
G1 X249.58 Y-18.29 F88.13
G1 X247.97 Y-19.84
G1 X247.97 Y-19.84
G4 S1.
M9
G4 S1.
M5
G4 S1.
G0 X69.06 Y-94.64
M3
M8
G4 S3.33
G1 X69.09 Y-94.73
G1 X69.13 Y-94.81 F123.37
G1 X69.13 Y-99.49 F149.81
G1 X69.13 Y-104.16 F123.37
G1 X69.07 Y-104.27
G1 X69.01 Y-104.38
G1 X64.82 Y-107.10 F149.81
G1 X61.12 Y-109.50
G1 X56.92 Y-112.22 F114.56
G1 X53.22 Y-114.62 F79.31
G1 X52.96 Y-114.44
G1 X52.69 Y-114.26
G1 X53.64 Y-109.35 F114.56
G1 X54.59 Y-104.44 F149.81
G1 X55.53 Y-99.53 F176.25
G1 X55.58 Y-99.32 F167.44
G1 X56.52 Y-94.41 F149.81
G1 X57.47 Y-89.50 F114.56
G1 X58.42 Y-84.59 F79.31
G1 X58.46 Y-84.38
G1 X58.74 Y-84.30
G1 X59.02 Y-84.22
G1 X62.49 Y-87.82 F114.56
G1 X64.04 Y-89.43 F132.19
G1 X67.51 Y-93.03 F88.13
G1 X69.06 Y-94.64
G1 X69.06 Y-94.64
G4 S1.
M9
G4 S1.
M5
G4 S1.
G0 X33.95 Y-64.17
M3
M8
G4 S3.33
G1 X33.99 Y-64.25
G1 X34.02 Y-64.34 F123.37
G1 X34.02 Y-69.02 F149.81
G1 X34.02 Y-73.69 F123.37
G1 X33.96 Y-73.80
G1 X33.91 Y-73.91
G1 X29.71 Y-76.63 F149.81
G1 X26.01 Y-79.03
G1 X21.81 Y-81.75 F114.56
G1 X18.11 Y-84.15 F79.31
G1 X17.85 Y-83.97
G1 X17.59 Y-83.79
G1 X18.53 Y-78.88 F114.56
G1 X19.48 Y-73.97 F149.81
G1 X20.43 Y-69.06 F176.25
G1 X20.47 Y-68.85 F167.44
G1 X21.42 Y-63.94 F149.81
G1 X22.36 Y-59.03 F114.56
G1 X23.31 Y-54.12 F79.31
G1 X23.35 Y-53.91
G1 X23.63 Y-53.83
G1 X23.91 Y-53.75
G1 X27.38 Y-57.35 F114.56
G1 X28.93 Y-58.96 F132.19
G1 X32.40 Y-62.56 F88.13
G1 X33.95 Y-64.17
G1 X33.95 Y-64.17
G4 S1.
M9
G4 S1.
M5
G4 S1.
G0 X85.93 Y-95.12
M3
M8
G4 S3.33
G1 X85.96 Y-95.21
G1 X86.00 Y-95.29 F123.37
G1 X86.00 Y-99.97 F149.81
G1 X86.00 Y-104.64 F123.37
G1 X85.94 Y-104.75
G1 X85.88 Y-104.86
G1 X81.69 Y-107.58 F149.81
G1 X77.99 Y-109.98
G1 X73.79 Y-112.70 F114.56
G1 X70.09 Y-115.10 F79.31
G1 X69.83 Y-114.92
G1 X69.56 Y-114.74
G1 X70.51 Y-109.83 F114.56
G1 X71.46 Y-104.92 F149.81
G1 X72.40 Y-100.01 F176.25
G1 X72.44 Y-99.80 F167.44
G1 X73.39 Y-94.89 F149.81
G1 X74.34 Y-89.99 F114.56
G1 X75.29 Y-85.08 F79.31
G1 X75.33 Y-84.87
G1 X75.61 Y-84.78
G1 X75.89 Y-84.70
G1 X79.35 Y-88.30 F114.56
G1 X80.91 Y-89.91 F132.19
G1 X84.38 Y-93.51 F88.13
G1 X85.93 Y-95.12
G1 X85.93 Y-95.12
G4 S1.
M9
G4 S1.
M5
G4 S1.
G0 X52.37 Y-94.73
M3
M8
G4 S3.33
G1 X52.41 Y-94.82
G1 X52.44 Y-94.90 F123.37
G1 X52.44 Y-99.58 F149.81
G1 X52.44 Y-104.25 F123.37
G1 X52.38 Y-104.36
G1 X52.33 Y-104.47
G1 X48.13 Y-107.19 F149.81
G1 X44.43 Y-109.59
G1 X40.23 Y-112.31 F114.56
G1 X36.53 Y-114.71 F79.31
G1 X36.27 Y-114.53
G1 X36.01 Y-114.35
G1 X36.95 Y-109.44 F114.56
G1 X37.90 Y-104.53 F149.81
G1 X38.85 Y-99.62 F176.25
G1 X38.89 Y-99.41 F167.44
G1 X39.84 Y-94.50 F149.81
G1 X40.78 Y-89.59 F114.56
G1 X41.73 Y-84.68 F79.31
G1 X41.77 Y-84.47
G1 X42.05 Y-84.39
G1 X42.33 Y-84.31
G1 X45.80 Y-87.91 F114.56
G1 X47.35 Y-89.52 F132.19
G1 X50.82 Y-93.12 F88.13
G1 X52.37 Y-94.73
G1 X52.37 Y-94.73
G4 S1.
M9
G4 S1.
M5
G4 S1.
G0 X118.23 Y-95.60
M3
M8
G4 S3.33
G1 X118.26 Y-95.69
G1 X118.30 Y-95.78 F123.37
G1 X118.30 Y-100.45 F149.81
G1 X118.30 Y-105.13 F123.37
G1 X118.24 Y-105.23
G1 X118.18 Y-105.34
G1 X113.99 Y-108.06 F149.81
G1 X110.28 Y-110.46
G1 X106.09 Y-113.18 F114.56
G1 X102.39 Y-115.58 F79.31
G1 X102.12 Y-115.40
G1 X101.86 Y-115.23
G1 X102.81 Y-110.32 F114.56
G1 X103.75 Y-105.41 F149.81
G1 X104.70 Y-100.50 F176.25
G1 X104.74 Y-100.29 F167.44
G1 X105.69 Y-95.38 F149.81
G1 X106.64 Y-90.47 F114.56
G1 X107.58 Y-85.56 F79.31
G1 X107.62 Y-85.35
G1 X107.90 Y-85.26
G1 X108.18 Y-85.18
G1 X111.65 Y-88.78 F114.56
G1 X113.21 Y-90.39 F132.19
G1 X116.68 Y-93.99 F88.13
G1 X118.23 Y-95.60
G1 X118.23 Y-95.60
G4 S1.
M9
G4 S1.
M5
G4 S1.
G0 X136.06 Y-97.53
M3
M8
G4 S3.33
G1 X136.10 Y-97.62
G1 X136.13 Y-97.70 F123.37
G1 X136.13 Y-102.38 F149.81
G1 X136.13 Y-107.06 F123.37
G1 X136.08 Y-107.16
G1 X136.02 Y-107.27
G1 X131.82 Y-109.99 F149.81
G1 X128.12 Y-112.39
G1 X123.93 Y-115.11 F114.56
G1 X120.22 Y-117.51 F79.31
G1 X119.96 Y-117.33
G1 X119.70 Y-117.15
G1 X120.64 Y-112.24 F114.56
G1 X121.59 Y-107.34 F149.81
G1 X122.54 Y-102.43 F176.25
G1 X122.58 Y-102.22 F167.44
G1 X123.53 Y-97.31 F149.81
G1 X124.47 Y-92.40 F114.56
G1 X125.42 Y-87.49 F79.31
G1 X125.46 Y-87.28
G1 X125.74 Y-87.19
G1 X126.02 Y-87.11
G1 X129.49 Y-90.71 F114.56
G1 X131.04 Y-92.32 F132.19
G1 X134.51 Y-95.92 F88.13
G1 X136.06 Y-97.53
G1 X136.06 Y-97.53
G4 S1.
M9
G4 S1.
M5
G4 S1.
G0 X153.42 Y-98.01
M3
M8
G4 S3.33
G1 X153.45 Y-98.10
G1 X153.49 Y-98.19 F123.37
G1 X153.49 Y-102.86 F149.81
G1 X153.49 Y-107.54 F123.37
G1 X153.43 Y-107.64
G1 X153.37 Y-107.75
G1 X149.18 Y-110.47 F149.81
G1 X145.48 Y-112.87
G1 X141.28 Y-115.59 F114.56
G1 X137.58 Y-117.99 F79.31
G1 X137.32 Y-117.81
G1 X137.05 Y-117.64
G1 X138.00 Y-112.73 F114.56
G1 X138.95 Y-107.82 F149.81
G1 X139.89 Y-102.91 F176.25
G1 X139.93 Y-102.70 F167.44
G1 X140.88 Y-97.79 F149.81
G1 X141.83 Y-92.88 F114.56
G1 X142.78 Y-87.97 F79.31
G1 X142.82 Y-87.76
G1 X143.10 Y-87.68
G1 X143.38 Y-87.59
G1 X146.85 Y-91.19 F114.56
G1 X148.40 Y-92.80 F132.19
G1 X151.87 Y-96.40 F88.13
G1 X153.42 Y-98.01
G1 X153.42 Y-98.01
G4 S1.
M9
G4 S1.
M5
G4 S1.
G0 X175.11 Y-97.05
M3
M8
G4 S3.33
G1 X175.15 Y-97.14
G1 X175.18 Y-97.22 F123.37
G1 X175.18 Y-101.90 F149.81
G1 X175.18 Y-106.57 F123.37
G1 X175.13 Y-106.68
G1 X175.07 Y-106.79
G1 X170.87 Y-109.51 F149.81
G1 X167.17 Y-111.91
G1 X162.97 Y-114.63 F114.56
G1 X159.27 Y-117.03 F79.31
G1 X159.01 Y-116.85
G1 X158.75 Y-116.67
G1 X159.69 Y-111.76 F114.56
G1 X160.64 Y-106.85 F149.81
G1 X161.59 Y-101.94 F176.25
G1 X161.63 Y-101.73 F167.44
G1 X162.58 Y-96.82 F149.81
G1 X163.52 Y-91.91 F114.56
G1 X164.47 Y-87.00 F79.31
G1 X164.51 Y-86.79
G1 X164.79 Y-86.71
G1 X165.07 Y-86.63
G1 X168.54 Y-90.23 F114.56
G1 X170.09 Y-91.84 F132.19
G1 X173.56 Y-95.44 F88.13
G1 X175.11 Y-97.05
G1 X175.11 Y-97.05
G4 S1.
M9
G4 S1.
M5
G4 S1.
G0 X191.99 Y-98.01
M3
M8
G4 S3.33
G1 X192.02 Y-98.10
G1 X192.06 Y-98.19 F123.37
G1 X192.06 Y-102.86 F149.81
G1 X192.06 Y-107.54 F123.37
G1 X192.00 Y-107.64
G1 X191.94 Y-107.75
G1 X187.74 Y-110.47 F149.81
G1 X184.04 Y-112.87
G1 X179.85 Y-115.59 F114.56
G1 X176.15 Y-117.99 F79.31
G1 X175.88 Y-117.81
G1 X175.62 Y-117.64
G1 X176.57 Y-112.73 F114.56
G1 X177.51 Y-107.82 F149.81
G1 X178.46 Y-102.91 F176.25
G1 X178.50 Y-102.70 F167.44
G1 X179.45 Y-97.79 F149.81
G1 X180.40 Y-92.88 F114.56
G1 X181.34 Y-87.97 F79.31
G1 X181.38 Y-87.76
G1 X181.66 Y-87.68
G1 X181.94 Y-87.59
G1 X185.41 Y-91.19 F114.56
G1 X186.96 Y-92.80 F132.19
G1 X190.43 Y-96.40 F88.13
G1 X191.99 Y-98.01
G1 X191.99 Y-98.01
G4 S1.
M9
G4 S1.
M5
G4 S1.
G0 X19.32 Y-95.48
M3
M8
G4 S3.33
G1 X19.35 Y-95.57
G1 X19.39 Y-95.65 F123.37
G1 X19.39 Y-100.33 F149.81
G1 X19.39 Y-105.00 F123.37
G1 X19.33 Y-105.11
G1 X19.27 Y-105.22
G1 X15.08 Y-107.94 F149.81
G1 X11.38 Y-110.34
G1 X7.18 Y-113.06 F114.56
G1 X3.48 Y-115.46 F79.31
G1 X3.22 Y-115.28
G1 X2.95 Y-115.10
G1 X3.90 Y-110.19 F114.56
G1 X4.85 Y-105.28 F149.81
G1 X5.79 Y-100.37 F176.25
G1 X5.83 Y-100.16 F167.44
G1 X6.78 Y-95.25 F149.81
G1 X7.73 Y-90.34 F114.56
G1 X8.68 Y-85.43 F79.31
G1 X8.72 Y-85.22
G1 X9.00 Y-85.14
G1 X9.28 Y-85.06
G1 X12.75 Y-88.66 F114.56
G1 X14.30 Y-90.27 F132.19
G1 X17.77 Y-93.87 F88.13
G1 X19.32 Y-95.48
G1 X19.32 Y-95.48
G4 S1.
M9
G4 S1.
M5
G4 S1.
G0 X36.00 Y-95.27
M3
M8
G4 S3.33
G1 X36.04 Y-95.36
G1 X36.07 Y-95.44 F123.37
G1 X36.07 Y-100.12 F149.81
G1 X36.07 Y-104.79 F123.37
G1 X36.01 Y-104.90
G1 X35.95 Y-105.01
G1 X31.76 Y-107.73 F149.81
G1 X28.06 Y-110.13
G1 X23.86 Y-112.85 F114.56
G1 X20.16 Y-115.25 F79.31
G1 X19.90 Y-115.07
G1 X19.63 Y-114.89
G1 X20.58 Y-109.98 F114.56
G1 X21.53 Y-105.07 F149.81
G1 X22.48 Y-100.16 F176.25
G1 X22.52 Y-99.95 F167.44
G1 X23.46 Y-95.04 F149.81
G1 X24.41 Y-90.14 F114.56
G1 X25.36 Y-85.23 F79.31
G1 X25.40 Y-85.02
G1 X25.68 Y-84.93
G1 X25.96 Y-84.85
G1 X29.43 Y-88.45 F114.56
G1 X30.98 Y-90.06 F132.19
G1 X34.45 Y-93.66 F88.13
G1 X36.00 Y-95.27
G1 X36.00 Y-95.27
G4 S1.
M9
G4 S1.
M5
G4 S1.
G0 X49.67 Y-64.13
M3
M8
G4 S3.33
G1 X49.71 Y-64.22
G1 X49.74 Y-64.30 F123.37
G1 X49.74 Y-68.98 F149.81
G1 X49.74 Y-73.65 F123.37
G1 X49.68 Y-73.76
G1 X49.62 Y-73.87
G1 X45.43 Y-76.59 F149.81
G1 X41.73 Y-78.99
G1 X37.53 Y-81.71 F114.56
G1 X33.83 Y-84.11 F79.31
G1 X33.57 Y-83.93
G1 X33.30 Y-83.75
G1 X34.25 Y-78.84 F114.56
G1 X35.20 Y-73.93 F149.81
G1 X36.15 Y-69.02 F176.25
G1 X36.19 Y-68.81 F167.44
G1 X37.13 Y-63.90 F149.81
G1 X38.08 Y-58.99 F114.56
G1 X39.03 Y-54.08 F79.31
G1 X39.07 Y-53.87
G1 X39.35 Y-53.79
G1 X39.63 Y-53.71
G1 X43.10 Y-57.31 F114.56
G1 X44.65 Y-58.92 F132.19
G1 X48.12 Y-62.52 F88.13
G1 X49.67 Y-64.13
G1 X49.67 Y-64.13
G4 S1.
M9
G4 S1.
M5
G4 S1.
G0 X65.68 Y-64.14
M3
M8
G4 S3.33
G1 X65.71 Y-64.22
G1 X65.75 Y-64.31 F123.37
G1 X65.75 Y-68.99 F149.81
G1 X65.75 Y-73.66 F123.37
G1 X65.69 Y-73.77
G1 X65.63 Y-73.88
G1 X61.43 Y-76.60 F149.81
G1 X57.73 Y-79.00
G1 X53.54 Y-81.72 F114.56
G1 X49.84 Y-84.12 F79.31
G1 X49.57 Y-83.94
G1 X49.31 Y-83.76
G1 X50.26 Y-78.85 F114.56
G1 X51.20 Y-73.94 F149.81
G1 X52.15 Y-69.03 F176.25
G1 X52.19 Y-68.82 F167.44
G1 X53.14 Y-63.91 F149.81
G1 X54.08 Y-59.00 F114.56
G1 X55.03 Y-54.09 F79.31
G1 X55.07 Y-53.88
G1 X55.35 Y-53.80
G1 X55.63 Y-53.72
G1 X59.10 Y-57.32 F114.56
G1 X60.65 Y-58.93 F132.19
G1 X64.12 Y-62.53 F88.13
G1 X65.68 Y-64.14
G1 X65.68 Y-64.14
G4 S1.
M9
G4 S1.
M5
G4 S1.
G0 X81.20 Y-65.00
M3
M8
G4 S3.33
G1 X81.23 Y-65.09
G1 X81.27 Y-65.18 F123.37
G1 X81.27 Y-69.85 F149.81
G1 X81.27 Y-74.53 F123.37
G1 X81.21 Y-74.63
G1 X81.15 Y-74.74
G1 X76.95 Y-77.46 F149.81
G1 X73.25 Y-79.86
G1 X69.06 Y-82.58 F114.56
G1 X65.36 Y-84.98 F79.31
G1 X65.09 Y-84.80
G1 X64.83 Y-84.62
G1 X65.78 Y-79.72 F114.56
G1 X66.72 Y-74.81 F149.81
G1 X67.67 Y-69.90 F176.25
G1 X67.71 Y-69.69 F167.44
G1 X68.66 Y-64.78 F149.81
G1 X69.61 Y-59.87 F114.56
G1 X70.55 Y-54.96 F79.31
G1 X70.59 Y-54.75
G1 X70.87 Y-54.66
G1 X71.15 Y-54.58
G1 X74.62 Y-58.18 F114.56
G1 X76.18 Y-59.79 F132.19
G1 X79.64 Y-63.39 F88.13
G1 X81.20 Y-65.00
G1 X81.20 Y-65.00
G4 S1.
M9
G4 S1.
M5
G4 S1.
G0 X97.10 Y-66.54
M3
M8
G4 S3.33
G1 X97.13 Y-66.63
G1 X97.17 Y-66.71 F123.37
G1 X97.17 Y-71.39 F149.81
G1 X97.17 Y-76.06 F123.37
G1 X97.11 Y-76.17
G1 X97.05 Y-76.28
G1 X92.85 Y-79.00 F149.81
G1 X89.15 Y-81.40
G1 X84.96 Y-84.12 F114.56
G1 X81.26 Y-86.52 F79.31
G1 X80.99 Y-86.34
G1 X80.73 Y-86.16
G1 X81.68 Y-81.25 F114.56
G1 X82.62 Y-76.34 F149.81
G1 X83.57 Y-71.43 F176.25
G1 X83.61 Y-71.22 F167.44
G1 X84.56 Y-66.31 F149.81
G1 X85.51 Y-61.40 F114.56
G1 X86.45 Y-56.50 F79.31
G1 X86.49 Y-56.28
G1 X86.77 Y-56.20
G1 X87.05 Y-56.12
G1 X90.52 Y-59.72 F114.56
G1 X92.07 Y-61.33 F132.19
G1 X95.54 Y-64.93 F88.13
G1 X97.10 Y-66.54
G1 X97.10 Y-66.54
G4 S1.
M9
G4 S1.
M5
G4 S1.
G0 X112.53 Y-64.90
M3
M8
G4 S3.33
G1 X112.57 Y-64.99
G1 X112.60 Y-65.08 F123.37
G1 X112.60 Y-69.75 F149.81
G1 X112.60 Y-74.43 F123.37
G1 X112.54 Y-74.53
G1 X112.48 Y-74.64
G1 X108.29 Y-77.36 F149.81
G1 X104.59 Y-79.76
G1 X100.39 Y-82.48 F114.56
G1 X96.69 Y-84.88 F79.31
G1 X96.43 Y-84.70
G1 X96.16 Y-84.52
G1 X97.11 Y-79.62 F114.56
G1 X98.06 Y-74.71 F149.81
G1 X99.01 Y-69.80 F176.25
G1 X99.05 Y-69.59 F167.44
G1 X99.99 Y-64.68 F149.81
G1 X100.94 Y-59.77 F114.56
G1 X101.89 Y-54.86 F79.31
G1 X101.93 Y-54.65
G1 X102.21 Y-54.56
G1 X102.49 Y-54.48
G1 X105.96 Y-58.08 F114.56
G1 X107.51 Y-59.69 F132.19
G1 X110.98 Y-63.29 F88.13
G1 X112.53 Y-64.90
G1 X112.53 Y-64.90
G4 S1.
M9
G4 S1.
M5
G4 S1.
G0 X129.30 Y-64.04
M3
M8
G4 S3.33
G1 X129.34 Y-64.12
G1 X129.37 Y-64.21 F123.37
G1 X129.37 Y-68.89 F149.81
G1 X129.37 Y-73.56 F123.37
G1 X129.32 Y-73.67
G1 X129.26 Y-73.78
G1 X125.06 Y-76.50 F149.81
G1 X121.36 Y-78.90
G1 X117.16 Y-81.62 F114.56
G1 X113.46 Y-84.02 F79.31
G1 X113.20 Y-83.84
G1 X112.94 Y-83.66
G1 X113.88 Y-78.75 F114.56
G1 X114.83 Y-73.84 F149.81
G1 X115.78 Y-68.93 F176.25
G1 X115.82 Y-68.72 F167.44
G1 X116.77 Y-63.81 F149.81
G1 X117.71 Y-58.90 F114.56
G1 X118.66 Y-53.99 F79.31
G1 X118.70 Y-53.78
G1 X118.98 Y-53.70
G1 X119.26 Y-53.62
G1 X122.73 Y-57.22 F114.56
G1 X124.28 Y-58.83 F132.19
G1 X127.75 Y-62.43 F88.13
G1 X129.30 Y-64.04
G1 X129.30 Y-64.04
G4 S1.
M9
G4 S1.
M5
G4 S1.
G0 X145.03 Y-66.54
M3
M8
G4 S3.33
G1 X145.06 Y-66.63
G1 X145.10 Y-66.71 F123.37
G1 X145.10 Y-71.39 F149.81
G1 X145.10 Y-76.06 F123.37
G1 X145.04 Y-76.17
G1 X144.98 Y-76.28
G1 X140.79 Y-79.00 F149.81
G1 X137.09 Y-81.40
G1 X132.89 Y-84.12 F114.56
G1 X129.19 Y-86.52 F79.31
G1 X128.93 Y-86.34
G1 X128.66 Y-86.16
G1 X129.61 Y-81.25 F114.56
G1 X130.56 Y-76.34 F149.81
G1 X131.50 Y-71.43 F176.25
G1 X131.54 Y-71.22 F167.44
G1 X132.49 Y-66.31 F149.81
G1 X133.44 Y-61.40 F114.56
G1 X134.39 Y-56.50 F79.31
G1 X134.43 Y-56.28
G1 X134.71 Y-56.20
G1 X134.99 Y-56.12
G1 X138.46 Y-59.72 F114.56
G1 X140.01 Y-61.33 F132.19
G1 X143.48 Y-64.93 F88.13
G1 X145.03 Y-66.54
G1 X145.03 Y-66.54
G4 S1.
M9
G4 S1.
M5
G4 S1.
G0 X161.42 Y-65.09
M3
M8
G4 S3.33
G1 X161.46 Y-65.18
G1 X161.49 Y-65.27 F123.37
G1 X161.49 Y-69.94 F149.81
G1 X161.49 Y-74.62 F123.37
G1 X161.43 Y-74.72
G1 X161.37 Y-74.83
G1 X157.18 Y-77.55 F149.81
G1 X153.48 Y-79.95
G1 X149.28 Y-82.67 F114.56
G1 X145.58 Y-85.07 F79.31
G1 X145.32 Y-84.89
G1 X145.05 Y-84.72
G1 X146.00 Y-79.81 F114.56
G1 X146.95 Y-74.90 F149.81
G1 X147.89 Y-69.99 F176.25
G1 X147.94 Y-69.78 F167.44
G1 X148.88 Y-64.87 F149.81
G1 X149.83 Y-59.96 F114.56
G1 X150.78 Y-55.05 F79.31
G1 X150.82 Y-54.84
G1 X151.10 Y-54.76
G1 X151.38 Y-54.67
G1 X154.85 Y-58.27 F114.56
G1 X156.40 Y-59.88 F132.19
G1 X159.87 Y-63.48 F88.13
G1 X161.42 Y-65.09
G1 X161.42 Y-65.09
G4 S1.
M9
G4 S1.
M5
G4 S1.
G0 X177.81 Y-65.09
M3
M8
G4 S3.33
G1 X177.85 Y-65.18
G1 X177.88 Y-65.27 F123.37
G1 X177.88 Y-69.94 F149.81
G1 X177.88 Y-74.62 F123.37
G1 X177.82 Y-74.72
G1 X177.76 Y-74.83
G1 X173.57 Y-77.55 F149.81
G1 X169.87 Y-79.95
G1 X165.67 Y-82.67 F114.56
G1 X161.97 Y-85.07 F79.31
G1 X161.71 Y-84.89
G1 X161.44 Y-84.72
G1 X162.39 Y-79.81 F114.56
G1 X163.34 Y-74.90 F149.81
G1 X164.29 Y-69.99 F176.25
G1 X164.33 Y-69.78 F167.44
G1 X165.27 Y-64.87 F149.81
G1 X166.22 Y-59.96 F114.56
G1 X167.17 Y-55.05 F79.31
G1 X167.21 Y-54.84
G1 X167.49 Y-54.76
G1 X167.77 Y-54.67
G1 X171.24 Y-58.27 F114.56
G1 X172.79 Y-59.88 F132.19
G1 X176.26 Y-63.48 F88.13
G1 X177.81 Y-65.09
G1 X177.81 Y-65.09
G4 S1.
M9
G4 S1.
M5
G4 S1.
G0 X193.24 Y-66.54
M3
M8
G4 S3.33
G1 X193.27 Y-66.63
G1 X193.31 Y-66.71 F123.37
G1 X193.31 Y-71.39 F149.81
G1 X193.31 Y-76.06 F123.37
G1 X193.25 Y-76.17
G1 X193.19 Y-76.28
G1 X188.99 Y-79.00 F149.81
G1 X185.29 Y-81.40
G1 X181.10 Y-84.12 F114.56
G1 X177.40 Y-86.52 F79.31
G1 X177.13 Y-86.34
G1 X176.87 Y-86.16
G1 X177.82 Y-81.25 F114.56
G1 X178.76 Y-76.34 F149.81
G1 X179.71 Y-71.43 F176.25
G1 X179.75 Y-71.22 F167.44
G1 X180.70 Y-66.31 F149.81
G1 X181.65 Y-61.40 F114.56
G1 X182.59 Y-56.50 F79.31
G1 X182.63 Y-56.28
G1 X182.91 Y-56.20
G1 X183.19 Y-56.12
G1 X186.66 Y-59.72 F114.56
G1 X188.21 Y-61.33 F132.19
G1 X191.68 Y-64.93 F88.13
G1 X193.24 Y-66.54
G1 X193.24 Y-66.54
G4 S1.
M9
G4 S1.
M5
G4 S1.
G0 X211.07 Y-65.58
M3
M8
G4 S3.33
G1 X211.11 Y-65.66
G1 X211.14 Y-65.75 F123.37
G1 X211.14 Y-70.42 F149.81
G1 X211.14 Y-75.10 F123.37
G1 X211.09 Y-75.21
G1 X211.03 Y-75.31
G1 X206.83 Y-78.03 F149.81
G1 X203.13 Y-80.43
G1 X198.93 Y-83.15 F114.56
G1 X195.23 Y-85.55 F79.31
G1 X194.97 Y-85.38
G1 X194.71 Y-85.20
G1 X195.65 Y-80.29 F114.56
G1 X196.60 Y-75.38 F149.81
G1 X197.55 Y-70.47 F176.25
G1 X197.59 Y-70.26 F167.44
G1 X198.54 Y-65.35 F149.81
G1 X199.48 Y-60.44 F114.56
G1 X200.43 Y-55.53 F79.31
G1 X200.47 Y-55.32
G1 X200.75 Y-55.24
G1 X201.03 Y-55.15
G1 X204.50 Y-58.75 F114.56
G1 X206.05 Y-60.37 F132.19
G1 X209.52 Y-63.97 F88.13
G1 X211.07 Y-65.58
G1 X211.07 Y-65.58
G4 S1.
M9
G4 S1.
M5
G4 S1.
G0 X228.43 Y-63.17
M3
M8
G4 S3.33
G1 X228.46 Y-63.25
G1 X228.50 Y-63.34 F123.37
G1 X228.50 Y-68.01 F149.81
G1 X228.50 Y-72.69 F123.37
G1 X228.44 Y-72.80
G1 X228.38 Y-72.90
G1 X224.19 Y-75.62 F149.81
G1 X220.48 Y-78.02
G1 X216.29 Y-80.74 F114.56
G1 X212.59 Y-83.14 F79.31
G1 X212.32 Y-82.96
G1 X212.06 Y-82.79
G1 X213.01 Y-77.88 F114.56
G1 X213.96 Y-72.97 F149.81
G1 X214.90 Y-68.06 F176.25
G1 X214.94 Y-67.85 F167.44
G1 X215.89 Y-62.94 F149.81
G1 X216.84 Y-58.03 F114.56
G1 X217.78 Y-53.12 F79.31
G1 X217.83 Y-52.91
G1 X218.10 Y-52.83
G1 X218.38 Y-52.74
G1 X221.85 Y-56.34 F114.56
G1 X223.41 Y-57.95 F132.19
G1 X226.88 Y-61.55 F88.13
G1 X228.43 Y-63.17
G1 X228.43 Y-63.17
G4 S1.
M9
G4 S1.
M5
G4 S1.
G0 X245.30 Y-60.75
M3
M8
G4 S3.33
G1 X245.34 Y-60.84
G1 X245.37 Y-60.93 F123.37
G1 X245.37 Y-65.60 F149.81
G1 X245.37 Y-70.28 F123.37
G1 X245.31 Y-70.38
G1 X245.25 Y-70.49
G1 X241.06 Y-73.21 F149.81
G1 X237.36 Y-75.61
G1 X233.16 Y-78.33 F114.56
G1 X229.46 Y-80.73 F79.31
G1 X229.20 Y-80.55
G1 X228.93 Y-80.38
G1 X229.88 Y-75.47 F114.56
G1 X230.83 Y-70.56 F149.81
G1 X231.78 Y-65.65 F176.25
G1 X231.82 Y-65.44 F167.44
G1 X232.76 Y-60.53 F149.81
G1 X233.71 Y-55.62 F114.56
G1 X234.66 Y-50.71 F79.31
G1 X234.70 Y-50.50
G1 X234.98 Y-50.42
G1 X235.26 Y-50.33
G1 X238.73 Y-53.93 F114.56
G1 X240.28 Y-55.54 F132.19
G1 X243.75 Y-59.14 F88.13
G1 X245.30 Y-60.75
G1 X245.30 Y-60.75
G4 S1.
M9
G4 S1.
M5
G4 S1.
G0 X261.69 Y-60.75
M3
M8
G4 S3.33
G1 X261.73 Y-60.84
G1 X261.76 Y-60.93 F123.37
G1 X261.76 Y-65.60 F149.81
G1 X261.76 Y-70.28 F123.37
G1 X261.70 Y-70.38
G1 X261.64 Y-70.49
G1 X257.45 Y-73.21 F149.81
G1 X253.75 Y-75.61
G1 X249.55 Y-78.33 F114.56
G1 X245.85 Y-80.73 F79.31
G1 X245.59 Y-80.55
G1 X245.32 Y-80.38
G1 X246.27 Y-75.47 F114.56
G1 X247.22 Y-70.56 F149.81
G1 X248.17 Y-65.65 F176.25
G1 X248.21 Y-65.44 F167.44
G1 X249.15 Y-60.53 F149.81
G1 X250.10 Y-55.62 F114.56
G1 X251.05 Y-50.71 F79.31
G1 X251.09 Y-50.50
G1 X251.37 Y-50.42
G1 X251.65 Y-50.33
G1 X255.12 Y-53.93 F114.56
G1 X256.67 Y-55.54 F132.19
G1 X260.14 Y-59.14 F88.13
G1 X261.69 Y-60.75
G1 X261.69 Y-60.75
G4 S1.
M9
G4 S1.
M5
G4 S1.
G0 X278.08 Y-60.75
M3
M8
G4 S3.33
G1 X278.12 Y-60.84
G1 X278.15 Y-60.93 F123.37
G1 X278.15 Y-65.60 F149.81
G1 X278.15 Y-70.28 F123.37
G1 X278.09 Y-70.38
G1 X278.04 Y-70.49
G1 X273.84 Y-73.21 F149.81
G1 X270.14 Y-75.61
G1 X265.94 Y-78.33 F114.56
G1 X262.24 Y-80.73 F79.31
G1 X261.98 Y-80.55
G1 X261.71 Y-80.38
G1 X262.66 Y-75.47 F114.56
G1 X263.61 Y-70.56 F149.81
G1 X264.56 Y-65.65 F176.25
G1 X264.60 Y-65.44 F167.44
G1 X265.54 Y-60.53 F149.81
G1 X266.49 Y-55.62 F114.56
G1 X267.44 Y-50.71 F79.31
G1 X267.48 Y-50.50
G1 X267.76 Y-50.42
G1 X268.04 Y-50.33
G1 X271.51 Y-53.93 F114.56
G1 X273.06 Y-55.54 F132.19
G1 X276.53 Y-59.14 F88.13
G1 X278.08 Y-60.75
G1 X278.08 Y-60.75
G4 S1.
M9
G4 S1.
M5
G4 S1.
G0 X294.47 Y-60.75
M3
M8
G4 S3.33
G1 X294.51 Y-60.84
G1 X294.54 Y-60.93 F123.37
G1 X294.54 Y-65.60 F149.81
G1 X294.54 Y-70.28 F123.37
G1 X294.48 Y-70.38
G1 X294.43 Y-70.49
G1 X290.23 Y-73.21 F149.81
G1 X286.53 Y-75.61
G1 X282.33 Y-78.33 F114.56
G1 X278.63 Y-80.73 F79.31
G1 X278.37 Y-80.55
G1 X278.11 Y-80.38
G1 X279.05 Y-75.47 F114.56
G1 X280.00 Y-70.56 F149.81
G1 X280.95 Y-65.65 F176.25
G1 X280.99 Y-65.44 F167.44
G1 X281.93 Y-60.53 F149.81
G1 X282.88 Y-55.62 F114.56
G1 X283.83 Y-50.71 F79.31
G1 X283.87 Y-50.50
G1 X284.15 Y-50.42
G1 X284.43 Y-50.33
G1 X287.90 Y-53.93 F114.56
G1 X289.45 Y-55.54 F132.19
G1 X292.92 Y-59.14 F88.13
G1 X294.47 Y-60.75
G1 X294.47 Y-60.75
G4 S1.
M9
G4 S1.
M5
G4 S1.
G0 X242.39 Y-94.51
M3
M8
G4 S3.33
G1 X242.43 Y-94.59
G1 X242.46 Y-94.68 F123.37
G1 X242.46 Y-99.35 F149.81
G1 X242.46 Y-104.03 F123.37
G1 X242.40 Y-104.14
G1 X242.35 Y-104.24
G1 X238.15 Y-106.96 F149.81
G1 X234.45 Y-109.36
G1 X230.25 Y-112.08 F114.56
G1 X226.55 Y-114.48 F79.31
G1 X226.29 Y-114.31
G1 X226.03 Y-114.13
G1 X226.97 Y-109.22 F114.56
G1 X227.92 Y-104.31 F149.81
G1 X228.87 Y-99.40 F176.25
G1 X228.91 Y-99.19 F167.44
G1 X229.86 Y-94.28 F149.81
G1 X230.80 Y-89.37 F114.56
G1 X231.75 Y-84.46 F79.31
G1 X231.79 Y-84.25
G1 X232.07 Y-84.17
G1 X232.35 Y-84.09
G1 X235.82 Y-87.69 F114.56
G1 X237.37 Y-89.30 F132.19
G1 X240.84 Y-92.90 F88.13
G1 X242.39 Y-94.51
G1 X242.39 Y-94.51
G4 S1.
M9
G4 S1.
M5
G4 S1.
G0 X225.51 Y-97.40
M3
M8
G4 S3.33
G1 X225.55 Y-97.49
G1 X225.58 Y-97.57 F123.37
G1 X225.58 Y-102.25 F149.81
G1 X225.58 Y-106.92 F123.37
G1 X225.52 Y-107.03
G1 X225.47 Y-107.14
G1 X221.27 Y-109.86 F149.81
G1 X217.57 Y-112.26
G1 X213.37 Y-114.98 F114.56
G1 X209.67 Y-117.38 F79.31
G1 X209.41 Y-117.20
G1 X209.15 Y-117.02
G1 X210.09 Y-112.11 F114.56
G1 X211.04 Y-107.20 F149.81
G1 X211.99 Y-102.29 F176.25
G1 X212.03 Y-102.08 F167.44
G1 X212.98 Y-97.17 F149.81
G1 X213.92 Y-92.26 F114.56
G1 X214.87 Y-87.35 F79.31
G1 X214.91 Y-87.14
G1 X215.19 Y-87.06
G1 X215.47 Y-86.98
G1 X218.94 Y-90.58 F114.56
G1 X220.49 Y-92.19 F132.19
G1 X223.96 Y-95.79 F88.13
G1 X225.51 Y-97.40
G1 X225.51 Y-97.40
G4 S1.
M9
G4 S1.
M5
G4 S1.
G0 X208.63 Y-96.92
M3
M8
G4 S3.33
G1 X208.67 Y-97.00
G1 X208.70 Y-97.09 F123.37
G1 X208.70 Y-101.77 F149.81
G1 X208.70 Y-106.44 F123.37
G1 X208.65 Y-106.55
G1 X208.59 Y-106.66
G1 X204.39 Y-109.38 F149.81
G1 X200.69 Y-111.77
G1 X196.49 Y-114.49 F114.56
G1 X192.79 Y-116.89 F79.31
G1 X192.53 Y-116.72
G1 X192.27 Y-116.54
G1 X193.21 Y-111.63 F114.56
G1 X194.16 Y-106.72 F149.81
G1 X195.11 Y-101.81 F176.25
G1 X195.15 Y-101.60 F167.44
G1 X196.10 Y-96.69 F149.81
G1 X197.04 Y-91.78 F114.56
G1 X197.99 Y-86.87 F79.31
G1 X198.03 Y-86.66
G1 X198.31 Y-86.58
G1 X198.59 Y-86.50
G1 X202.06 Y-90.10 F114.56
G1 X203.61 Y-91.71 F132.19
G1 X207.08 Y-95.31 F88.13
G1 X208.63 Y-96.92
G1 X208.63 Y-96.92
G4 S1.
M9
G4 S1.
M5
G4 S1.
G0 X101.10 Y-97.40
M3
M8
G4 S3.33
G1 X101.14 Y-97.49
G1 X101.17 Y-97.57 F123.37
G1 X101.17 Y-102.25 F149.81
G1 X101.17 Y-106.92 F123.37
G1 X101.12 Y-107.03
G1 X101.06 Y-107.14
G1 X96.86 Y-109.86 F149.81
G1 X93.16 Y-112.26
G1 X88.97 Y-114.98 F114.56
G1 X85.26 Y-117.38 F79.31
G1 X85.00 Y-117.20
G1 X84.74 Y-117.02
G1 X85.68 Y-112.11 F114.56
G1 X86.63 Y-107.20 F149.81
G1 X87.58 Y-102.29 F176.25
G1 X87.62 Y-102.08 F167.44
G1 X88.57 Y-97.17 F149.81
G1 X89.51 Y-92.26 F114.56
G1 X90.46 Y-87.35 F79.31
G1 X90.50 Y-87.14
G1 X90.78 Y-87.06
G1 X91.06 Y-86.98
G1 X94.53 Y-90.58 F114.56
G1 X96.08 Y-92.19 F132.19
G1 X99.55 Y-95.79 F88.13
G1 X101.10 Y-97.40
G1 X101.10 Y-97.40
G4 S1.
M9
G4 S1.
M5
G4 S1.
G0 X258.29 Y-94.99
M3
M8
G4 S3.33
G1 X258.33 Y-95.08
G1 X258.36 Y-95.16 F123.37
G1 X258.36 Y-99.84 F149.81
G1 X258.36 Y-104.51 F123.37
G1 X258.30 Y-104.62
G1 X258.24 Y-104.73
G1 X254.05 Y-107.45 F149.81
G1 X250.35 Y-109.85
G1 X246.15 Y-112.57 F114.56
G1 X242.45 Y-114.97 F79.31
G1 X242.19 Y-114.79
G1 X241.92 Y-114.61
G1 X242.87 Y-109.70 F114.56
G1 X243.82 Y-104.79 F149.81
G1 X244.77 Y-99.88 F176.25
G1 X244.81 Y-99.67 F167.44
G1 X245.75 Y-94.76 F149.81
G1 X246.70 Y-89.85 F114.56
G1 X247.65 Y-84.94 F79.31
G1 X247.69 Y-84.73
G1 X247.97 Y-84.65
G1 X248.25 Y-84.57
G1 X251.72 Y-88.17 F114.56
G1 X253.27 Y-89.78 F132.19
G1 X256.74 Y-93.38 F88.13
G1 X258.29 Y-94.99
G1 X258.29 Y-94.99
G4 S1.
M9
G4 S1.
M5
G4 S1.
G0 X273.72 Y-95.47
M3
M8
G4 S3.33
G1 X273.75 Y-95.56
G1 X273.79 Y-95.64 F123.37
G1 X273.79 Y-100.32 F149.81
G1 X273.79 Y-104.99 F123.37
G1 X273.73 Y-105.10
G1 X273.67 Y-105.21
G1 X269.47 Y-107.93 F149.81
G1 X265.77 Y-110.33
G1 X261.58 Y-113.05 F114.56
G1 X257.88 Y-115.45 F79.31
G1 X257.61 Y-115.27
G1 X257.35 Y-115.09
G1 X258.30 Y-110.18 F114.56
G1 X259.24 Y-105.27 F149.81
G1 X260.19 Y-100.36 F176.25
G1 X260.23 Y-100.15 F167.44
G1 X261.18 Y-95.24 F149.81
G1 X262.13 Y-90.34 F114.56
G1 X263.07 Y-85.43 F79.31
G1 X263.11 Y-85.22
G1 X263.39 Y-85.13
G1 X263.67 Y-85.05
G1 X267.14 Y-88.65 F114.56
G1 X268.69 Y-90.26 F132.19
G1 X272.16 Y-93.86 F88.13
G1 X273.72 Y-95.47
G1 X273.72 Y-95.47
G4 S1.
M9
G4 S1.
M5
G4 S1.
G0 X292.04 Y-95.47
M3
M8
G4 S3.33
G1 X292.07 Y-95.56
G1 X292.11 Y-95.64 F123.37
G1 X292.11 Y-100.32 F149.81
G1 X292.11 Y-104.99 F123.37
G1 X292.05 Y-105.10
G1 X291.99 Y-105.21
G1 X287.79 Y-107.93 F149.81
G1 X284.09 Y-110.33
G1 X279.90 Y-113.05 F114.56
G1 X276.20 Y-115.45 F79.31
G1 X275.93 Y-115.27
G1 X275.67 Y-115.09
G1 X276.62 Y-110.18 F114.56
G1 X277.56 Y-105.27 F149.81
G1 X278.51 Y-100.36 F176.25
G1 X278.55 Y-100.15 F167.44
G1 X279.50 Y-95.24 F149.81
G1 X280.44 Y-90.34 F114.56
G1 X281.39 Y-85.43 F79.31
G1 X281.43 Y-85.22
G1 X281.71 Y-85.13
G1 X281.99 Y-85.05
G1 X285.46 Y-88.65 F114.56
G1 X287.01 Y-90.26 F132.19
G1 X290.48 Y-93.86 F88.13
G1 X292.04 Y-95.47
G1 X292.04 Y-95.47
G4 S1.
M9
G4 S1.
M5
G4 S1.
M1413 02:09:28
M1404
