;-------------------------------Cut file parameters------------------------
; Input file name : yellow_x36 (Entity_0).DXF
; File rotation : 180 File scale : 1
; Machine : Desktop
; Material name : Glass - Soda Lime
; Material thickness : 0.125 in
; Cut path  : Outside
; Cut quality : mediumRate
; Raw Material width : 345.7mm
; Raw Material height : 249.0mm
;-------------------------------Do Not modify the Gcode file---------------
G90
G21
M1403
M1405 X0.55 Y--0.00
M1406 X346.25 Y-248.98
M1407 S3.33
M1410 2.2.0; Generated on Wam
M1411 Glass - Soda Lime
M1412 0.125 in
G0 X50.81 Y-72.22
M3
M8
G4 S3.33
G1 X50.81 Y-67.22 F176.25
G1 X50.81 Y-62.22
G1 X50.81 Y-57.22
G1 X50.81 Y-52.22
G1 X50.81 Y-47.22
G1 X50.81 Y-42.22
G1 X50.81 Y-37.34
G1 X50.81 Y-32.34
G1 X50.81 Y-27.34
G1 X50.81 Y-22.34
G1 X50.81 Y-17.34
G1 X50.81 Y-12.34
G1 X50.81 Y-7.34 F149.81
G1 X50.81 Y-2.45 F123.37
G1 X50.95 Y-2.31
G1 X51.09 Y-2.17
G1 X56.09 Y-2.17 F149.81
G1 X61.09 Y-2.17 F176.25
G1 X64.80 Y-2.17
G1 X69.80 Y-2.17
G1 X74.80 Y-2.17 F149.81
G1 X78.51 Y-2.17 F123.37
G1 X78.66 Y-2.35
G1 X78.80 Y-2.52
G1 X77.86 Y-7.43 F149.81
G1 X76.91 Y-12.34 F176.25
G1 X75.96 Y-17.25
G1 X75.01 Y-22.16
G1 X74.07 Y-27.07
G1 X73.12 Y-31.98
G1 X73.06 Y-32.27 F167.44
G1 X72.12 Y-37.18 F176.25
G1 X71.17 Y-42.09
G1 X70.22 Y-47.00
G1 X69.27 Y-51.91
G1 X68.33 Y-56.82 F149.81
G1 X67.38 Y-61.73 F123.37
G1 X67.32 Y-62.02
G1 X67.27 Y-62.10
G1 X67.21 Y-62.18
G1 X63.02 Y-64.90 F149.81
G1 X59.26 Y-67.34
G1 X55.07 Y-70.06 F114.56
G1 X51.31 Y-72.50 F132.19
G1 X51.06 Y-72.36 F88.13
G1 X50.81 Y-72.22
G1 X50.81 Y-72.22
G4 S1.
M9
G4 S1.
M5
G4 S1.
G0 X48.73 Y-0.67
M3
M8
G4 S3.33
G1 X48.73 Y-5.67
G1 X48.73 Y-10.67 F176.25
G1 X48.73 Y-15.67
G1 X48.73 Y-20.67
G1 X48.73 Y-25.67
G1 X48.73 Y-30.67
G1 X48.73 Y-35.56
G1 X48.73 Y-40.56
G1 X48.73 Y-45.56
G1 X48.73 Y-50.56
G1 X48.73 Y-55.56
G1 X48.73 Y-60.56
G1 X48.73 Y-65.56 F149.81
G1 X48.73 Y-70.44 F123.37
G1 X48.59 Y-70.58
G1 X48.45 Y-70.72
G1 X43.45 Y-70.72 F149.81
G1 X38.45 Y-70.72 F176.25
G1 X34.73 Y-70.72
G1 X29.73 Y-70.72
G1 X24.73 Y-70.72 F149.81
G1 X21.02 Y-70.72 F123.37
G1 X20.88 Y-70.55
G1 X20.73 Y-70.38
G1 X21.68 Y-65.47 F149.81
G1 X22.63 Y-60.56 F176.25
G1 X23.58 Y-55.65
G1 X24.52 Y-50.74
G1 X25.47 Y-45.83
G1 X26.42 Y-40.92
G1 X26.47 Y-40.63 F167.44
G1 X27.42 Y-35.72 F176.25
G1 X28.37 Y-30.81
G1 X29.31 Y-25.90
G1 X30.26 Y-20.99
G1 X31.21 Y-16.08 F149.81
G1 X32.16 Y-11.17 F123.37
G1 X32.21 Y-10.87
G1 X32.27 Y-10.79
G1 X32.32 Y-10.71
G1 X36.52 Y-7.99 F149.81
G1 X40.27 Y-5.56
G1 X44.47 Y-2.84 F114.56
G1 X48.23 Y-0.40 F132.19
G1 X48.48 Y-0.54 F88.13
G1 X48.73 Y-0.67
G1 X48.73 Y-0.67
G4 S1.
M9
G4 S1.
M5
G4 S1.
G0 X98.58 Y-73.18
M3
M8
G4 S3.33
G1 X98.58 Y-68.18
G1 X98.58 Y-63.18 F176.25
G1 X98.58 Y-58.18
G1 X98.58 Y-53.18
G1 X98.58 Y-48.18
G1 X98.58 Y-43.18
G1 X98.58 Y-38.30
G1 X98.58 Y-33.30
G1 X98.58 Y-28.30
G1 X98.58 Y-23.30
G1 X98.58 Y-18.30
G1 X98.58 Y-13.30
G1 X98.58 Y-8.30 F149.81
G1 X98.58 Y-3.41 F123.37
G1 X98.72 Y-3.27
G1 X98.86 Y-3.13
G1 X103.86 Y-3.13 F149.81
G1 X108.86 Y-3.13 F176.25
G1 X112.58 Y-3.13
G1 X117.58 Y-3.13
G1 X122.58 Y-3.13 F149.81
G1 X126.29 Y-3.13 F123.37
G1 X126.43 Y-3.31
G1 X126.58 Y-3.48
G1 X125.63 Y-8.39 F149.81
G1 X124.68 Y-13.30 F176.25
G1 X123.74 Y-18.21
G1 X122.79 Y-23.12
G1 X121.84 Y-28.03
G1 X120.89 Y-32.94
G1 X120.84 Y-33.23 F167.44
G1 X119.89 Y-38.14 F176.25
G1 X118.94 Y-43.05
G1 X118.00 Y-47.96
G1 X117.05 Y-52.87
G1 X116.10 Y-57.78 F149.81
G1 X115.15 Y-62.69 F123.37
G1 X115.10 Y-62.98
G1 X115.04 Y-63.06
G1 X114.99 Y-63.14
G1 X110.79 Y-65.86 F149.81
G1 X107.04 Y-68.30
G1 X102.84 Y-71.02 F114.56
G1 X99.08 Y-73.45 F132.19
G1 X98.83 Y-73.32 F88.13
G1 X98.58 Y-73.18
G1 X98.58 Y-73.18
G4 S1.
M9
G4 S1.
M5
G4 S1.
G0 X95.54 Y-2.11
M3
M8
G4 S3.33
G1 X95.54 Y-7.11
G1 X95.54 Y-12.11 F176.25
G1 X95.54 Y-17.11
G1 X95.54 Y-22.11
G1 X95.54 Y-27.11
G1 X95.54 Y-32.11
G1 X95.54 Y-37.00
G1 X95.54 Y-42.00
G1 X95.54 Y-47.00
G1 X95.54 Y-52.00
G1 X95.54 Y-57.00
G1 X95.54 Y-62.00
G1 X95.54 Y-67.00 F149.81
G1 X95.54 Y-71.88 F123.37
G1 X95.40 Y-72.02
G1 X95.26 Y-72.16
G1 X90.26 Y-72.16 F149.81
G1 X85.26 Y-72.16 F176.25
G1 X81.55 Y-72.16
G1 X76.55 Y-72.16
G1 X71.55 Y-72.16 F149.81
G1 X67.84 Y-72.16 F123.37
G1 X67.69 Y-71.99
G1 X67.55 Y-71.82
G1 X68.50 Y-66.91 F149.81
G1 X69.44 Y-62.00 F176.25
G1 X70.39 Y-57.09
G1 X71.34 Y-52.18
G1 X72.28 Y-47.27
G1 X73.23 Y-42.36
G1 X73.29 Y-42.06 F167.44
G1 X74.23 Y-37.16 F176.25
G1 X75.18 Y-32.25
G1 X76.13 Y-27.34
G1 X77.08 Y-22.43
G1 X78.02 Y-17.52 F149.81
G1 X78.97 Y-12.61 F123.37
G1 X79.03 Y-12.31
G1 X79.08 Y-12.23
G1 X79.14 Y-12.15
G1 X83.33 Y-9.43 F149.81
G1 X87.09 Y-7.00
G1 X91.28 Y-4.28 F114.56
G1 X95.04 Y-1.84 F132.19
G1 X95.29 Y-1.98 F88.13
G1 X95.54 Y-2.11
G1 X95.54 Y-2.11
G4 S1.
M9
G4 S1.
M5
G4 S1.
G0 X143.66 Y-1.63
M3
M8
G4 S3.33
G1 X143.66 Y-6.63
G1 X143.66 Y-11.63 F176.25
G1 X143.66 Y-16.63
G1 X143.66 Y-21.63
G1 X143.66 Y-26.63
G1 X143.66 Y-31.63
G1 X143.66 Y-36.52
G1 X143.66 Y-41.52
G1 X143.66 Y-46.52
G1 X143.66 Y-51.52
G1 X143.66 Y-56.52
G1 X143.66 Y-61.52
G1 X143.66 Y-66.52 F149.81
G1 X143.66 Y-71.40 F123.37
G1 X143.52 Y-71.54
G1 X143.38 Y-71.68
G1 X138.38 Y-71.68 F149.81
G1 X133.38 Y-71.68 F176.25
G1 X129.67 Y-71.68
G1 X124.67 Y-71.68
G1 X119.67 Y-71.68 F149.81
G1 X115.95 Y-71.68 F123.37
G1 X115.81 Y-71.51
G1 X115.66 Y-71.34
G1 X116.61 Y-66.43 F149.81
G1 X117.56 Y-61.52 F176.25
G1 X118.51 Y-56.61
G1 X119.45 Y-51.70
G1 X120.40 Y-46.79
G1 X121.35 Y-41.88
G1 X121.40 Y-41.58 F167.44
G1 X122.35 Y-36.68 F176.25
G1 X123.30 Y-31.77
G1 X124.25 Y-26.86
G1 X125.19 Y-21.95
G1 X126.14 Y-17.04 F149.81
G1 X127.09 Y-12.13 F123.37
G1 X127.14 Y-11.83
G1 X127.20 Y-11.75
G1 X127.25 Y-11.67
G1 X131.45 Y-8.95 F149.81
G1 X135.21 Y-6.52
G1 X139.40 Y-3.80 F114.56
G1 X143.16 Y-1.36 F132.19
G1 X143.41 Y-1.50 F88.13
G1 X143.66 Y-1.63
G1 X143.66 Y-1.63
G4 S1.
M9
G4 S1.
M5
G4 S1.
G0 X147.45 Y-72.70
M3
M8
G4 S3.33
G1 X147.45 Y-67.70
G1 X147.45 Y-62.70 F176.25
G1 X147.45 Y-57.70
G1 X147.45 Y-52.70
G1 X147.45 Y-47.70
G1 X147.45 Y-42.70
G1 X147.45 Y-37.82
G1 X147.45 Y-32.82
G1 X147.45 Y-27.82
G1 X147.45 Y-22.82
G1 X147.45 Y-17.82
G1 X147.45 Y-12.82
G1 X147.45 Y-7.82 F149.81
G1 X147.45 Y-2.93 F123.37
G1 X147.59 Y-2.79
G1 X147.73 Y-2.65
G1 X152.73 Y-2.65 F149.81
G1 X157.73 Y-2.65 F176.25
G1 X161.45 Y-2.65
G1 X166.45 Y-2.65
G1 X171.45 Y-2.65 F149.81
G1 X175.16 Y-2.65 F123.37
G1 X175.30 Y-2.83
G1 X175.45 Y-3.00
G1 X174.50 Y-7.91 F149.81
G1 X173.55 Y-12.82 F176.25
G1 X172.61 Y-17.73
G1 X171.66 Y-22.64
G1 X170.71 Y-27.55
G1 X169.77 Y-32.46
G1 X169.71 Y-32.75 F167.44
G1 X168.76 Y-37.66 F176.25
G1 X167.81 Y-42.57
G1 X166.87 Y-47.48
G1 X165.92 Y-52.39
G1 X164.97 Y-57.30 F149.81
G1 X164.03 Y-62.21 F123.37
G1 X163.97 Y-62.50
G1 X163.91 Y-62.58
G1 X163.86 Y-62.66
G1 X159.66 Y-65.38 F149.81
G1 X155.91 Y-67.82
G1 X151.71 Y-70.54 F114.56
G1 X147.96 Y-72.97 F132.19
G1 X147.70 Y-72.84 F88.13
G1 X147.45 Y-72.70
G1 X147.45 Y-72.70
G4 S1.
M9
G4 S1.
M5
G4 S1.
G0 X192.87 Y-1.15
M3
M8
G4 S3.33
G1 X192.87 Y-6.15
G1 X192.87 Y-11.15 F176.25
G1 X192.87 Y-16.15
G1 X192.87 Y-21.15
G1 X192.87 Y-26.15
G1 X192.87 Y-31.15
G1 X192.87 Y-36.04
G1 X192.87 Y-41.04
G1 X192.87 Y-46.04
G1 X192.87 Y-51.04
G1 X192.87 Y-56.04
G1 X192.87 Y-61.04
G1 X192.87 Y-66.04 F149.81
G1 X192.87 Y-70.92 F123.37
G1 X192.73 Y-71.06
G1 X192.59 Y-71.20
G1 X187.59 Y-71.20 F149.81
G1 X182.59 Y-71.20 F176.25
G1 X178.88 Y-71.20
G1 X173.88 Y-71.20
G1 X168.88 Y-71.20 F149.81
G1 X165.17 Y-71.20 F123.37
G1 X165.02 Y-71.03
G1 X164.88 Y-70.86
G1 X165.83 Y-65.95 F149.81
G1 X166.77 Y-61.04 F176.25
G1 X167.72 Y-56.13
G1 X168.67 Y-51.22
G1 X169.61 Y-46.31
G1 X170.56 Y-41.40
G1 X170.62 Y-41.10 F167.44
G1 X171.56 Y-36.20 F176.25
G1 X172.51 Y-31.29
G1 X173.46 Y-26.38
G1 X174.41 Y-21.47
G1 X175.35 Y-16.56 F149.81
G1 X176.30 Y-11.65 F123.37
G1 X176.36 Y-11.35
G1 X176.41 Y-11.27
G1 X176.47 Y-11.19
G1 X180.66 Y-8.47 F149.81
G1 X184.42 Y-6.04
G1 X188.61 Y-3.32 F114.56
G1 X192.37 Y-0.88 F132.19
G1 X192.62 Y-1.02 F88.13
G1 X192.87 Y-1.15
G1 X192.87 Y-1.15
G4 S1.
M9
G4 S1.
M5
G4 S1.
G0 X197.15 Y-72.22
M3
M8
G4 S3.33
G1 X197.15 Y-67.22
G1 X197.15 Y-62.22 F176.25
G1 X197.15 Y-57.22
G1 X197.15 Y-52.22
G1 X197.15 Y-47.22
G1 X197.15 Y-42.22
G1 X197.15 Y-37.34
G1 X197.15 Y-32.34
G1 X197.15 Y-27.34
G1 X197.15 Y-22.34
G1 X197.15 Y-17.34
G1 X197.15 Y-12.34
G1 X197.15 Y-7.34 F149.81
G1 X197.15 Y-2.45 F123.37
G1 X197.29 Y-2.31
G1 X197.43 Y-2.17
G1 X202.43 Y-2.17 F149.81
G1 X207.43 Y-2.17 F176.25
G1 X211.14 Y-2.17
G1 X216.14 Y-2.17
G1 X221.14 Y-2.17 F149.81
G1 X224.85 Y-2.17 F123.37
G1 X225.00 Y-2.35
G1 X225.14 Y-2.52
G1 X224.19 Y-7.43 F149.81
G1 X223.25 Y-12.34 F176.25
G1 X222.30 Y-17.25
G1 X221.35 Y-22.16
G1 X220.41 Y-27.07
G1 X219.46 Y-31.98
G1 X219.40 Y-32.27 F167.44
G1 X218.45 Y-37.18 F176.25
G1 X217.51 Y-42.09
G1 X216.56 Y-47.00
G1 X215.61 Y-51.91
G1 X214.67 Y-56.82 F149.81
G1 X213.72 Y-61.73 F123.37
G1 X213.66 Y-62.02
G1 X213.61 Y-62.10
G1 X213.55 Y-62.18
G1 X209.36 Y-64.90 F149.81
G1 X205.60 Y-67.34
G1 X201.41 Y-70.06 F114.56
G1 X197.65 Y-72.50 F132.19
G1 X197.40 Y-72.36 F88.13
G1 X197.15 Y-72.22
G1 X197.15 Y-72.22
G4 S1.
M9
G4 S1.
M5
G4 S1.
G0 X243.05 Y-1.63
M3
M8
G4 S3.33
G1 X243.05 Y-6.63
G1 X243.05 Y-11.63 F176.25
G1 X243.05 Y-16.63
G1 X243.05 Y-21.63
G1 X243.05 Y-26.63
G1 X243.05 Y-31.63
G1 X243.05 Y-36.52
G1 X243.05 Y-41.52
G1 X243.05 Y-46.52
G1 X243.05 Y-51.52
G1 X243.05 Y-56.52
G1 X243.05 Y-61.52
G1 X243.05 Y-66.52 F149.81
G1 X243.05 Y-71.40 F123.37
G1 X242.90 Y-71.54
G1 X242.76 Y-71.68
G1 X237.76 Y-71.68 F149.81
G1 X232.76 Y-71.68 F176.25
G1 X229.05 Y-71.68
G1 X224.05 Y-71.68
G1 X219.05 Y-71.68 F149.81
G1 X215.34 Y-71.68 F123.37
G1 X215.20 Y-71.51
G1 X215.05 Y-71.34
G1 X216.00 Y-66.43 F149.81
G1 X216.95 Y-61.52 F176.25
G1 X217.89 Y-56.61
G1 X218.84 Y-51.70
G1 X219.79 Y-46.79
G1 X220.73 Y-41.88
G1 X220.79 Y-41.58 F167.44
G1 X221.74 Y-36.68 F176.25
G1 X222.68 Y-31.77
G1 X223.63 Y-26.86
G1 X224.58 Y-21.95
G1 X225.53 Y-17.04 F149.81
G1 X226.47 Y-12.13 F123.37
G1 X226.53 Y-11.83
G1 X226.58 Y-11.75
G1 X226.64 Y-11.67
G1 X230.83 Y-8.95 F149.81
G1 X234.59 Y-6.52
G1 X238.79 Y-3.80 F114.56
G1 X242.54 Y-1.36 F132.19
G1 X242.79 Y-1.50 F88.13
G1 X243.05 Y-1.63
G1 X243.05 Y-1.63
G4 S1.
M9
G4 S1.
M5
G4 S1.
G0 X245.40 Y-72.70
M3
M8
G4 S3.33
G1 X245.40 Y-67.70
G1 X245.40 Y-62.70 F176.25
G1 X245.40 Y-57.70
G1 X245.40 Y-52.70
G1 X245.40 Y-47.70
G1 X245.40 Y-42.70
G1 X245.40 Y-37.82
G1 X245.40 Y-32.82
G1 X245.40 Y-27.82
G1 X245.40 Y-22.82
G1 X245.40 Y-17.82
G1 X245.40 Y-12.82
G1 X245.40 Y-7.82 F149.81
G1 X245.40 Y-2.93 F123.37
G1 X245.54 Y-2.79
G1 X245.68 Y-2.65
G1 X250.68 Y-2.65 F149.81
G1 X255.68 Y-2.65 F176.25
G1 X259.39 Y-2.65
G1 X264.39 Y-2.65
G1 X269.39 Y-2.65 F149.81
G1 X273.11 Y-2.65 F123.37
G1 X273.25 Y-2.83
G1 X273.39 Y-3.00
G1 X272.45 Y-7.91 F149.81
G1 X271.50 Y-12.82 F176.25
G1 X270.55 Y-17.73
G1 X269.61 Y-22.64
G1 X268.66 Y-27.55
G1 X267.71 Y-32.46
G1 X267.66 Y-32.75 F167.44
G1 X266.71 Y-37.66 F176.25
G1 X265.76 Y-42.57
G1 X264.81 Y-47.48
G1 X263.87 Y-52.39
G1 X262.92 Y-57.30 F149.81
G1 X261.97 Y-62.21 F123.37
G1 X261.92 Y-62.50
G1 X261.86 Y-62.58
G1 X261.81 Y-62.66
G1 X257.61 Y-65.38 F149.81
G1 X253.85 Y-67.82
G1 X249.66 Y-70.54 F114.56
G1 X245.90 Y-72.97 F132.19
G1 X245.65 Y-72.84 F88.13
G1 X245.40 Y-72.70
G1 X245.40 Y-72.70
G4 S1.
M9
G4 S1.
M5
G4 S1.
G0 X290.82 Y-2.59
M3
M8
G4 S3.33
G1 X290.82 Y-7.59
G1 X290.82 Y-12.59 F176.25
G1 X290.82 Y-17.59
G1 X290.82 Y-22.59
G1 X290.82 Y-27.59
G1 X290.82 Y-32.59
G1 X290.82 Y-37.48
G1 X290.82 Y-42.48
G1 X290.82 Y-47.48
G1 X290.82 Y-52.48
G1 X290.82 Y-57.48
G1 X290.82 Y-62.48
G1 X290.82 Y-67.48 F149.81
G1 X290.82 Y-72.36 F123.37
G1 X290.68 Y-72.50
G1 X290.54 Y-72.64
G1 X285.54 Y-72.64 F149.81
G1 X280.54 Y-72.64 F176.25
G1 X276.83 Y-72.64
G1 X271.83 Y-72.64
G1 X266.83 Y-72.64 F149.81
G1 X263.11 Y-72.64 F123.37
G1 X262.97 Y-72.47
G1 X262.83 Y-72.29
G1 X263.77 Y-67.39 F149.81
G1 X264.72 Y-62.48 F176.25
G1 X265.67 Y-57.57
G1 X266.61 Y-52.66
G1 X267.56 Y-47.75
G1 X268.51 Y-42.84
G1 X268.56 Y-42.54 F167.44
G1 X269.51 Y-37.63 F176.25
G1 X270.46 Y-32.73
G1 X271.41 Y-27.82
G1 X272.35 Y-22.91
G1 X273.30 Y-18.00 F149.81
G1 X274.25 Y-13.09 F123.37
G1 X274.30 Y-12.79
G1 X274.36 Y-12.71
G1 X274.41 Y-12.63
G1 X278.61 Y-9.91 F149.81
G1 X282.37 Y-7.48
G1 X286.56 Y-4.76 F114.56
G1 X290.32 Y-2.32 F132.19
G1 X290.57 Y-2.46 F88.13
G1 X290.82 Y-2.59
G1 X290.82 Y-2.59
G4 S1.
M9
G4 S1.
M5
G4 S1.
G0 X294.61 Y-71.74
M3
M8
G4 S3.33
G1 X294.61 Y-66.74
G1 X294.61 Y-61.74 F176.25
G1 X294.61 Y-56.74
G1 X294.61 Y-51.74
G1 X294.61 Y-46.74
G1 X294.61 Y-41.74
G1 X294.61 Y-36.86
G1 X294.61 Y-31.86
G1 X294.61 Y-26.86
G1 X294.61 Y-21.86
G1 X294.61 Y-16.86
G1 X294.61 Y-11.86
G1 X294.61 Y-6.86 F149.81
G1 X294.61 Y-1.97 F123.37
G1 X294.75 Y-1.83
G1 X294.89 Y-1.69
G1 X299.89 Y-1.69 F149.81
G1 X304.89 Y-1.69 F176.25
G1 X308.61 Y-1.69
G1 X313.61 Y-1.69
G1 X318.61 Y-1.69 F149.81
G1 X322.32 Y-1.69 F123.37
G1 X322.46 Y-1.87
G1 X322.61 Y-2.04
G1 X321.66 Y-6.95 F149.81
G1 X320.71 Y-11.86 F176.25
G1 X319.77 Y-16.77
G1 X318.82 Y-21.68
G1 X317.87 Y-26.59
G1 X316.93 Y-31.50
G1 X316.87 Y-31.79 F167.44
G1 X315.92 Y-36.70 F176.25
G1 X314.97 Y-41.61
G1 X314.03 Y-46.52
G1 X313.08 Y-51.43
G1 X312.13 Y-56.34 F149.81
G1 X311.19 Y-61.25 F123.37
G1 X311.13 Y-61.54
G1 X311.07 Y-61.62
G1 X311.02 Y-61.70
G1 X306.82 Y-64.42 F149.81
G1 X303.07 Y-66.86
G1 X298.87 Y-69.58 F114.56
G1 X295.12 Y-72.02 F132.19
G1 X294.86 Y-71.88 F88.13
G1 X294.61 Y-71.74
G1 X294.61 Y-71.74
G4 S1.
M9
G4 S1.
M5
G4 S1.
G0 X2.94 Y-69.15
M3
M8
G4 S3.33
G1 X3.04 Y-69.14
G1 X3.14 Y-69.12 F149.81
G1 X3.23 Y-69.07
G1 X3.32 Y-69.01 F123.37
G1 X3.39 Y-68.94 F132.19
G1 X3.45 Y-68.86 F123.37
G1 X3.49 Y-68.76
G1 X3.52 Y-68.66
G1 X3.53 Y-68.56
G1 X3.53 Y-63.96 F141.00
G1 X3.53 Y-59.37 F158.63
G1 X3.53 Y-54.77 F176.25
G1 X3.53 Y-50.17
G1 X3.53 Y-45.58
G1 X3.53 Y-40.98
G1 X3.53 Y-36.49
G1 X3.53 Y-31.49
G1 X3.53 Y-26.49
G1 X3.53 Y-21.49
G1 X3.53 Y-16.49
G1 X3.53 Y-11.49
G1 X3.53 Y-6.49 F149.81
G1 X3.53 Y-1.61 F123.37
G1 X3.67 Y-1.47
G1 X3.81 Y-1.33
G1 X8.81 Y-1.33 F149.81
G1 X13.81 Y-1.33 F176.25
G1 X17.52 Y-1.33
G1 X22.52 Y-1.33
G1 X27.52 Y-1.33 F149.81
G1 X31.24 Y-1.33 F123.37
G1 X31.38 Y-1.50
G1 X31.52 Y-1.67
G1 X30.58 Y-6.58 F149.81
G1 X29.63 Y-11.49 F176.25
G1 X28.68 Y-16.40
G1 X27.74 Y-21.31
G1 X26.79 Y-26.22
G1 X25.84 Y-31.13
G1 X25.78 Y-31.42 F167.44
G1 X24.84 Y-36.33 F176.25
G1 X23.89 Y-41.24
G1 X22.94 Y-46.15
G1 X22.00 Y-51.06
G1 X21.05 Y-55.97 F149.81
G1 X20.10 Y-60.88 F123.37
G1 X20.04 Y-61.18
G1 X19.99 Y-61.26
G1 X19.94 Y-61.34
G1 X15.74 Y-64.06 F149.81
G1 X11.98 Y-66.49
G1 X7.79 Y-69.21 F114.56
G1 X4.03 Y-71.65 F79.31
G1 X3.78 Y-71.51 F114.56
G1 X3.53 Y-71.38 F88.13
G1 X3.53 Y-71.38
G1 X3.53 Y-71.38
G4 S1.
M9
G4 S1.
M5
G4 S1.
G0 X103.65 Y-221.66
M3
M8
G4 S3.33
G1 X103.65 Y-216.66
G1 X103.65 Y-211.66 F176.25
G1 X103.65 Y-206.66
G1 X103.65 Y-201.66
G1 X103.65 Y-196.66
G1 X103.65 Y-191.66
G1 X103.65 Y-186.77
G1 X103.65 Y-181.77
G1 X103.65 Y-176.77
G1 X103.65 Y-171.77
G1 X103.65 Y-166.77
G1 X103.65 Y-161.77
G1 X103.65 Y-156.77 F149.81
G1 X103.65 Y-151.89 F123.37
G1 X103.79 Y-151.75
G1 X103.93 Y-151.61
G1 X108.93 Y-151.61 F149.81
G1 X113.93 Y-151.61 F176.25
G1 X117.64 Y-151.61
G1 X122.64 Y-151.61
G1 X127.64 Y-151.61 F149.81
G1 X131.36 Y-151.61 F123.37
G1 X131.50 Y-151.78
G1 X131.64 Y-151.96
G1 X130.70 Y-156.87 F149.81
G1 X129.75 Y-161.77 F176.25
G1 X128.80 Y-166.68
G1 X127.86 Y-171.59
G1 X126.91 Y-176.50
G1 X125.96 Y-181.41
G1 X125.90 Y-181.71 F167.44
G1 X124.96 Y-186.62 F176.25
G1 X124.01 Y-191.52
G1 X123.06 Y-196.43
G1 X122.12 Y-201.34
G1 X121.17 Y-206.25 F149.81
G1 X120.22 Y-211.16 F123.37
G1 X120.17 Y-211.46
G1 X120.11 Y-211.54
G1 X120.06 Y-211.62
G1 X115.86 Y-214.34 F149.81
G1 X112.10 Y-216.77
G1 X107.91 Y-219.49 F114.56
G1 X104.15 Y-221.93 F132.19
G1 X103.90 Y-221.79 F88.13
G1 X103.65 Y-221.66
G1 X103.65 Y-221.66
G4 S1.
M9
G4 S1.
M5
G4 S1.
G0 X151.00 Y-152.03
M3
M8
G4 S3.33
G1 X151.00 Y-157.03
G1 X151.00 Y-162.03 F176.25
G1 X151.00 Y-167.03
G1 X151.00 Y-172.03
G1 X151.00 Y-177.03
G1 X151.00 Y-182.03
G1 X151.00 Y-186.92
G1 X151.00 Y-191.92
G1 X151.00 Y-196.92
G1 X151.00 Y-201.92
G1 X151.00 Y-206.92
G1 X151.00 Y-211.92
G1 X151.00 Y-216.92 F149.81
G1 X151.00 Y-221.80 F123.37
G1 X150.86 Y-221.94
G1 X150.72 Y-222.08
G1 X145.72 Y-222.08 F149.81
G1 X140.72 Y-222.08 F176.25
G1 X137.01 Y-222.08
G1 X132.01 Y-222.08
G1 X127.01 Y-222.08 F149.81
G1 X123.30 Y-222.08 F123.37
G1 X123.15 Y-221.91
G1 X123.01 Y-221.73
G1 X123.96 Y-216.82 F149.81
G1 X124.90 Y-211.92 F176.25
G1 X125.85 Y-207.01
G1 X126.80 Y-202.10
G1 X127.74 Y-197.19
G1 X128.69 Y-192.28
G1 X128.75 Y-191.98 F167.44
G1 X129.69 Y-187.07 F176.25
G1 X130.64 Y-182.16
G1 X131.59 Y-177.26
G1 X132.54 Y-172.35
G1 X133.48 Y-167.44 F149.81
G1 X134.43 Y-162.53 F123.37
G1 X134.49 Y-162.23
G1 X134.54 Y-162.15
G1 X134.60 Y-162.07
G1 X138.79 Y-159.35 F149.81
G1 X142.55 Y-156.92
G1 X146.74 Y-154.20 F114.56
G1 X150.50 Y-151.76 F132.19
G1 X150.75 Y-151.90 F88.13
G1 X151.00 Y-152.03
G1 X151.00 Y-152.03
G4 S1.
M9
G4 S1.
M5
G4 S1.
G0 X156.26 Y-222.14
M3
M8
G4 S3.33
G1 X156.26 Y-217.14
G1 X156.26 Y-212.14 F176.25
G1 X156.26 Y-207.14
G1 X156.26 Y-202.14
G1 X156.26 Y-197.14
G1 X156.26 Y-192.14
G1 X156.26 Y-187.26
G1 X156.26 Y-182.26
G1 X156.26 Y-177.26
G1 X156.26 Y-172.26
G1 X156.26 Y-167.26
G1 X156.26 Y-162.26
G1 X156.26 Y-157.26 F149.81
G1 X156.26 Y-152.37 F123.37
G1 X156.40 Y-152.23
G1 X156.54 Y-152.09
G1 X161.54 Y-152.09 F149.81
G1 X166.54 Y-152.09 F176.25
G1 X170.26 Y-152.09
G1 X175.26 Y-152.09
G1 X180.26 Y-152.09 F149.81
G1 X183.97 Y-152.09 F123.37
G1 X184.11 Y-152.27
G1 X184.26 Y-152.44
G1 X183.31 Y-157.35 F149.81
G1 X182.36 Y-162.26 F176.25
G1 X181.42 Y-167.17
G1 X180.47 Y-172.08
G1 X179.52 Y-176.99
G1 X178.57 Y-181.90
G1 X178.52 Y-182.19 F167.44
G1 X177.57 Y-187.10 F176.25
G1 X176.62 Y-192.01
G1 X175.68 Y-196.92
G1 X174.73 Y-201.83
G1 X173.78 Y-206.74 F149.81
G1 X172.83 Y-211.65 F123.37
G1 X172.78 Y-211.94
G1 X172.72 Y-212.02
G1 X172.67 Y-212.11
G1 X168.47 Y-214.83 F149.81
G1 X164.72 Y-217.26
G1 X160.52 Y-219.98 F114.56
G1 X156.76 Y-222.42 F132.19
G1 X156.51 Y-222.28 F88.13
G1 X156.26 Y-222.14
G1 X156.26 Y-222.14
G4 S1.
M9
G4 S1.
M5
G4 S1.
G0 X3.79 Y-144.39
M3
M8
G4 S3.33
G1 X3.79 Y-139.39
G1 X3.79 Y-134.39 F176.25
G1 X3.79 Y-129.39
G1 X3.79 Y-124.39
G1 X3.79 Y-119.39
G1 X3.79 Y-114.39
G1 X3.79 Y-109.51
G1 X3.79 Y-104.51
G1 X3.79 Y-99.51
G1 X3.79 Y-94.51
G1 X3.79 Y-89.51
G1 X3.79 Y-84.51
G1 X3.79 Y-79.51 F149.81
G1 X3.79 Y-74.62 F123.37
G1 X3.93 Y-74.48
G1 X4.07 Y-74.34
G1 X9.07 Y-74.34 F149.81
G1 X14.07 Y-74.34 F176.25
G1 X17.78 Y-74.34
G1 X22.78 Y-74.34
G1 X27.78 Y-74.34 F149.81
G1 X31.50 Y-74.34 F123.37
G1 X31.64 Y-74.52
G1 X31.78 Y-74.69
G1 X30.84 Y-79.60 F149.81
G1 X29.89 Y-84.51 F176.25
G1 X28.94 Y-89.42
G1 X27.99 Y-94.33
G1 X27.05 Y-99.24
G1 X26.10 Y-104.15
G1 X26.04 Y-104.44 F167.44
G1 X25.10 Y-109.35 F176.25
G1 X24.15 Y-114.26
G1 X23.20 Y-119.17
G1 X22.26 Y-124.08
G1 X21.31 Y-128.99 F149.81
G1 X20.36 Y-133.90 F123.37
G1 X20.30 Y-134.19
G1 X20.25 Y-134.27
G1 X20.20 Y-134.35
G1 X16.00 Y-137.07 F149.81
G1 X12.24 Y-139.51
G1 X8.05 Y-142.23 F114.56
G1 X4.29 Y-144.66 F132.19
G1 X4.04 Y-144.53 F88.13
G1 X3.79 Y-144.39
G1 X3.79 Y-144.39
G4 S1.
M9
G4 S1.
M5
G4 S1.
G0 X48.73 Y-71.88
M3
M8
G4 S3.33
G1 X48.73 Y-76.88
G1 X48.73 Y-81.88 F176.25
G1 X48.73 Y-86.88
G1 X48.73 Y-91.88
G1 X48.73 Y-96.88
G1 X48.73 Y-101.88
G1 X48.73 Y-106.77
G1 X48.73 Y-111.77
G1 X48.73 Y-116.77
G1 X48.73 Y-121.77
G1 X48.73 Y-126.77
G1 X48.73 Y-131.77
G1 X48.73 Y-136.77 F149.81
G1 X48.73 Y-141.65 F123.37
G1 X48.59 Y-141.79
G1 X48.45 Y-141.93
G1 X43.45 Y-141.93 F149.81
G1 X38.45 Y-141.93 F176.25
G1 X34.73 Y-141.93
G1 X29.73 Y-141.93
G1 X24.73 Y-141.93 F149.81
G1 X21.02 Y-141.93 F123.37
G1 X20.88 Y-141.76
G1 X20.73 Y-141.59
G1 X21.68 Y-136.68 F149.81
G1 X22.63 Y-131.77 F176.25
G1 X23.58 Y-126.86
G1 X24.52 Y-121.95
G1 X25.47 Y-117.04
G1 X26.42 Y-112.13
G1 X26.47 Y-111.83 F167.44
G1 X27.42 Y-106.93 F176.25
G1 X28.37 Y-102.02
G1 X29.31 Y-97.11
G1 X30.26 Y-92.20
G1 X31.21 Y-87.29 F149.81
G1 X32.16 Y-82.38 F123.37
G1 X32.21 Y-82.08
G1 X32.27 Y-82.00
G1 X32.32 Y-81.92
G1 X36.52 Y-79.20 F149.81
G1 X40.27 Y-76.77
G1 X44.47 Y-74.05 F114.56
G1 X48.23 Y-71.61 F132.19
G1 X48.48 Y-71.75 F88.13
G1 X48.73 Y-71.88
G1 X48.73 Y-71.88
G4 S1.
M9
G4 S1.
M5
G4 S1.
G0 X52.52 Y-144.87
M3
M8
G4 S3.33
G1 X52.52 Y-139.87
G1 X52.52 Y-134.87 F176.25
G1 X52.52 Y-129.87
G1 X52.52 Y-124.87
G1 X52.52 Y-119.87
G1 X52.52 Y-114.87
G1 X52.52 Y-109.99
G1 X52.52 Y-104.99
G1 X52.52 Y-99.99
G1 X52.52 Y-94.99
G1 X52.52 Y-89.99
G1 X52.52 Y-84.99
G1 X52.52 Y-79.99 F149.81
G1 X52.52 Y-75.10 F123.37
G1 X52.66 Y-74.96
G1 X52.80 Y-74.82
G1 X57.80 Y-74.82 F149.81
G1 X62.80 Y-74.82 F176.25
G1 X66.52 Y-74.82
G1 X71.52 Y-74.82
G1 X76.52 Y-74.82 F149.81
G1 X80.23 Y-74.82 F123.37
G1 X80.37 Y-75.00
G1 X80.52 Y-75.17
G1 X79.57 Y-80.08 F149.81
G1 X78.62 Y-84.99 F176.25
G1 X77.68 Y-89.90
G1 X76.73 Y-94.81
G1 X75.78 Y-99.72
G1 X74.83 Y-104.63
G1 X74.78 Y-104.92 F167.44
G1 X73.83 Y-109.83 F176.25
G1 X72.88 Y-114.74
G1 X71.94 Y-119.65
G1 X70.99 Y-124.56
G1 X70.04 Y-129.47 F149.81
G1 X69.10 Y-134.38 F123.37
G1 X69.04 Y-134.67
G1 X68.98 Y-134.75
G1 X68.93 Y-134.83
G1 X64.73 Y-137.55 F149.81
G1 X60.98 Y-139.99
G1 X56.78 Y-142.71 F114.56
G1 X53.02 Y-145.14 F132.19
G1 X52.77 Y-145.01 F88.13
G1 X52.52 Y-144.87
G1 X52.52 Y-144.87
G4 S1.
M9
G4 S1.
M5
G4 S1.
G0 X98.90 Y-74.76
M3
M8
G4 S3.33
G1 X98.90 Y-79.76
G1 X98.90 Y-84.76 F176.25
G1 X98.90 Y-89.76
G1 X98.90 Y-94.76
G1 X98.90 Y-99.76
G1 X98.90 Y-104.76
G1 X98.90 Y-109.65
G1 X98.90 Y-114.65
G1 X98.90 Y-119.65
G1 X98.90 Y-124.65
G1 X98.90 Y-129.65
G1 X98.90 Y-134.65
G1 X98.90 Y-139.65 F149.81
G1 X98.90 Y-144.53 F123.37
G1 X98.76 Y-144.67
G1 X98.62 Y-144.81
G1 X93.62 Y-144.81 F149.81
G1 X88.62 Y-144.81 F176.25
G1 X84.91 Y-144.81
G1 X79.91 Y-144.81
G1 X74.91 Y-144.81 F149.81
G1 X71.19 Y-144.81 F123.37
G1 X71.05 Y-144.64
G1 X70.91 Y-144.46
G1 X71.85 Y-139.55 F149.81
G1 X72.80 Y-134.65 F176.25
G1 X73.75 Y-129.74
G1 X74.70 Y-124.83
G1 X75.64 Y-119.92
G1 X76.59 Y-115.01
G1 X76.65 Y-114.71 F167.44
G1 X77.59 Y-109.80 F176.25
G1 X78.54 Y-104.89
G1 X79.49 Y-99.99
G1 X80.43 Y-95.08
G1 X81.38 Y-90.17 F149.81
G1 X82.33 Y-85.26 F123.37
G1 X82.39 Y-84.96
G1 X82.44 Y-84.88
G1 X82.49 Y-84.80
G1 X86.69 Y-82.08 F149.81
G1 X90.45 Y-79.65
G1 X94.64 Y-76.93 F114.56
G1 X98.40 Y-74.49 F132.19
G1 X98.65 Y-74.63 F88.13
G1 X98.90 Y-74.76
G1 X98.90 Y-74.76
G4 S1.
M9
G4 S1.
M5
G4 S1.
G0 X101.26 Y-147.27
M3
M8
G4 S3.33
G1 X101.26 Y-142.27
G1 X101.26 Y-137.27 F176.25
G1 X101.26 Y-132.27
G1 X101.26 Y-127.27
G1 X101.26 Y-122.27
G1 X101.26 Y-117.27
G1 X101.26 Y-112.39
G1 X101.26 Y-107.39
G1 X101.26 Y-102.39
G1 X101.26 Y-97.39
G1 X101.26 Y-92.39
G1 X101.26 Y-87.39
G1 X101.26 Y-82.39 F149.81
G1 X101.26 Y-77.50 F123.37
G1 X101.40 Y-77.36
G1 X101.54 Y-77.22
G1 X106.54 Y-77.22 F149.81
G1 X111.54 Y-77.22 F176.25
G1 X115.25 Y-77.22
G1 X120.25 Y-77.22
G1 X125.25 Y-77.22 F149.81
G1 X128.96 Y-77.22 F123.37
G1 X129.11 Y-77.39
G1 X129.25 Y-77.57
G1 X128.30 Y-82.48 F149.81
G1 X127.36 Y-87.39 F176.25
G1 X126.41 Y-92.30
G1 X125.46 Y-97.21
G1 X124.51 Y-102.12
G1 X123.57 Y-107.03
G1 X123.51 Y-107.32 F167.44
G1 X122.56 Y-112.23 F176.25
G1 X121.62 Y-117.14
G1 X120.67 Y-122.05
G1 X119.72 Y-126.96
G1 X118.78 Y-131.87 F149.81
G1 X117.83 Y-136.78 F123.37
G1 X117.77 Y-137.07
G1 X117.72 Y-137.15
G1 X117.66 Y-137.23
G1 X113.47 Y-139.95 F149.81
G1 X109.71 Y-142.39
G1 X105.51 Y-145.11 F114.56
G1 X101.76 Y-147.54 F132.19
G1 X101.51 Y-147.41 F88.13
G1 X101.26 Y-147.27
G1 X101.26 Y-147.27
G4 S1.
M9
G4 S1.
M5
G4 S1.
G0 X146.68 Y-74.28
M3
M8
G4 S3.33
G1 X146.68 Y-79.28
G1 X146.68 Y-84.28 F176.25
G1 X146.68 Y-89.28
G1 X146.68 Y-94.28
G1 X146.68 Y-99.28
G1 X146.68 Y-104.28
G1 X146.68 Y-109.17
G1 X146.68 Y-114.17
G1 X146.68 Y-119.17
G1 X146.68 Y-124.17
G1 X146.68 Y-129.17
G1 X146.68 Y-134.17
G1 X146.68 Y-139.17 F149.81
G1 X146.68 Y-144.05 F123.37
G1 X146.53 Y-144.19
G1 X146.39 Y-144.33
G1 X141.39 Y-144.33 F149.81
G1 X136.39 Y-144.33 F176.25
G1 X132.68 Y-144.33
G1 X127.68 Y-144.33
G1 X122.68 Y-144.33 F149.81
G1 X118.97 Y-144.33 F123.37
G1 X118.82 Y-144.16
G1 X118.68 Y-143.98
G1 X119.63 Y-139.07 F149.81
G1 X120.58 Y-134.17 F176.25
G1 X121.52 Y-129.26
G1 X122.47 Y-124.35
G1 X123.42 Y-119.44
G1 X124.36 Y-114.53
G1 X124.42 Y-114.23 F167.44
G1 X125.37 Y-109.32 F176.25
G1 X126.31 Y-104.41
G1 X127.26 Y-99.51
G1 X128.21 Y-94.60
G1 X129.16 Y-89.69 F149.81
G1 X130.10 Y-84.78 F123.37
G1 X130.16 Y-84.48
G1 X130.21 Y-84.40
G1 X130.27 Y-84.32
G1 X134.46 Y-81.60 F149.81
G1 X138.22 Y-79.17
G1 X142.42 Y-76.45 F114.56
G1 X146.17 Y-74.01 F132.19
G1 X146.42 Y-74.15 F88.13
G1 X146.68 Y-74.28
G1 X146.68 Y-74.28
G4 S1.
M9
G4 S1.
M5
G4 S1.
G0 X151.43 Y-147.75
M3
M8
G4 S3.33
G1 X151.43 Y-142.75
G1 X151.43 Y-137.75 F176.25
G1 X151.43 Y-132.75
G1 X151.43 Y-127.75
G1 X151.43 Y-122.75
G1 X151.43 Y-117.75
G1 X151.43 Y-112.87
G1 X151.43 Y-107.87
G1 X151.43 Y-102.87
G1 X151.43 Y-97.87
G1 X151.43 Y-92.87
G1 X151.43 Y-87.87
G1 X151.43 Y-82.87 F149.81
G1 X151.43 Y-77.98 F123.37
G1 X151.57 Y-77.84
G1 X151.71 Y-77.70
G1 X156.71 Y-77.70 F149.81
G1 X161.71 Y-77.70 F176.25
G1 X165.42 Y-77.70
G1 X170.42 Y-77.70
G1 X175.42 Y-77.70 F149.81
G1 X179.14 Y-77.70 F123.37
G1 X179.28 Y-77.87
G1 X179.42 Y-78.05
G1 X178.48 Y-82.96 F149.81
G1 X177.53 Y-87.87 F176.25
G1 X176.58 Y-92.78
G1 X175.64 Y-97.69
G1 X174.69 Y-102.60
G1 X173.74 Y-107.51
G1 X173.68 Y-107.80 F167.44
G1 X172.74 Y-112.71 F176.25
G1 X171.79 Y-117.62
G1 X170.84 Y-122.53
G1 X169.90 Y-127.44
G1 X168.95 Y-132.35 F149.81
G1 X168.00 Y-137.26 F123.37
G1 X167.94 Y-137.55
G1 X167.89 Y-137.63
G1 X167.84 Y-137.71
G1 X163.64 Y-140.43 F149.81
G1 X159.88 Y-142.87
G1 X155.69 Y-145.59 F114.56
G1 X151.93 Y-148.02 F132.19
G1 X151.68 Y-147.89 F88.13
G1 X151.43 Y-147.75
G1 X151.43 Y-147.75
G4 S1.
M9
G4 S1.
M5
G4 S1.
G0 X197.81 Y-74.76
M3
M8
G4 S3.33
G1 X197.81 Y-79.76
G1 X197.81 Y-84.76 F176.25
G1 X197.81 Y-89.76
G1 X197.81 Y-94.76
G1 X197.81 Y-99.76
G1 X197.81 Y-104.76
G1 X197.81 Y-109.65
G1 X197.81 Y-114.65
G1 X197.81 Y-119.65
G1 X197.81 Y-124.65
G1 X197.81 Y-129.65
G1 X197.81 Y-134.65
G1 X197.81 Y-139.65 F149.81
G1 X197.81 Y-144.53 F123.37
G1 X197.67 Y-144.67
G1 X197.53 Y-144.81
G1 X192.53 Y-144.81 F149.81
G1 X187.53 Y-144.81 F176.25
G1 X183.81 Y-144.81
G1 X178.81 Y-144.81
G1 X173.81 Y-144.81 F149.81
G1 X170.10 Y-144.81 F123.37
G1 X169.96 Y-144.64
G1 X169.81 Y-144.46
G1 X170.76 Y-139.55 F149.81
G1 X171.71 Y-134.65 F176.25
G1 X172.65 Y-129.74
G1 X173.60 Y-124.83
G1 X174.55 Y-119.92
G1 X175.50 Y-115.01
G1 X175.55 Y-114.71 F167.44
G1 X176.50 Y-109.80 F176.25
G1 X177.45 Y-104.89
G1 X178.39 Y-99.99
G1 X179.34 Y-95.08
G1 X180.29 Y-90.17 F149.81
G1 X181.24 Y-85.26 F123.37
G1 X181.29 Y-84.96
G1 X181.35 Y-84.88
G1 X181.40 Y-84.80
G1 X185.60 Y-82.08 F149.81
G1 X189.35 Y-79.65
G1 X193.55 Y-76.93 F114.56
G1 X197.31 Y-74.49 F132.19
G1 X197.56 Y-74.63 F88.13
G1 X197.81 Y-74.76
G1 X197.81 Y-74.76
G4 S1.
M9
G4 S1.
M5
G4 S1.
G0 X202.56 Y-144.87
M3
M8
G4 S3.33
G1 X202.56 Y-139.87
G1 X202.56 Y-134.87 F176.25
G1 X202.56 Y-129.87
G1 X202.56 Y-124.87
G1 X202.56 Y-119.87
G1 X202.56 Y-114.87
G1 X202.56 Y-109.99
G1 X202.56 Y-104.99
G1 X202.56 Y-99.99
G1 X202.56 Y-94.99
G1 X202.56 Y-89.99
G1 X202.56 Y-84.99
G1 X202.56 Y-79.99 F149.81
G1 X202.56 Y-75.10 F123.37
G1 X202.70 Y-74.96
G1 X202.84 Y-74.82
G1 X207.84 Y-74.82 F149.81
G1 X212.84 Y-74.82 F176.25
G1 X216.56 Y-74.82
G1 X221.56 Y-74.82
G1 X226.56 Y-74.82 F149.81
G1 X230.27 Y-74.82 F123.37
G1 X230.41 Y-75.00
G1 X230.56 Y-75.17
G1 X229.61 Y-80.08 F149.81
G1 X228.66 Y-84.99 F176.25
G1 X227.71 Y-89.90
G1 X226.77 Y-94.81
G1 X225.82 Y-99.72
G1 X224.87 Y-104.63
G1 X224.82 Y-104.92 F167.44
G1 X223.87 Y-109.83 F176.25
G1 X222.92 Y-114.74
G1 X221.98 Y-119.65
G1 X221.03 Y-124.56
G1 X220.08 Y-129.47 F149.81
G1 X219.13 Y-134.38 F123.37
G1 X219.08 Y-134.67
G1 X219.02 Y-134.75
G1 X218.97 Y-134.83
G1 X214.77 Y-137.55 F149.81
G1 X211.02 Y-139.99
G1 X206.82 Y-142.71 F114.56
G1 X203.06 Y-145.14 F132.19
G1 X202.81 Y-145.01 F88.13
G1 X202.56 Y-144.87
G1 X202.56 Y-144.87
G4 S1.
M9
G4 S1.
M5
G4 S1.
G0 X249.42 Y-73.80
M3
M8
G4 S3.33
G1 X249.42 Y-78.80
G1 X249.42 Y-83.80 F176.25
G1 X249.42 Y-88.80
G1 X249.42 Y-93.80
G1 X249.42 Y-98.80
G1 X249.42 Y-103.80
G1 X249.42 Y-108.69
G1 X249.42 Y-113.69
G1 X249.42 Y-118.69
G1 X249.42 Y-123.69
G1 X249.42 Y-128.69
G1 X249.42 Y-133.69
G1 X249.42 Y-138.69 F149.81
G1 X249.42 Y-143.57 F123.37
G1 X249.28 Y-143.71
G1 X249.14 Y-143.85
G1 X244.14 Y-143.85 F149.81
G1 X239.14 Y-143.85 F176.25
G1 X235.43 Y-143.85
G1 X230.43 Y-143.85
G1 X225.43 Y-143.85 F149.81
G1 X221.71 Y-143.85 F123.37
G1 X221.57 Y-143.68
G1 X221.43 Y-143.50
G1 X222.37 Y-138.60 F149.81
G1 X223.32 Y-133.69 F176.25
G1 X224.27 Y-128.78
G1 X225.21 Y-123.87
G1 X226.16 Y-118.96
G1 X227.11 Y-114.05
G1 X227.17 Y-113.75 F167.44
G1 X228.11 Y-108.84 F176.25
G1 X229.06 Y-103.94
G1 X230.01 Y-99.03
G1 X230.95 Y-94.12
G1 X231.90 Y-89.21 F149.81
G1 X232.85 Y-84.30 F123.37
G1 X232.90 Y-84.00
G1 X232.96 Y-83.92
G1 X233.01 Y-83.84
G1 X237.21 Y-81.12 F149.81
G1 X240.97 Y-78.69
G1 X245.16 Y-75.97 F114.56
G1 X248.92 Y-73.53 F132.19
G1 X249.17 Y-73.67 F88.13
G1 X249.42 Y-73.80
G1 X249.42 Y-73.80
G4 S1.
M9
G4 S1.
M5
G4 S1.
G0 X252.73 Y-144.87
M3
M8
G4 S3.33
G1 X252.73 Y-139.87
G1 X252.73 Y-134.87 F176.25
G1 X252.73 Y-129.87
G1 X252.73 Y-124.87
G1 X252.73 Y-119.87
G1 X252.73 Y-114.87
G1 X252.73 Y-109.99
G1 X252.73 Y-104.99
G1 X252.73 Y-99.99
G1 X252.73 Y-94.99
G1 X252.73 Y-89.99
G1 X252.73 Y-84.99
G1 X252.73 Y-79.99 F149.81
G1 X252.73 Y-75.10 F123.37
G1 X252.88 Y-74.96
G1 X253.02 Y-74.82
G1 X258.02 Y-74.82 F149.81
G1 X263.02 Y-74.82 F176.25
G1 X266.73 Y-74.82
G1 X271.73 Y-74.82
G1 X276.73 Y-74.82 F149.81
G1 X280.44 Y-74.82 F123.37
G1 X280.58 Y-75.00
G1 X280.73 Y-75.17
G1 X279.78 Y-80.08 F149.81
G1 X278.83 Y-84.99 F176.25
G1 X277.89 Y-89.90
G1 X276.94 Y-94.81
G1 X275.99 Y-99.72
G1 X275.05 Y-104.63
G1 X274.99 Y-104.92 F167.44
G1 X274.04 Y-109.83 F176.25
G1 X273.10 Y-114.74
G1 X272.15 Y-119.65
G1 X271.20 Y-124.56
G1 X270.25 Y-129.47 F149.81
G1 X269.31 Y-134.38 F123.37
G1 X269.25 Y-134.67
G1 X269.20 Y-134.75
G1 X269.14 Y-134.83
G1 X264.95 Y-137.55 F149.81
G1 X261.19 Y-139.99
G1 X256.99 Y-142.71 F114.56
G1 X253.24 Y-145.14 F132.19
G1 X252.99 Y-145.01 F88.13
G1 X252.73 Y-144.87
G1 X252.73 Y-144.87
G4 S1.
M9
G4 S1.
M5
G4 S1.
G0 X341.81 Y-2.79
M3
M8
G4 S3.33
G1 X341.81 Y-7.79
G1 X341.81 Y-12.79 F176.25
G1 X341.81 Y-17.79
G1 X341.81 Y-22.79
G1 X341.81 Y-27.79
G1 X341.81 Y-32.79
G1 X341.81 Y-37.68
G1 X341.81 Y-42.68
G1 X341.81 Y-47.68
G1 X341.81 Y-52.68
G1 X341.81 Y-57.68
G1 X341.81 Y-62.68
G1 X341.81 Y-67.68 F149.81
G1 X341.81 Y-72.56 F123.37
G1 X341.67 Y-72.70
G1 X341.53 Y-72.84
G1 X336.53 Y-72.84 F149.81
G1 X331.53 Y-72.84 F176.25
G1 X327.82 Y-72.84
G1 X322.82 Y-72.84
G1 X317.82 Y-72.84 F149.81
G1 X314.11 Y-72.84 F123.37
G1 X313.96 Y-72.67
G1 X313.82 Y-72.50
G1 X314.77 Y-67.59 F149.81
G1 X315.71 Y-62.68 F176.25
G1 X316.66 Y-57.77
G1 X317.61 Y-52.86
G1 X318.56 Y-47.95
G1 X319.50 Y-43.04
G1 X319.56 Y-42.75 F167.44
G1 X320.51 Y-37.84 F176.25
G1 X321.45 Y-32.93
G1 X322.40 Y-28.02
G1 X323.35 Y-23.11
G1 X324.29 Y-18.20 F149.81
G1 X325.24 Y-13.29 F123.37
G1 X325.30 Y-12.99
G1 X325.35 Y-12.91
G1 X325.41 Y-12.83
G1 X329.60 Y-10.11 F149.81
G1 X333.36 Y-7.68
G1 X337.56 Y-4.96 F114.56
G1 X341.31 Y-2.52 F132.19
G1 X341.56 Y-2.66 F88.13
G1 X341.81 Y-2.79
G1 X341.81 Y-2.79
G4 S1.
M9
G4 S1.
M5
G4 S1.
G0 X298.56 Y-73.68
M3
M8
G4 S3.33
G1 X298.56 Y-78.68
G1 X298.56 Y-83.68 F176.25
G1 X298.56 Y-88.68
G1 X298.56 Y-93.68
G1 X298.56 Y-98.68
G1 X298.56 Y-103.68
G1 X298.56 Y-108.57
G1 X298.56 Y-113.57
G1 X298.56 Y-118.57
G1 X298.56 Y-123.57
G1 X298.56 Y-128.57
G1 X298.56 Y-133.57
G1 X298.56 Y-138.57 F149.81
G1 X298.56 Y-143.45 F123.37
G1 X298.42 Y-143.59
G1 X298.27 Y-143.73
G1 X293.27 Y-143.73 F149.81
G1 X288.27 Y-143.73 F176.25
G1 X284.56 Y-143.73
G1 X279.56 Y-143.73
G1 X274.56 Y-143.73 F149.81
G1 X270.85 Y-143.73 F123.37
G1 X270.71 Y-143.56
G1 X270.56 Y-143.38
G1 X271.51 Y-138.47 F149.81
G1 X272.46 Y-133.56 F176.25
G1 X273.40 Y-128.65
G1 X274.35 Y-123.75
G1 X275.30 Y-118.84
G1 X276.24 Y-113.93
G1 X276.30 Y-113.63 F167.44
G1 X277.25 Y-108.72 F176.25
G1 X278.20 Y-103.81
G1 X279.14 Y-98.90
G1 X280.09 Y-93.99
G1 X281.04 Y-89.09 F149.81
G1 X281.98 Y-84.18 F123.37
G1 X282.04 Y-83.88
G1 X282.09 Y-83.80
G1 X282.15 Y-83.72
G1 X286.35 Y-81.00 F149.81
G1 X290.10 Y-78.56
G1 X294.30 Y-75.84 F114.56
G1 X298.05 Y-73.41 F132.19
G1 X298.30 Y-73.55 F88.13
G1 X298.56 Y-73.68
G1 X298.56 Y-73.68
G4 S1.
M9
G4 S1.
M5
G4 S1.
G0 X301.10 Y-146.67
M3
M8
G4 S3.33
G1 X301.10 Y-141.67
G1 X301.10 Y-136.67 F176.25
G1 X301.10 Y-131.67
G1 X301.10 Y-126.67
G1 X301.10 Y-121.67
G1 X301.10 Y-116.67
G1 X301.10 Y-111.79
G1 X301.10 Y-106.79
G1 X301.10 Y-101.79
G1 X301.10 Y-96.79
G1 X301.10 Y-91.79
G1 X301.10 Y-86.79
G1 X301.10 Y-81.79 F149.81
G1 X301.10 Y-76.91 F123.37
G1 X301.24 Y-76.76
G1 X301.39 Y-76.62
G1 X306.39 Y-76.62 F149.81
G1 X311.39 Y-76.62 F176.25
G1 X315.10 Y-76.62
G1 X320.10 Y-76.62
G1 X325.10 Y-76.62 F149.81
G1 X328.81 Y-76.62 F123.37
G1 X328.95 Y-76.80
G1 X329.10 Y-76.97
G1 X328.15 Y-81.88 F149.81
G1 X327.20 Y-86.79 F176.25
G1 X326.26 Y-91.70
G1 X325.31 Y-96.61
G1 X324.36 Y-101.52
G1 X323.42 Y-106.43
G1 X323.36 Y-106.72 F167.44
G1 X322.41 Y-111.63 F176.25
G1 X321.46 Y-116.54
G1 X320.52 Y-121.45
G1 X319.57 Y-126.36
G1 X318.62 Y-131.27 F149.81
G1 X317.68 Y-136.18 F123.37
G1 X317.62 Y-136.47
G1 X317.56 Y-136.55
G1 X317.51 Y-136.64
G1 X313.31 Y-139.36 F149.81
G1 X309.56 Y-141.79
G1 X305.36 Y-144.51 F114.56
G1 X301.61 Y-146.95 F132.19
G1 X301.35 Y-146.81 F88.13
G1 X301.10 Y-146.67
G1 X301.10 Y-146.67
G4 S1.
M9
G4 S1.
M5
G4 S1.
G0 X345.77 Y-79.45
M3
M8
G4 S3.33
G1 X345.77 Y-84.45
G1 X345.77 Y-89.45 F176.25
G1 X345.77 Y-94.45
G1 X345.77 Y-99.45
G1 X345.77 Y-104.45
G1 X345.77 Y-109.45
G1 X345.77 Y-114.34
G1 X345.77 Y-119.34
G1 X345.77 Y-124.34
G1 X345.77 Y-129.34
G1 X345.77 Y-134.34
G1 X345.77 Y-139.34
G1 X345.77 Y-144.34 F149.81
G1 X345.77 Y-149.22 F123.37
G1 X345.63 Y-149.36
G1 X345.49 Y-149.50
G1 X340.49 Y-149.50 F149.81
G1 X335.49 Y-149.50 F176.25
G1 X331.78 Y-149.50
G1 X326.78 Y-149.50
G1 X321.78 Y-149.50 F149.81
G1 X318.06 Y-149.50 F123.37
G1 X317.92 Y-149.33
G1 X317.78 Y-149.15
G1 X318.72 Y-144.24 F149.81
G1 X319.67 Y-139.33 F176.25
G1 X320.62 Y-134.42
G1 X321.56 Y-129.51
G1 X322.51 Y-124.61
G1 X323.46 Y-119.70
G1 X323.52 Y-119.40 F167.44
G1 X324.46 Y-114.49 F176.25
G1 X325.41 Y-109.58
G1 X326.36 Y-104.67
G1 X327.30 Y-99.76
G1 X328.25 Y-94.85 F149.81
G1 X329.20 Y-89.95 F123.37
G1 X329.25 Y-89.65
G1 X329.31 Y-89.57
G1 X329.36 Y-89.49
G1 X333.56 Y-86.77 F149.81
G1 X337.32 Y-84.33
G1 X341.51 Y-81.61 F114.56
G1 X345.27 Y-79.18 F132.19
G1 X345.52 Y-79.31 F88.13
G1 X345.77 Y-79.45
G1 X345.77 Y-79.45
G4 S1.
M9
G4 S1.
M5
G4 S1.
G0 X202.17 Y-150.93
M3
M8
G4 S3.33
G1 X202.17 Y-155.93
G1 X202.17 Y-160.93 F176.25
G1 X202.17 Y-165.93
G1 X202.17 Y-170.93
G1 X202.17 Y-175.93
G1 X202.17 Y-180.93
G1 X202.17 Y-185.81
G1 X202.17 Y-190.81
G1 X202.17 Y-195.81
G1 X202.17 Y-200.81
G1 X202.17 Y-205.81
G1 X202.17 Y-210.81
G1 X202.17 Y-215.81 F149.81
G1 X202.17 Y-220.69 F123.37
G1 X202.03 Y-220.84
G1 X201.89 Y-220.98
G1 X196.89 Y-220.98 F149.81
G1 X191.89 Y-220.98 F176.25
G1 X188.17 Y-220.98
G1 X183.17 Y-220.98
G1 X178.17 Y-220.98 F149.81
G1 X174.46 Y-220.98 F123.37
G1 X174.32 Y-220.80
G1 X174.17 Y-220.63
G1 X175.12 Y-215.72 F149.81
G1 X176.07 Y-210.81 F176.25
G1 X177.01 Y-205.90
G1 X177.96 Y-200.99
G1 X178.91 Y-196.08
G1 X179.86 Y-191.17
G1 X179.91 Y-190.88 F167.44
G1 X180.86 Y-185.97 F176.25
G1 X181.81 Y-181.06
G1 X182.75 Y-176.15
G1 X183.70 Y-171.24
G1 X184.65 Y-166.33 F149.81
G1 X185.59 Y-161.42 F123.37
G1 X185.65 Y-161.13
G1 X185.71 Y-161.04
G1 X185.76 Y-160.96
G1 X189.96 Y-158.24 F149.81
G1 X193.71 Y-155.81
G1 X197.91 Y-153.09 F114.56
G1 X201.67 Y-150.65 F132.19
G1 X201.92 Y-150.79 F88.13
G1 X202.17 Y-150.93
G1 X202.17 Y-150.93
G4 S1.
M9
G4 S1.
M5
G4 S1.
G0 X5.23 Y-215.12
M3
M8
G4 S3.33
G1 X5.23 Y-210.12
G1 X5.23 Y-205.12 F176.25
G1 X5.23 Y-200.12
G1 X5.23 Y-195.12
G1 X5.23 Y-190.12
G1 X5.23 Y-185.12
G1 X5.23 Y-180.24
G1 X5.23 Y-175.24
G1 X5.23 Y-170.24
G1 X5.23 Y-165.24
G1 X5.23 Y-160.24
G1 X5.23 Y-155.24
G1 X5.23 Y-150.24 F149.81
G1 X5.23 Y-145.35 F123.37
G1 X5.37 Y-145.21
G1 X5.51 Y-145.07
G1 X10.51 Y-145.07 F149.81
G1 X15.51 Y-145.07 F176.25
G1 X19.22 Y-145.07
G1 X24.22 Y-145.07
G1 X29.22 Y-145.07 F149.81
G1 X32.93 Y-145.07 F123.37
G1 X33.08 Y-145.25
G1 X33.22 Y-145.42
G1 X32.28 Y-150.33 F149.81
G1 X31.33 Y-155.24 F176.25
G1 X30.38 Y-160.15
G1 X29.43 Y-165.06
G1 X28.49 Y-169.97
G1 X27.54 Y-174.88
G1 X27.48 Y-175.17 F167.44
G1 X26.54 Y-180.08 F176.25
G1 X25.59 Y-184.99
G1 X24.64 Y-189.90
G1 X23.70 Y-194.81
G1 X22.75 Y-199.72 F149.81
G1 X21.80 Y-204.63 F123.37
G1 X21.74 Y-204.92
G1 X21.69 Y-205.00
G1 X21.63 Y-205.08
G1 X17.44 Y-207.80 F149.81
G1 X13.68 Y-210.24
G1 X9.49 Y-212.96 F114.56
G1 X5.73 Y-215.39 F132.19
G1 X5.48 Y-215.26 F88.13
G1 X5.23 Y-215.12
G1 X5.23 Y-215.12
G4 S1.
M9
G4 S1.
M5
G4 S1.
G0 X50.17 Y-145.49
M3
M8
G4 S3.33
G1 X50.17 Y-150.49
G1 X50.17 Y-155.49 F176.25
G1 X50.17 Y-160.49
G1 X50.17 Y-165.49
G1 X50.17 Y-170.49
G1 X50.17 Y-175.49
G1 X50.17 Y-180.38
G1 X50.17 Y-185.38
G1 X50.17 Y-190.38
G1 X50.17 Y-195.38
G1 X50.17 Y-200.38
G1 X50.17 Y-205.38
G1 X50.17 Y-210.38 F149.81
G1 X50.17 Y-215.26 F123.37
G1 X50.03 Y-215.40
G1 X49.89 Y-215.54
G1 X44.89 Y-215.54 F149.81
G1 X39.89 Y-215.54 F176.25
G1 X36.17 Y-215.54
G1 X31.17 Y-215.54
G1 X26.17 Y-215.54 F149.81
G1 X22.46 Y-215.54 F123.37
G1 X22.32 Y-215.37
G1 X22.17 Y-215.19
G1 X23.12 Y-210.28 F149.81
G1 X24.07 Y-205.38 F176.25
G1 X25.01 Y-200.47
G1 X25.96 Y-195.56
G1 X26.91 Y-190.65
G1 X27.86 Y-185.74
G1 X27.91 Y-185.44 F167.44
G1 X28.86 Y-180.53 F176.25
G1 X29.81 Y-175.62
G1 X30.75 Y-170.72
G1 X31.70 Y-165.81
G1 X32.65 Y-160.90 F149.81
G1 X33.60 Y-155.99 F123.37
G1 X33.65 Y-155.69
G1 X33.71 Y-155.61
G1 X33.76 Y-155.53
G1 X37.96 Y-152.81 F149.81
G1 X41.71 Y-150.38
G1 X45.91 Y-147.66 F114.56
G1 X49.67 Y-145.22 F132.19
G1 X49.92 Y-145.36 F88.13
G1 X50.17 Y-145.49
G1 X50.17 Y-145.49
G4 S1.
M9
G4 S1.
M5
G4 S1.
G0 X54.44 Y-218.00
M3
M8
G4 S3.33
G1 X54.44 Y-213.00
G1 X54.44 Y-208.00 F176.25
G1 X54.44 Y-203.00
G1 X54.44 Y-198.00
G1 X54.44 Y-193.00
G1 X54.44 Y-188.00
G1 X54.44 Y-183.12
G1 X54.44 Y-178.12
G1 X54.44 Y-173.12
G1 X54.44 Y-168.12
G1 X54.44 Y-163.12
G1 X54.44 Y-158.12
G1 X54.44 Y-153.12 F149.81
G1 X54.44 Y-148.23 F123.37
G1 X54.58 Y-148.09
G1 X54.72 Y-147.95
G1 X59.72 Y-147.95 F149.81
G1 X64.72 Y-147.95 F176.25
G1 X68.44 Y-147.95
G1 X73.44 Y-147.95
G1 X78.44 Y-147.95 F149.81
G1 X82.15 Y-147.95 F123.37
G1 X82.29 Y-148.12
G1 X82.44 Y-148.30
G1 X81.49 Y-153.21 F149.81
G1 X80.54 Y-158.12 F176.25
G1 X79.59 Y-163.03
G1 X78.65 Y-167.94
G1 X77.70 Y-172.85
G1 X76.75 Y-177.76
G1 X76.70 Y-178.05 F167.44
G1 X75.75 Y-182.96 F176.25
G1 X74.80 Y-187.87
G1 X73.86 Y-192.78
G1 X72.91 Y-197.69
G1 X71.96 Y-202.60 F149.81
G1 X71.01 Y-207.51 F123.37
G1 X70.96 Y-207.80
G1 X70.90 Y-207.88
G1 X70.85 Y-207.96
G1 X66.65 Y-210.68 F149.81
G1 X62.90 Y-213.12
G1 X58.70 Y-215.84 F114.56
G1 X54.94 Y-218.27 F132.19
G1 X54.69 Y-218.14 F88.13
G1 X54.44 Y-218.00
G1 X54.44 Y-218.00
G4 S1.
M9
G4 S1.
M5
G4 S1.
G0 X100.34 Y-149.33
M3
M8
G4 S3.33
G1 X100.34 Y-154.33
G1 X100.34 Y-159.33 F176.25
G1 X100.34 Y-164.33
G1 X100.34 Y-169.33
G1 X100.34 Y-174.33
G1 X100.34 Y-179.33
G1 X100.34 Y-184.22
G1 X100.34 Y-189.22
G1 X100.34 Y-194.22
G1 X100.34 Y-199.22
G1 X100.34 Y-204.22
G1 X100.34 Y-209.22
G1 X100.34 Y-214.22 F149.81
G1 X100.34 Y-219.10 F123.37
G1 X100.20 Y-219.24
G1 X100.06 Y-219.38
G1 X95.06 Y-219.38 F149.81
G1 X90.06 Y-219.38 F176.25
G1 X86.35 Y-219.38
G1 X81.35 Y-219.38
G1 X76.35 Y-219.38 F149.81
G1 X72.63 Y-219.38 F123.37
G1 X72.49 Y-219.21
G1 X72.35 Y-219.03
G1 X73.29 Y-214.12 F149.81
G1 X74.24 Y-209.21 F176.25
G1 X75.19 Y-204.30
G1 X76.13 Y-199.39
G1 X77.08 Y-194.48
G1 X78.03 Y-189.58
G1 X78.09 Y-189.28 F167.44
G1 X79.03 Y-184.37 F176.25
G1 X79.98 Y-179.46
G1 X80.93 Y-174.55
G1 X81.87 Y-169.64
G1 X82.82 Y-164.73 F149.81
G1 X83.77 Y-159.83 F123.37
G1 X83.82 Y-159.53
G1 X83.88 Y-159.45
G1 X83.93 Y-159.37
G1 X88.13 Y-156.65 F149.81
G1 X91.89 Y-154.21
G1 X96.08 Y-151.49 F114.56
G1 X99.84 Y-149.06 F132.19
G1 X100.09 Y-149.19 F88.13
G1 X100.34 Y-149.33
G1 X100.34 Y-149.33
G4 S1.
M9
G4 S1.
M5
G4 S1.
G0 X254.49 Y-150.29
M3
M8
G4 S3.33
G1 X254.49 Y-155.29
G1 X254.49 Y-160.29 F176.25
G1 X254.49 Y-165.29
G1 X254.49 Y-170.29
G1 X254.49 Y-175.29
G1 X254.49 Y-180.29
G1 X254.49 Y-185.18
G1 X254.49 Y-190.18
G1 X254.49 Y-195.18
G1 X254.49 Y-200.18
G1 X254.49 Y-205.18
G1 X254.49 Y-210.18
G1 X254.49 Y-215.18 F149.81
G1 X254.49 Y-220.06 F123.37
G1 X254.35 Y-220.20
G1 X254.21 Y-220.34
G1 X249.21 Y-220.34 F149.81
G1 X244.21 Y-220.34 F176.25
G1 X240.50 Y-220.34
G1 X235.50 Y-220.34
G1 X230.50 Y-220.34 F149.81
G1 X226.78 Y-220.34 F123.37
G1 X226.64 Y-220.17
G1 X226.50 Y-219.99
G1 X227.44 Y-215.08 F149.81
G1 X228.39 Y-210.17 F176.25
G1 X229.34 Y-205.26
G1 X230.28 Y-200.35
G1 X231.23 Y-195.44
G1 X232.18 Y-190.54
G1 X232.24 Y-190.24 F167.44
G1 X233.18 Y-185.33 F176.25
G1 X234.13 Y-180.42
G1 X235.08 Y-175.51
G1 X236.02 Y-170.60
G1 X236.97 Y-165.69 F149.81
G1 X237.92 Y-160.78 F123.37
G1 X237.97 Y-160.49
G1 X238.03 Y-160.41
G1 X238.08 Y-160.33
G1 X242.28 Y-157.61 F149.81
G1 X246.04 Y-155.17
G1 X250.23 Y-152.45 F114.56
G1 X253.99 Y-150.02 F132.19
G1 X254.24 Y-150.15 F88.13
G1 X254.49 Y-150.29
G1 X254.49 Y-150.29
G4 S1.
M9
G4 S1.
M5
G4 S1.
G0 X206.95 Y-218.96
M3
M8
G4 S3.33
G1 X206.95 Y-213.96
G1 X206.95 Y-208.96 F176.25
G1 X206.95 Y-203.96
G1 X206.95 Y-198.96
G1 X206.95 Y-193.96
G1 X206.95 Y-188.96
G1 X206.95 Y-184.08
G1 X206.95 Y-179.08
G1 X206.95 Y-174.08
G1 X206.95 Y-169.08
G1 X206.95 Y-164.08
G1 X206.95 Y-159.08
G1 X206.95 Y-154.08 F149.81
G1 X206.95 Y-149.19 F123.37
G1 X207.09 Y-149.05
G1 X207.23 Y-148.91
G1 X212.23 Y-148.91 F149.81
G1 X217.23 Y-148.91 F176.25
G1 X220.94 Y-148.91
G1 X225.94 Y-148.91
G1 X230.94 Y-148.91 F149.81
G1 X234.65 Y-148.91 F123.37
G1 X234.80 Y-149.08
G1 X234.94 Y-149.26
G1 X233.99 Y-154.17 F149.81
G1 X233.05 Y-159.08 F176.25
G1 X232.10 Y-163.99
G1 X231.15 Y-168.90
G1 X230.21 Y-173.81
G1 X229.26 Y-178.72
G1 X229.20 Y-179.01 F167.44
G1 X228.26 Y-183.92 F176.25
G1 X227.31 Y-188.83
G1 X226.36 Y-193.74
G1 X225.41 Y-198.65
G1 X224.47 Y-203.56 F149.81
G1 X223.52 Y-208.47 F123.37
G1 X223.46 Y-208.76
G1 X223.41 Y-208.84
G1 X223.35 Y-208.92
G1 X219.16 Y-211.64 F149.81
G1 X215.40 Y-214.08
G1 X211.21 Y-216.80 F114.56
G1 X207.45 Y-219.23 F132.19
G1 X207.20 Y-219.10 F88.13
G1 X206.95 Y-218.96
G1 X206.95 Y-218.96
G4 S1.
M9
G4 S1.
M5
G4 S1.
G0 X306.58 Y-150.29
M3
M8
G4 S3.33
G1 X306.58 Y-155.29
G1 X306.58 Y-160.29 F176.25
G1 X306.58 Y-165.29
G1 X306.58 Y-170.29
G1 X306.58 Y-175.29
G1 X306.58 Y-180.29
G1 X306.58 Y-185.18
G1 X306.58 Y-190.18
G1 X306.58 Y-195.18
G1 X306.58 Y-200.18
G1 X306.58 Y-205.18
G1 X306.58 Y-210.18
G1 X306.58 Y-215.18 F149.81
G1 X306.58 Y-220.06 F123.37
G1 X306.44 Y-220.20
G1 X306.30 Y-220.34
G1 X301.30 Y-220.34 F149.81
G1 X296.30 Y-220.34 F176.25
G1 X292.59 Y-220.34
G1 X287.59 Y-220.34
G1 X282.59 Y-220.34 F149.81
G1 X278.88 Y-220.34 F123.37
G1 X278.73 Y-220.17
G1 X278.59 Y-219.99
G1 X279.54 Y-215.08 F149.81
G1 X280.48 Y-210.17 F176.25
G1 X281.43 Y-205.26
G1 X282.38 Y-200.35
G1 X283.32 Y-195.44
G1 X284.27 Y-190.54
G1 X284.33 Y-190.24 F167.44
G1 X285.27 Y-185.33 F176.25
G1 X286.22 Y-180.42
G1 X287.17 Y-175.51
G1 X288.12 Y-170.60
G1 X289.06 Y-165.69 F149.81
G1 X290.01 Y-160.78 F123.37
G1 X290.07 Y-160.49
G1 X290.12 Y-160.41
G1 X290.18 Y-160.33
G1 X294.37 Y-157.61 F149.81
G1 X298.13 Y-155.17
G1 X302.32 Y-152.45 F114.56
G1 X306.08 Y-150.02 F132.19
G1 X306.33 Y-150.15 F88.13
G1 X306.58 Y-150.29
G1 X306.58 Y-150.29
G4 S1.
M9
G4 S1.
M5
G4 S1.
G0 X257.60 Y-219.44
M3
M8
G4 S3.33
G1 X257.60 Y-214.44
G1 X257.60 Y-209.44 F176.25
G1 X257.60 Y-204.44
G1 X257.60 Y-199.44
G1 X257.60 Y-194.44
G1 X257.60 Y-189.44
G1 X257.60 Y-184.56
G1 X257.60 Y-179.56
G1 X257.60 Y-174.56
G1 X257.60 Y-169.56
G1 X257.60 Y-164.56
G1 X257.60 Y-159.56
G1 X257.60 Y-154.56 F149.81
G1 X257.60 Y-149.67 F123.37
G1 X257.74 Y-149.53
G1 X257.88 Y-149.39
G1 X262.88 Y-149.39 F149.81
G1 X267.88 Y-149.39 F176.25
G1 X271.59 Y-149.39
G1 X276.59 Y-149.39
G1 X281.59 Y-149.39 F149.81
G1 X285.31 Y-149.39 F123.37
G1 X285.45 Y-149.56
G1 X285.59 Y-149.74
G1 X284.65 Y-154.65 F149.81
G1 X283.70 Y-159.56 F176.25
G1 X282.75 Y-164.47
G1 X281.81 Y-169.38
G1 X280.86 Y-174.29
G1 X279.91 Y-179.20
G1 X279.85 Y-179.49 F167.44
G1 X278.91 Y-184.40 F176.25
G1 X277.96 Y-189.31
G1 X277.01 Y-194.22
G1 X276.07 Y-199.13
G1 X275.12 Y-204.04 F149.81
G1 X274.17 Y-208.95 F123.37
G1 X274.12 Y-209.24
G1 X274.06 Y-209.32
G1 X274.01 Y-209.40
G1 X269.81 Y-212.12 F149.81
G1 X266.05 Y-214.56
G1 X261.86 Y-217.28 F114.56
G1 X258.10 Y-219.71 F132.19
G1 X257.85 Y-219.58 F88.13
G1 X257.60 Y-219.44
G1 X257.60 Y-219.44
G4 S1.
M9
G4 S1.
M5
G4 S1.
G0 X311.95 Y-224.24
M3
M8
G4 S3.33
G1 X311.95 Y-219.24
G1 X311.95 Y-214.24 F176.25
G1 X311.95 Y-209.24
G1 X311.95 Y-204.24
G1 X311.95 Y-199.24
G1 X311.95 Y-194.24
G1 X311.95 Y-189.35
G1 X311.95 Y-184.35
G1 X311.95 Y-179.35
G1 X311.95 Y-174.35
G1 X311.95 Y-169.35
G1 X311.95 Y-164.35
G1 X311.95 Y-159.35 F149.81
G1 X311.95 Y-154.47 F123.37
G1 X312.09 Y-154.33
G1 X312.23 Y-154.19
G1 X317.23 Y-154.19 F149.81
G1 X322.23 Y-154.19 F176.25
G1 X325.95 Y-154.19
G1 X330.95 Y-154.19
G1 X335.95 Y-154.19 F149.81
G1 X339.66 Y-154.19 F123.37
G1 X339.80 Y-154.36
G1 X339.95 Y-154.54
G1 X339.00 Y-159.45 F149.81
G1 X338.05 Y-164.36 F176.25
G1 X337.11 Y-169.26
G1 X336.16 Y-174.17
G1 X335.21 Y-179.08
G1 X334.27 Y-183.99
G1 X334.21 Y-184.29 F167.44
G1 X333.26 Y-189.20 F176.25
G1 X332.31 Y-194.11
G1 X331.37 Y-199.02
G1 X330.42 Y-203.92
G1 X329.47 Y-208.83 F149.81
G1 X328.53 Y-213.74 F123.37
G1 X328.47 Y-214.04
G1 X328.41 Y-214.12
G1 X328.36 Y-214.20
G1 X324.16 Y-216.92 F149.81
G1 X320.41 Y-219.36
G1 X316.21 Y-222.07 F114.56
G1 X312.46 Y-224.51 F132.19
G1 X312.20 Y-224.37 F88.13
G1 X311.95 Y-224.24
G1 X311.95 Y-224.24
G4 S1.
M9
G4 S1.
M5
G4 S1.
G0 X48.71 Y-227.39
M3
M8
G4 S3.33
G1 X43.71 Y-227.39
G1 X38.71 Y-227.39 F176.25
G1 X33.71 Y-227.39
G1 X28.71 Y-227.39
G1 X24.95 Y-227.39
G1 X19.95 Y-227.39
G1 X14.95 Y-227.39
G1 X9.95 Y-227.39 F149.81
G1 X4.95 Y-227.39 F114.56
G1 X1.19 Y-227.39 F79.31
G1 X1.07 Y-227.09
G1 X0.95 Y-226.79
G1 X4.55 Y-223.32 F114.56
G1 X6.10 Y-221.81 F149.81
G1 X9.70 Y-218.34 F123.37
G1 X11.26 Y-216.84
G1 X11.38 Y-216.81
G1 X11.49 Y-216.78
G1 X16.40 Y-217.72 F149.81
G1 X21.31 Y-218.67 F176.25
G1 X26.22 Y-219.62
G1 X30.13 Y-220.37
G1 X35.04 Y-221.32
G1 X39.95 Y-222.27
G1 X44.86 Y-223.21 F149.81
G1 X48.77 Y-223.97 F123.37
G1 X48.88 Y-224.10
G1 X48.99 Y-224.23
G1 X48.99 Y-225.67
G1 X48.99 Y-227.11
G1 X48.85 Y-227.25 F88.13
G1 X48.71 Y-227.39
G1 X48.71 Y-227.39
G4 S1.
M9
G4 S1.
M5
G4 S1.
G0 X97.22 Y-232.19
M3
M8
G4 S3.33
G1 X92.22 Y-232.19
G1 X87.22 Y-232.19 F176.25
G1 X82.22 Y-232.19
G1 X77.22 Y-232.19
G1 X73.46 Y-232.19
G1 X68.46 Y-232.19
G1 X63.46 Y-232.19
G1 X58.46 Y-232.19 F149.81
G1 X53.46 Y-232.19 F114.56
G1 X49.69 Y-232.19 F79.31
G1 X49.57 Y-231.88
G1 X49.45 Y-231.58
G1 X53.05 Y-228.11 F114.56
G1 X54.61 Y-226.61 F149.81
G1 X58.21 Y-223.14 F123.37
G1 X59.77 Y-221.64
G1 X59.88 Y-221.61
G1 X59.99 Y-221.57
G1 X64.90 Y-222.52 F149.81
G1 X69.81 Y-223.47 F176.25
G1 X74.72 Y-224.42
G1 X78.64 Y-225.17
G1 X83.55 Y-226.12
G1 X88.46 Y-227.06
G1 X93.36 Y-228.01 F149.81
G1 X97.28 Y-228.77 F123.37
G1 X97.39 Y-228.90
G1 X97.50 Y-229.03
G1 X97.50 Y-230.47
G1 X97.50 Y-231.90
G1 X97.36 Y-232.04 F88.13
G1 X97.22 Y-232.19
G1 X97.22 Y-232.19
G4 S1.
M9
G4 S1.
M5
G4 S1.
G0 X147.16 Y-235.06
M3
M8
G4 S3.33
G1 X142.16 Y-235.06
G1 X137.16 Y-235.06 F176.25
G1 X132.16 Y-235.06
G1 X127.16 Y-235.06
G1 X123.40 Y-235.06
G1 X118.40 Y-235.06
G1 X113.40 Y-235.06
G1 X108.40 Y-235.06 F149.81
G1 X103.40 Y-235.06 F114.56
G1 X99.64 Y-235.06 F79.31
G1 X99.52 Y-234.76
G1 X99.40 Y-234.46
G1 X103.00 Y-230.99 F114.56
G1 X104.56 Y-229.49 F149.81
G1 X108.16 Y-226.02 F123.37
G1 X109.72 Y-224.52
G1 X109.83 Y-224.49
G1 X109.94 Y-224.45
G1 X114.85 Y-225.40 F149.81
G1 X119.76 Y-226.35 F176.25
G1 X124.67 Y-227.29
G1 X128.58 Y-228.05
G1 X133.49 Y-229.00
G1 X138.40 Y-229.94
G1 X143.31 Y-230.89 F149.81
G1 X147.22 Y-231.65 F123.37
G1 X147.33 Y-231.78
G1 X147.44 Y-231.91
G1 X147.44 Y-233.35
G1 X147.44 Y-234.78
G1 X147.30 Y-234.92 F88.13
G1 X147.16 Y-235.06
G1 X147.16 Y-235.06
G4 S1.
M9
G4 S1.
M5
G4 S1.
G0 X197.11 Y-234.10
M3
M8
G4 S3.33
G1 X192.11 Y-234.10
G1 X187.11 Y-234.10 F176.25
G1 X182.11 Y-234.10
G1 X177.11 Y-234.10
G1 X173.35 Y-234.10
G1 X168.35 Y-234.10
G1 X163.35 Y-234.10
G1 X158.35 Y-234.10 F149.81
G1 X153.35 Y-234.10 F114.56
G1 X149.59 Y-234.10 F79.31
G1 X149.46 Y-233.80
G1 X149.34 Y-233.50
G1 X152.94 Y-230.03 F114.56
G1 X154.50 Y-228.53 F149.81
G1 X158.10 Y-225.06 F123.37
G1 X159.66 Y-223.56
G1 X159.77 Y-223.53
G1 X159.89 Y-223.49
G1 X164.79 Y-224.44 F149.81
G1 X169.70 Y-225.39 F176.25
G1 X174.61 Y-226.33
G1 X178.53 Y-227.09
G1 X183.44 Y-228.04
G1 X188.35 Y-228.98
G1 X193.26 Y-229.93 F149.81
G1 X197.17 Y-230.69 F123.37
G1 X197.28 Y-230.82
G1 X197.39 Y-230.95
G1 X197.39 Y-232.39
G1 X197.39 Y-233.82
G1 X197.25 Y-233.96 F88.13
G1 X197.11 Y-234.10
G1 X197.11 Y-234.10
G4 S1.
M9
G4 S1.
M5
G4 S1.
G0 X248.01 Y-235.06
M3
M8
G4 S3.33
G1 X243.01 Y-235.06
G1 X238.01 Y-235.06 F176.25
G1 X233.01 Y-235.06
G1 X228.01 Y-235.06
G1 X224.25 Y-235.06
G1 X219.25 Y-235.06
G1 X214.25 Y-235.06
G1 X209.25 Y-235.06 F149.81
G1 X204.25 Y-235.06 F114.56
G1 X200.49 Y-235.06 F79.31
G1 X200.37 Y-234.76
G1 X200.25 Y-234.46
G1 X203.85 Y-230.99 F114.56
G1 X205.41 Y-229.49 F149.81
G1 X209.01 Y-226.02 F123.37
G1 X210.57 Y-224.52
G1 X210.68 Y-224.49
G1 X210.79 Y-224.45
G1 X215.70 Y-225.40 F149.81
G1 X220.61 Y-226.35 F176.25
G1 X225.52 Y-227.29
G1 X229.43 Y-228.05
G1 X234.34 Y-229.00
G1 X239.25 Y-229.94
G1 X244.16 Y-230.89 F149.81
G1 X248.08 Y-231.65 F123.37
G1 X248.18 Y-231.78
G1 X248.29 Y-231.91
G1 X248.29 Y-233.35
G1 X248.29 Y-234.78
G1 X248.15 Y-234.92 F88.13
G1 X248.01 Y-235.06
G1 X248.01 Y-235.06
G4 S1.
M9
G4 S1.
M5
G4 S1.
G0 X298.44 Y-232.66
M3
M8
G4 S3.33
G1 X293.44 Y-232.66
G1 X288.44 Y-232.66 F176.25
G1 X283.44 Y-232.66
G1 X278.44 Y-232.66
G1 X274.68 Y-232.66
G1 X269.68 Y-232.66
G1 X264.68 Y-232.66
G1 X259.68 Y-232.66 F149.81
G1 X254.68 Y-232.66 F114.56
G1 X250.92 Y-232.66 F79.31
G1 X250.80 Y-232.36
G1 X250.67 Y-232.06
G1 X254.27 Y-228.59 F114.56
G1 X255.83 Y-227.09 F149.81
G1 X259.43 Y-223.62 F123.37
G1 X260.99 Y-222.12
G1 X261.10 Y-222.09
G1 X261.22 Y-222.05
G1 X266.13 Y-223.00 F149.81
G1 X271.04 Y-223.95 F176.25
G1 X275.94 Y-224.89
G1 X279.86 Y-225.65
G1 X284.77 Y-226.60
G1 X289.68 Y-227.54
G1 X294.59 Y-228.49 F149.81
G1 X298.50 Y-229.25 F123.37
G1 X298.61 Y-229.38
G1 X298.72 Y-229.51
G1 X298.72 Y-230.95
G1 X298.72 Y-232.38
G1 X298.58 Y-232.52 F88.13
G1 X298.44 Y-232.66
G1 X298.44 Y-232.66
G4 S1.
M9
G4 S1.
M5
G4 S1.
G0 X100.33 Y-244.66
M3
M8
G4 S3.33
G1 X95.33 Y-244.66
G1 X90.33 Y-244.66 F176.25
G1 X85.33 Y-244.66
G1 X80.33 Y-244.66
G1 X76.57 Y-244.66
G1 X71.57 Y-244.66
G1 X66.57 Y-244.66
G1 X61.57 Y-244.66 F149.81
G1 X56.57 Y-244.66 F114.56
G1 X52.81 Y-244.66 F79.31
G1 X52.69 Y-244.36
G1 X52.57 Y-244.06
G1 X56.17 Y-240.59 F114.56
G1 X57.73 Y-239.09 F149.81
G1 X61.33 Y-235.62 F123.37
G1 X62.89 Y-234.11
G1 X63.00 Y-234.08
G1 X63.11 Y-234.05
G1 X68.02 Y-235.00 F149.81
G1 X72.93 Y-235.94 F176.25
G1 X77.84 Y-236.89
G1 X81.75 Y-237.64
G1 X86.66 Y-238.59
G1 X91.57 Y-239.54
G1 X96.48 Y-240.49 F149.81
G1 X100.40 Y-241.24 F123.37
G1 X100.51 Y-241.37
G1 X100.62 Y-241.51
G1 X100.62 Y-242.94
G1 X100.62 Y-244.38
G1 X100.47 Y-244.52 F88.13
G1 X100.33 Y-244.66
G1 X100.33 Y-244.66
G4 S1.
M9
G4 S1.
M5
G4 S1.
G0 X49.52 Y-243.22
M3
M8
G4 S3.33
G1 X44.52 Y-243.22
G1 X39.52 Y-243.22 F176.25
G1 X34.52 Y-243.22
G1 X29.52 Y-243.22
G1 X25.76 Y-243.22
G1 X20.76 Y-243.22
G1 X15.76 Y-243.22
G1 X10.76 Y-243.22 F149.81
G1 X5.76 Y-243.22 F114.56
G1 X2.00 Y-243.22 F79.31
G1 X1.88 Y-242.92
G1 X1.76 Y-242.62
G1 X5.36 Y-239.15 F114.56
G1 X6.92 Y-237.65 F149.81
G1 X10.52 Y-234.18 F123.37
G1 X12.08 Y-232.68
G1 X12.19 Y-232.64
G1 X12.30 Y-232.61
G1 X17.21 Y-233.56 F149.81
G1 X22.12 Y-234.50 F176.25
G1 X27.03 Y-235.45
G1 X30.94 Y-236.21
G1 X35.85 Y-237.15
G1 X40.76 Y-238.10
G1 X45.67 Y-239.05 F149.81
G1 X49.59 Y-239.80 F123.37
G1 X49.70 Y-239.93
G1 X49.81 Y-240.07
G1 X49.81 Y-241.50
G1 X49.81 Y-242.94
G1 X49.66 Y-243.08 F88.13
G1 X49.52 Y-243.22
G1 X49.52 Y-243.22
G4 S1.
M9
G4 S1.
M5
G4 S1.
G0 X149.37 Y-248.02
M3
M8
G4 S3.33
G1 X144.37 Y-248.02
G1 X139.37 Y-248.02 F176.25
G1 X134.37 Y-248.02
G1 X129.37 Y-248.02
G1 X125.61 Y-248.02
G1 X120.61 Y-248.02
G1 X115.61 Y-248.02
G1 X110.61 Y-248.02 F149.81
G1 X105.61 Y-248.02 F114.56
G1 X101.84 Y-248.02 F79.31
G1 X101.72 Y-247.72
G1 X101.60 Y-247.42
G1 X105.20 Y-243.95 F114.56
G1 X106.76 Y-242.45 F149.81
G1 X110.36 Y-238.98 F123.37
G1 X111.92 Y-237.47
G1 X112.03 Y-237.44
G1 X112.14 Y-237.41
G1 X117.05 Y-238.35 F149.81
G1 X121.96 Y-239.30 F176.25
G1 X126.87 Y-240.25
G1 X130.79 Y-241.00
G1 X135.70 Y-241.95
G1 X140.61 Y-242.90
G1 X145.52 Y-243.84 F149.81
G1 X149.43 Y-244.60 F123.37
G1 X149.54 Y-244.73
G1 X149.65 Y-244.87
G1 X149.65 Y-246.30
G1 X149.65 Y-247.74
G1 X149.51 Y-247.88 F88.13
G1 X149.37 Y-248.02
G1 X149.37 Y-248.02
G4 S1.
M9
G4 S1.
M5
G4 S1.
G0 X198.83 Y-248.02
M3
M8
G4 S3.33
G1 X193.83 Y-248.02
G1 X188.83 Y-248.02 F176.25
G1 X183.83 Y-248.02
G1 X178.83 Y-248.02
G1 X175.07 Y-248.02
G1 X170.07 Y-248.02
G1 X165.07 Y-248.02
G1 X160.07 Y-248.02 F149.81
G1 X155.07 Y-248.02 F114.56
G1 X151.31 Y-248.02 F79.31
G1 X151.19 Y-247.72
G1 X151.07 Y-247.42
G1 X154.67 Y-243.95 F114.56
G1 X156.23 Y-242.45 F149.81
G1 X159.83 Y-238.98 F123.37
G1 X161.39 Y-237.47
G1 X161.50 Y-237.44
G1 X161.61 Y-237.41
G1 X166.52 Y-238.35 F149.81
G1 X171.43 Y-239.30 F176.25
G1 X176.34 Y-240.25
G1 X180.25 Y-241.00
G1 X185.16 Y-241.95
G1 X190.07 Y-242.90
G1 X194.98 Y-243.84 F149.81
G1 X198.90 Y-244.60 F123.37
G1 X199.00 Y-244.73
G1 X199.11 Y-244.87
G1 X199.11 Y-246.30
G1 X199.11 Y-247.74
G1 X198.97 Y-247.88 F88.13
G1 X198.83 Y-248.02
G1 X198.83 Y-248.02
G4 S1.
M9
G4 S1.
M5
G4 S1.
G0 X248.78 Y-248.50
M3
M8
G4 S3.33
G1 X243.78 Y-248.50
G1 X238.78 Y-248.50 F176.25
G1 X233.78 Y-248.50
G1 X228.78 Y-248.50
G1 X225.02 Y-248.50
G1 X220.02 Y-248.50
G1 X215.02 Y-248.50
G1 X210.02 Y-248.50 F149.81
G1 X205.02 Y-248.50 F114.56
G1 X201.26 Y-248.50 F79.31
G1 X201.14 Y-248.20
G1 X201.01 Y-247.90
G1 X204.61 Y-244.43 F114.56
G1 X206.17 Y-242.93 F149.81
G1 X209.77 Y-239.46 F123.37
G1 X211.33 Y-237.95
G1 X211.44 Y-237.92
G1 X211.56 Y-237.89
G1 X216.47 Y-238.83 F149.81
G1 X221.38 Y-239.78 F176.25
G1 X226.28 Y-240.73
G1 X230.20 Y-241.48
G1 X235.11 Y-242.43
G1 X240.02 Y-243.38
G1 X244.93 Y-244.32 F149.81
G1 X248.84 Y-245.08 F123.37
G1 X248.95 Y-245.21
G1 X249.06 Y-245.35
G1 X249.06 Y-246.78
G1 X249.06 Y-248.22
G1 X248.92 Y-248.36 F88.13
G1 X248.78 Y-248.50
G1 X248.78 Y-248.50
G4 S1.
M9
G4 S1.
M5
G4 S1.
G0 X301.12 Y-246.58
M3
M8
G4 S3.33
G1 X296.12 Y-246.58
G1 X291.12 Y-246.58 F176.25
G1 X286.12 Y-246.58
G1 X281.12 Y-246.58
G1 X277.36 Y-246.58
G1 X272.36 Y-246.58
G1 X267.36 Y-246.58
G1 X262.36 Y-246.58 F149.81
G1 X257.36 Y-246.58 F114.56
G1 X253.60 Y-246.58 F79.31
G1 X253.48 Y-246.28
G1 X253.36 Y-245.98
G1 X256.96 Y-242.51 F114.56
G1 X258.52 Y-241.01 F149.81
G1 X262.12 Y-237.54 F123.37
G1 X263.68 Y-236.03
G1 X263.79 Y-236.00
G1 X263.90 Y-235.97
G1 X268.81 Y-236.91 F149.81
G1 X273.72 Y-237.86 F176.25
G1 X278.63 Y-238.81
G1 X282.54 Y-239.56
G1 X287.45 Y-240.51
G1 X292.36 Y-241.46
G1 X297.27 Y-242.41 F149.81
G1 X301.19 Y-243.16 F123.37
G1 X301.30 Y-243.29
G1 X301.40 Y-243.43
G1 X301.40 Y-244.86
G1 X301.40 Y-246.30
G1 X301.26 Y-246.44 F88.13
G1 X301.12 Y-246.58
G1 X301.12 Y-246.58
G4 S1.
M9
G4 S1.
M5
G4 S1.
M1413 02:11:58
M1404
