;-------------------------------Cut file parameters------------------------
; Input file name : yellow_x36 (Entity_1).DXF
; File rotation : 0 File scale : 1
; Machine : Desktop
; Material name : Glass - Soda Lime
; Material thickness : 0.125 in
; Cut path  : Outside
; Cut quality : mediumRate
; Raw Material width : 343.8mm
; Raw Material height : 52.8mm
;-------------------------------Do Not modify the Gcode file---------------
G90
G21
M1403
M1405 X0.48 Y-0.00
M1406 X344.24 Y-52.78
M1407 S3.33
M1410 2.2.0; Generated on Wam
M1411 Glass - Soda Lime
M1412 0.125 in
G0 X11.56 Y-1.25
M3
M8
G4 S3.33
G1 X11.56 Y-6.25 F176.25
G1 X11.56 Y-11.25
G1 X11.56 Y-16.25
G1 X11.56 Y-21.25
G1 X11.56 Y-25.01
G1 X11.56 Y-30.01
G1 X11.56 Y-35.01
G1 X11.56 Y-40.01 F149.81
G1 X11.56 Y-45.01 F114.56
G1 X11.56 Y-48.77 F79.31
G1 X11.26 Y-48.89
G1 X10.96 Y-49.01
G1 X7.49 Y-45.41 F114.56
G1 X5.99 Y-43.85 F149.81
G1 X2.52 Y-40.25 F123.37
G1 X1.02 Y-38.70
G1 X0.99 Y-38.58
G1 X0.95 Y-38.47
G1 X1.90 Y-33.56 F149.81
G1 X2.85 Y-28.65 F176.25
G1 X3.79 Y-23.74
G1 X4.55 Y-19.83
G1 X5.50 Y-14.92
G1 X6.44 Y-10.01
G1 X7.39 Y-5.10 F149.81
G1 X8.15 Y-1.19 F123.37
G1 X8.28 Y-1.08
G1 X8.41 Y-0.97
G1 X9.85 Y-0.97
G1 X11.28 Y-0.97
G1 X11.42 Y-1.11 F88.13
G1 X11.56 Y-1.25
G1 X11.56 Y-1.25
G4 S1.
M9
G4 S1.
M5
G4 S1.
G0 X330.28 Y-3.18
M3
M8
G4 S3.33
G1 X330.28 Y-8.18
G1 X330.28 Y-13.18 F176.25
G1 X330.28 Y-18.18
G1 X330.28 Y-23.18
G1 X330.28 Y-26.94
G1 X330.28 Y-31.94
G1 X330.28 Y-36.94
G1 X330.28 Y-41.94 F149.81
G1 X330.28 Y-46.94 F114.56
G1 X330.28 Y-50.70 F79.31
G1 X329.98 Y-50.82
G1 X329.68 Y-50.94
G1 X326.21 Y-47.34 F114.56
G1 X324.71 Y-45.78 F149.81
G1 X321.24 Y-42.18 F123.37
G1 X319.73 Y-40.62
G1 X319.70 Y-40.51
G1 X319.67 Y-40.40
G1 X320.61 Y-35.49 F149.81
G1 X321.56 Y-30.58 F176.25
G1 X322.51 Y-25.67
G1 X323.26 Y-21.76
G1 X324.21 Y-16.85
G1 X325.16 Y-11.94
G1 X326.11 Y-7.03 F149.81
G1 X326.86 Y-3.11 F123.37
G1 X326.99 Y-3.01
G1 X327.13 Y-2.90
G1 X328.56 Y-2.90
G1 X330.00 Y-2.90
G1 X330.14 Y-3.04 F88.13
G1 X330.28 Y-3.18
G1 X330.28 Y-3.18
G4 S1.
M9
G4 S1.
M5
G4 S1.
G0 X23.61 Y-1.25
M3
M8
G4 S3.33
G1 X23.61 Y-6.25
G1 X23.61 Y-11.25 F176.25
G1 X23.61 Y-16.25
G1 X23.61 Y-21.25
G1 X23.61 Y-25.01
G1 X23.61 Y-30.01
G1 X23.61 Y-35.01
G1 X23.61 Y-40.01 F149.81
G1 X23.61 Y-45.01 F114.56
G1 X23.61 Y-48.77 F79.31
G1 X23.31 Y-48.89
G1 X23.01 Y-49.01
G1 X19.54 Y-45.41 F114.56
G1 X18.04 Y-43.85 F149.81
G1 X14.57 Y-40.25 F123.37
G1 X13.06 Y-38.70
G1 X13.03 Y-38.58
G1 X13.00 Y-38.47
G1 X13.94 Y-33.56 F149.81
G1 X14.89 Y-28.65 F176.25
G1 X15.84 Y-23.74
G1 X16.59 Y-19.83
G1 X17.54 Y-14.92
G1 X18.49 Y-10.01
G1 X19.44 Y-5.10 F149.81
G1 X20.19 Y-1.19 F123.37
G1 X20.32 Y-1.08
G1 X20.46 Y-0.97
G1 X21.89 Y-0.97
G1 X23.33 Y-0.97
G1 X23.47 Y-1.11 F88.13
G1 X23.61 Y-1.25
G1 X23.61 Y-1.25
G4 S1.
M9
G4 S1.
M5
G4 S1.
G0 X36.14 Y-2.21
M3
M8
G4 S3.33
G1 X36.14 Y-7.21
G1 X36.14 Y-12.21 F176.25
G1 X36.14 Y-17.21
G1 X36.14 Y-22.21
G1 X36.14 Y-25.97
G1 X36.14 Y-30.97
G1 X36.14 Y-35.97
G1 X36.14 Y-40.97 F149.81
G1 X36.14 Y-45.97 F114.56
G1 X36.14 Y-49.73 F79.31
G1 X35.84 Y-49.86
G1 X35.54 Y-49.98
G1 X32.07 Y-46.38 F114.56
G1 X30.57 Y-44.82 F149.81
G1 X27.10 Y-41.22 F123.37
G1 X25.60 Y-39.66
G1 X25.56 Y-39.55
G1 X25.53 Y-39.43
G1 X26.48 Y-34.53 F149.81
G1 X27.42 Y-29.62 F176.25
G1 X28.37 Y-24.71
G1 X29.13 Y-20.79
G1 X30.07 Y-15.88
G1 X31.02 Y-10.97
G1 X31.97 Y-6.06 F149.81
G1 X32.72 Y-2.15 F123.37
G1 X32.86 Y-2.04
G1 X32.99 Y-1.93
G1 X34.42 Y-1.93
G1 X35.86 Y-1.93
G1 X36.00 Y-2.07 F88.13
G1 X36.14 Y-2.21
G1 X36.14 Y-2.21
G4 S1.
M9
G4 S1.
M5
G4 S1.
G0 X48.19 Y-2.69
M3
M8
G4 S3.33
G1 X48.19 Y-7.69
G1 X48.19 Y-12.69 F176.25
G1 X48.19 Y-17.69
G1 X48.19 Y-22.69
G1 X48.19 Y-26.46
G1 X48.19 Y-31.46
G1 X48.19 Y-36.46
G1 X48.19 Y-41.46 F149.81
G1 X48.19 Y-46.46 F114.56
G1 X48.19 Y-50.22 F79.31
G1 X47.89 Y-50.34
G1 X47.59 Y-50.46
G1 X44.12 Y-46.86 F114.56
G1 X42.62 Y-45.30 F149.81
G1 X39.15 Y-41.70 F123.37
G1 X37.65 Y-40.14
G1 X37.61 Y-40.03
G1 X37.58 Y-39.92
G1 X38.53 Y-35.01 F149.81
G1 X39.47 Y-30.10 F176.25
G1 X40.42 Y-25.19
G1 X41.18 Y-21.27
G1 X42.12 Y-16.37
G1 X43.07 Y-11.46
G1 X44.02 Y-6.55 F149.81
G1 X44.77 Y-2.63 F123.37
G1 X44.90 Y-2.52
G1 X45.04 Y-2.41
G1 X46.47 Y-2.41
G1 X47.91 Y-2.41
G1 X48.05 Y-2.55 F88.13
G1 X48.19 Y-2.69
G1 X48.19 Y-2.69
G4 S1.
M9
G4 S1.
M5
G4 S1.
G0 X343.76 Y-3.66
M3
M8
G4 S3.33
G1 X343.76 Y-8.66
G1 X343.76 Y-13.66 F176.25
G1 X343.76 Y-18.66
G1 X343.76 Y-23.66
G1 X343.76 Y-27.42
G1 X343.76 Y-32.42
G1 X343.76 Y-37.42
G1 X343.76 Y-42.42 F149.81
G1 X343.76 Y-47.42 F114.56
G1 X343.76 Y-51.18 F79.31
G1 X343.46 Y-51.30
G1 X343.16 Y-51.42
G1 X339.69 Y-47.82 F114.56
G1 X338.19 Y-46.26 F149.81
G1 X334.72 Y-42.66 F123.37
G1 X333.22 Y-41.11
G1 X333.18 Y-40.99
G1 X333.15 Y-40.88
G1 X334.10 Y-35.97 F149.81
G1 X335.04 Y-31.06 F176.25
G1 X335.99 Y-26.15
G1 X336.75 Y-22.24
G1 X337.69 Y-17.33
G1 X338.64 Y-12.42
G1 X339.59 Y-7.51 F149.81
G1 X340.34 Y-3.60 F123.37
G1 X340.47 Y-3.49
G1 X340.61 Y-3.38
G1 X342.04 Y-3.38
G1 X343.48 Y-3.38
G1 X343.62 Y-3.52 F88.13
G1 X343.76 Y-3.66
G1 X343.76 Y-3.66
G4 S1.
M9
G4 S1.
M5
G4 S1.
G0 X61.68 Y-1.73
M3
M8
G4 S3.33
G1 X61.68 Y-6.73
G1 X61.68 Y-11.73 F176.25
G1 X61.68 Y-16.73
G1 X61.68 Y-21.73
G1 X61.68 Y-25.49
G1 X61.68 Y-30.49
G1 X61.68 Y-35.49
G1 X61.68 Y-40.49 F149.81
G1 X61.68 Y-45.49 F114.56
G1 X61.68 Y-49.25 F79.31
G1 X61.38 Y-49.37
G1 X61.08 Y-49.50
G1 X57.61 Y-45.89 F114.56
G1 X56.11 Y-44.34 F149.81
G1 X52.64 Y-40.74 F123.37
G1 X51.14 Y-39.18
G1 X51.10 Y-39.07
G1 X51.07 Y-38.95
G1 X52.02 Y-34.04 F149.81
G1 X52.96 Y-29.13 F176.25
G1 X53.91 Y-24.22
G1 X54.67 Y-20.31
G1 X55.61 Y-15.40
G1 X56.56 Y-10.49
G1 X57.51 Y-5.58 F149.81
G1 X58.26 Y-1.67 F123.37
G1 X58.40 Y-1.56
G1 X58.53 Y-1.45
G1 X59.96 Y-1.45
G1 X61.40 Y-1.45
G1 X61.54 Y-1.59 F88.13
G1 X61.68 Y-1.73
G1 X61.68 Y-1.73
G4 S1.
M9
G4 S1.
M5
G4 S1.
G0 X75.18 Y-3.66
M3
M8
G4 S3.33
G1 X75.18 Y-8.66
G1 X75.18 Y-13.66 F176.25
G1 X75.18 Y-18.66
G1 X75.18 Y-23.66
G1 X75.18 Y-27.42
G1 X75.18 Y-32.42
G1 X75.18 Y-37.42
G1 X75.18 Y-42.42 F149.81
G1 X75.18 Y-47.42 F114.56
G1 X75.18 Y-51.18 F79.31
G1 X74.88 Y-51.30
G1 X74.58 Y-51.42
G1 X71.11 Y-47.82 F114.56
G1 X69.60 Y-46.26 F149.81
G1 X66.13 Y-42.66 F123.37
G1 X64.63 Y-41.11
G1 X64.60 Y-40.99
G1 X64.57 Y-40.88
G1 X65.51 Y-35.97 F149.81
G1 X66.46 Y-31.06 F176.25
G1 X67.41 Y-26.15
G1 X68.16 Y-22.24
G1 X69.11 Y-17.33
G1 X70.06 Y-12.42
G1 X71.00 Y-7.51 F149.81
G1 X71.76 Y-3.60 F123.37
G1 X71.89 Y-3.49
G1 X72.02 Y-3.38
G1 X73.46 Y-3.38
G1 X74.90 Y-3.38
G1 X75.04 Y-3.52 F88.13
G1 X75.18 Y-3.66
G1 X75.18 Y-3.66
G4 S1.
M9
G4 S1.
M5
G4 S1.
G0 X88.19 Y-4.62
M3
M8
G4 S3.33
G1 X88.19 Y-9.62
G1 X88.19 Y-14.62 F176.25
G1 X88.19 Y-19.62
G1 X88.19 Y-24.62
G1 X88.19 Y-28.38
G1 X88.19 Y-33.38
G1 X88.19 Y-38.38
G1 X88.19 Y-43.38 F149.81
G1 X88.19 Y-48.38 F114.56
G1 X88.19 Y-52.15 F79.31
G1 X87.89 Y-52.27
G1 X87.59 Y-52.39
G1 X84.12 Y-48.79 F114.56
G1 X82.62 Y-47.23 F149.81
G1 X79.15 Y-43.63 F123.37
G1 X77.65 Y-42.07
G1 X77.61 Y-41.96
G1 X77.58 Y-41.85
G1 X78.53 Y-36.94 F149.81
G1 X79.47 Y-32.03 F176.25
G1 X80.42 Y-27.12
G1 X81.18 Y-23.20
G1 X82.12 Y-18.29
G1 X83.07 Y-13.38
G1 X84.02 Y-8.48 F149.81
G1 X84.77 Y-4.56 F123.37
G1 X84.91 Y-4.45
G1 X85.04 Y-4.34
G1 X86.47 Y-4.34
G1 X87.91 Y-4.34
G1 X88.05 Y-4.48 F88.13
G1 X88.19 Y-4.62
G1 X88.19 Y-4.62
G4 S1.
M9
G4 S1.
M5
G4 S1.
G0 X100.24 Y-4.14
M3
M8
G4 S3.33
G1 X100.24 Y-9.14
G1 X100.24 Y-14.14 F176.25
G1 X100.24 Y-19.14
G1 X100.24 Y-24.14
G1 X100.24 Y-27.90
G1 X100.24 Y-32.90
G1 X100.24 Y-37.90
G1 X100.24 Y-42.90 F149.81
G1 X100.24 Y-47.90 F114.56
G1 X100.24 Y-51.66 F79.31
G1 X99.94 Y-51.78
G1 X99.64 Y-51.91
G1 X96.17 Y-48.31 F114.56
G1 X94.66 Y-46.75 F149.81
G1 X91.19 Y-43.15 F123.37
G1 X89.69 Y-41.59
G1 X89.66 Y-41.48
G1 X89.62 Y-41.36
G1 X90.57 Y-36.45 F149.81
G1 X91.52 Y-31.54 F176.25
G1 X92.47 Y-26.64
G1 X93.22 Y-22.72
G1 X94.17 Y-17.81
G1 X95.12 Y-12.90
G1 X96.06 Y-7.99 F149.81
G1 X96.82 Y-4.08 F123.37
G1 X96.95 Y-3.97
G1 X97.08 Y-3.86
G1 X98.52 Y-3.86
G1 X99.95 Y-3.86
G1 X100.10 Y-4.00 F88.13
G1 X100.24 Y-4.14
G1 X100.24 Y-4.14
G4 S1.
M9
G4 S1.
M5
G4 S1.
G0 X113.73 Y-2.69
M3
M8
G4 S3.33
G1 X113.73 Y-7.69
G1 X113.73 Y-12.69 F176.25
G1 X113.73 Y-17.69
G1 X113.73 Y-22.69
G1 X113.73 Y-26.46
G1 X113.73 Y-31.46
G1 X113.73 Y-36.46
G1 X113.73 Y-41.46 F149.81
G1 X113.73 Y-46.46 F114.56
G1 X113.73 Y-50.22 F79.31
G1 X113.43 Y-50.34
G1 X113.13 Y-50.46
G1 X109.66 Y-46.86 F114.56
G1 X108.16 Y-45.30 F149.81
G1 X104.69 Y-41.70 F123.37
G1 X103.19 Y-40.14
G1 X103.15 Y-40.03
G1 X103.12 Y-39.92
G1 X104.07 Y-35.01 F149.81
G1 X105.01 Y-30.10 F176.25
G1 X105.96 Y-25.19
G1 X106.72 Y-21.27
G1 X107.66 Y-16.37
G1 X108.61 Y-11.46
G1 X109.56 Y-6.55 F149.81
G1 X110.31 Y-2.63 F123.37
G1 X110.45 Y-2.52
G1 X110.58 Y-2.41
G1 X112.02 Y-2.41
G1 X113.45 Y-2.41
G1 X113.59 Y-2.55 F88.13
G1 X113.73 Y-2.69
G1 X113.73 Y-2.69
G4 S1.
M9
G4 S1.
M5
G4 S1.
G0 X126.75 Y-3.18
M3
M8
G4 S3.33
G1 X126.75 Y-8.18
G1 X126.75 Y-13.18 F176.25
G1 X126.75 Y-18.18
G1 X126.75 Y-23.18
G1 X126.75 Y-26.94
G1 X126.75 Y-31.94
G1 X126.75 Y-36.94
G1 X126.75 Y-41.94 F149.81
G1 X126.75 Y-46.94 F114.56
G1 X126.75 Y-50.70 F79.31
G1 X126.45 Y-50.82
G1 X126.14 Y-50.94
G1 X122.68 Y-47.34 F114.56
G1 X121.17 Y-45.78 F149.81
G1 X117.70 Y-42.18 F123.37
G1 X116.20 Y-40.62
G1 X116.17 Y-40.51
G1 X116.13 Y-40.40
G1 X117.08 Y-35.49 F149.81
G1 X118.03 Y-30.58 F176.25
G1 X118.98 Y-25.67
G1 X119.73 Y-21.76
G1 X120.68 Y-16.85
G1 X121.63 Y-11.94
G1 X122.57 Y-7.03 F149.81
G1 X123.33 Y-3.11 F123.37
G1 X123.46 Y-3.01
G1 X123.59 Y-2.90
G1 X125.03 Y-2.90
G1 X126.46 Y-2.90
G1 X126.61 Y-3.04 F88.13
G1 X126.75 Y-3.18
G1 X126.75 Y-3.18
G4 S1.
M9
G4 S1.
M5
G4 S1.
G0 X139.28 Y-2.69
M3
M8
G4 S3.33
G1 X139.28 Y-7.69
G1 X139.28 Y-12.69 F176.25
G1 X139.28 Y-17.69
G1 X139.28 Y-22.69
G1 X139.28 Y-26.46
G1 X139.28 Y-31.46
G1 X139.28 Y-36.46
G1 X139.28 Y-41.46 F149.81
G1 X139.28 Y-46.46 F114.56
G1 X139.28 Y-50.22 F79.31
G1 X138.98 Y-50.34
G1 X138.68 Y-50.46
G1 X135.21 Y-46.86 F114.56
G1 X133.70 Y-45.30 F149.81
G1 X130.24 Y-41.70 F123.37
G1 X128.73 Y-40.14
G1 X128.70 Y-40.03
G1 X128.67 Y-39.92
G1 X129.61 Y-35.01 F149.81
G1 X130.56 Y-30.10 F176.25
G1 X131.51 Y-25.19
G1 X132.26 Y-21.27
G1 X133.21 Y-16.37
G1 X134.16 Y-11.46
G1 X135.10 Y-6.55 F149.81
G1 X135.86 Y-2.63 F123.37
G1 X135.99 Y-2.52
G1 X136.13 Y-2.41
G1 X137.56 Y-2.41
G1 X139.00 Y-2.41
G1 X139.14 Y-2.55 F88.13
G1 X139.28 Y-2.69
G1 X139.28 Y-2.69
G4 S1.
M9
G4 S1.
M5
G4 S1.
G0 X152.29 Y-2.69
M3
M8
G4 S3.33
G1 X152.29 Y-7.69
G1 X152.29 Y-12.69 F176.25
G1 X152.29 Y-17.69
G1 X152.29 Y-22.69
G1 X152.29 Y-26.46
G1 X152.29 Y-31.46
G1 X152.29 Y-36.46
G1 X152.29 Y-41.46 F149.81
G1 X152.29 Y-46.46 F114.56
G1 X152.29 Y-50.22 F79.31
G1 X151.99 Y-50.34
G1 X151.69 Y-50.46
G1 X148.22 Y-46.86 F114.56
G1 X146.72 Y-45.30 F149.81
G1 X143.25 Y-41.70 F123.37
G1 X141.75 Y-40.14
G1 X141.71 Y-40.03
G1 X141.68 Y-39.92
G1 X142.63 Y-35.01 F149.81
G1 X143.57 Y-30.10 F176.25
G1 X144.52 Y-25.19
G1 X145.28 Y-21.27
G1 X146.22 Y-16.37
G1 X147.17 Y-11.46
G1 X148.12 Y-6.55 F149.81
G1 X148.87 Y-2.63 F123.37
G1 X149.01 Y-2.52
G1 X149.14 Y-2.41
G1 X150.57 Y-2.41
G1 X152.01 Y-2.41
G1 X152.15 Y-2.55 F88.13
G1 X152.29 Y-2.69
G1 X152.29 Y-2.69
G4 S1.
M9
G4 S1.
M5
G4 S1.
G0 X164.82 Y-2.21
M3
M8
G4 S3.33
G1 X164.82 Y-7.21
G1 X164.82 Y-12.21 F176.25
G1 X164.82 Y-17.21
G1 X164.82 Y-22.21
G1 X164.82 Y-25.97
G1 X164.82 Y-30.97
G1 X164.82 Y-35.97
G1 X164.82 Y-40.97 F149.81
G1 X164.82 Y-45.97 F114.56
G1 X164.82 Y-49.73 F79.31
G1 X164.52 Y-49.86
G1 X164.22 Y-49.98
G1 X160.75 Y-46.38 F114.56
G1 X159.25 Y-44.82 F149.81
G1 X155.78 Y-41.22 F123.37
G1 X154.28 Y-39.66
G1 X154.25 Y-39.55
G1 X154.21 Y-39.43
G1 X155.16 Y-34.53 F149.81
G1 X156.11 Y-29.62 F176.25
G1 X157.05 Y-24.71
G1 X157.81 Y-20.79
G1 X158.76 Y-15.88
G1 X159.70 Y-10.97
G1 X160.65 Y-6.06 F149.81
G1 X161.40 Y-2.15 F123.37
G1 X161.54 Y-2.04
G1 X161.67 Y-1.93
G1 X163.11 Y-1.93
G1 X164.54 Y-1.93
G1 X164.68 Y-2.07 F88.13
G1 X164.82 Y-2.21
G1 X164.82 Y-2.21
G4 S1.
M9
G4 S1.
M5
G4 S1.
G0 X317.67 Y-2.69
M3
M8
G4 S3.33
G1 X317.67 Y-7.69
G1 X317.67 Y-12.69 F176.25
G1 X317.67 Y-17.69
G1 X317.67 Y-22.69
G1 X317.67 Y-26.46
G1 X317.67 Y-31.46
G1 X317.67 Y-36.46
G1 X317.67 Y-41.46 F149.81
G1 X317.67 Y-46.46 F114.56
G1 X317.67 Y-50.22 F79.31
G1 X317.37 Y-50.34
G1 X317.07 Y-50.46
G1 X313.60 Y-46.86 F114.56
G1 X312.10 Y-45.30 F149.81
G1 X308.63 Y-41.70 F123.37
G1 X307.12 Y-40.14
G1 X307.09 Y-40.03
G1 X307.06 Y-39.92
G1 X308.00 Y-35.01 F149.81
G1 X308.95 Y-30.10 F176.25
G1 X309.90 Y-25.19
G1 X310.65 Y-21.27
G1 X311.60 Y-16.37
G1 X312.55 Y-11.46
G1 X313.49 Y-6.55 F149.81
G1 X314.25 Y-2.63 F123.37
G1 X314.38 Y-2.52
G1 X314.52 Y-2.41
G1 X315.95 Y-2.41
G1 X317.39 Y-2.41
G1 X317.53 Y-2.55 F88.13
G1 X317.67 Y-2.69
G1 X317.67 Y-2.69
G4 S1.
M9
G4 S1.
M5
G4 S1.
G0 X177.35 Y-3.66
M3
M8
G4 S3.33
G1 X177.35 Y-8.66
G1 X177.35 Y-13.66 F176.25
G1 X177.35 Y-18.66
G1 X177.35 Y-23.66
G1 X177.35 Y-27.42
G1 X177.35 Y-32.42
G1 X177.35 Y-37.42
G1 X177.35 Y-42.42 F149.81
G1 X177.35 Y-47.42 F114.56
G1 X177.35 Y-51.18 F79.31
G1 X177.05 Y-51.30
G1 X176.75 Y-51.42
G1 X173.28 Y-47.82 F114.56
G1 X171.78 Y-46.26 F149.81
G1 X168.31 Y-42.66 F123.37
G1 X166.81 Y-41.11
G1 X166.77 Y-40.99
G1 X166.74 Y-40.88
G1 X167.69 Y-35.97 F149.81
G1 X168.63 Y-31.06 F176.25
G1 X169.58 Y-26.15
G1 X170.33 Y-22.24
G1 X171.28 Y-17.33
G1 X172.23 Y-12.42
G1 X173.18 Y-7.51 F149.81
G1 X173.93 Y-3.60 F123.37
G1 X174.06 Y-3.49
G1 X174.20 Y-3.38
G1 X175.63 Y-3.38
G1 X177.07 Y-3.38
G1 X177.21 Y-3.52 F88.13
G1 X177.35 Y-3.66
G1 X177.35 Y-3.66
G4 S1.
M9
G4 S1.
M5
G4 S1.
G0 X190.36 Y-3.18
M3
M8
G4 S3.33
G1 X190.36 Y-8.18
G1 X190.36 Y-13.18 F176.25
G1 X190.36 Y-18.18
G1 X190.36 Y-23.18
G1 X190.36 Y-26.94
G1 X190.36 Y-31.94
G1 X190.36 Y-36.94
G1 X190.36 Y-41.94 F149.81
G1 X190.36 Y-46.94 F114.56
G1 X190.36 Y-50.70 F79.31
G1 X190.06 Y-50.82
G1 X189.76 Y-50.94
G1 X186.29 Y-47.34 F114.56
G1 X184.79 Y-45.78 F149.81
G1 X181.32 Y-42.18 F123.37
G1 X179.82 Y-40.62
G1 X179.79 Y-40.51
G1 X179.75 Y-40.40
G1 X180.70 Y-35.49 F149.81
G1 X181.65 Y-30.58 F176.25
G1 X182.59 Y-25.67
G1 X183.35 Y-21.76
G1 X184.30 Y-16.85
G1 X185.24 Y-11.94
G1 X186.19 Y-7.03 F149.81
G1 X186.95 Y-3.11 F123.37
G1 X187.08 Y-3.01
G1 X187.21 Y-2.90
G1 X188.65 Y-2.90
G1 X190.08 Y-2.90
G1 X190.22 Y-3.04 F88.13
G1 X190.36 Y-3.18
G1 X190.36 Y-3.18
G4 S1.
M9
G4 S1.
M5
G4 S1.
G0 X202.90 Y-4.14
M3
M8
G4 S3.33
G1 X202.90 Y-9.14
G1 X202.90 Y-14.14 F176.25
G1 X202.90 Y-19.14
G1 X202.90 Y-24.14
G1 X202.90 Y-27.90
G1 X202.90 Y-32.90
G1 X202.90 Y-37.90
G1 X202.90 Y-42.90 F149.81
G1 X202.90 Y-47.90 F114.56
G1 X202.90 Y-51.66 F79.31
G1 X202.60 Y-51.78
G1 X202.29 Y-51.91
G1 X198.82 Y-48.31 F114.56
G1 X197.32 Y-46.75 F149.81
G1 X193.85 Y-43.15 F123.37
G1 X192.35 Y-41.59
G1 X192.32 Y-41.48
G1 X192.28 Y-41.36
G1 X193.23 Y-36.45 F149.81
G1 X194.18 Y-31.54 F176.25
G1 X195.13 Y-26.64
G1 X195.88 Y-22.72
G1 X196.83 Y-17.81
G1 X197.77 Y-12.90
G1 X198.72 Y-7.99 F149.81
G1 X199.48 Y-4.08 F123.37
G1 X199.61 Y-3.97
G1 X199.74 Y-3.86
G1 X201.18 Y-3.86
G1 X202.61 Y-3.86
G1 X202.75 Y-4.00 F88.13
G1 X202.90 Y-4.14
G1 X202.90 Y-4.14
G4 S1.
M9
G4 S1.
M5
G4 S1.
G0 X217.36 Y-2.69
M3
M8
G4 S3.33
G1 X217.36 Y-7.69
G1 X217.36 Y-12.69 F176.25
G1 X217.36 Y-17.69
G1 X217.36 Y-22.69
G1 X217.36 Y-26.46
G1 X217.36 Y-31.46
G1 X217.36 Y-36.46
G1 X217.36 Y-41.46 F149.81
G1 X217.36 Y-46.46 F114.56
G1 X217.36 Y-50.22 F79.31
G1 X217.06 Y-50.34
G1 X216.76 Y-50.46
G1 X213.29 Y-46.86 F114.56
G1 X211.78 Y-45.30 F149.81
G1 X208.31 Y-41.70 F123.37
G1 X206.81 Y-40.14
G1 X206.78 Y-40.03
G1 X206.74 Y-39.92
G1 X207.69 Y-35.01 F149.81
G1 X208.64 Y-30.10 F176.25
G1 X209.59 Y-25.19
G1 X210.34 Y-21.27
G1 X211.29 Y-16.37
G1 X212.24 Y-11.46
G1 X213.18 Y-6.55 F149.81
G1 X213.94 Y-2.63 F123.37
G1 X214.07 Y-2.52
G1 X214.20 Y-2.41
G1 X215.64 Y-2.41
G1 X217.07 Y-2.41
G1 X217.22 Y-2.55 F88.13
G1 X217.36 Y-2.69
G1 X217.36 Y-2.69
G4 S1.
M9
G4 S1.
M5
G4 S1.
G0 X229.89 Y-2.69
M3
M8
G4 S3.33
G1 X229.89 Y-7.69
G1 X229.89 Y-12.69 F176.25
G1 X229.89 Y-17.69
G1 X229.89 Y-22.69
G1 X229.89 Y-26.46
G1 X229.89 Y-31.46
G1 X229.89 Y-36.46
G1 X229.89 Y-41.46 F149.81
G1 X229.89 Y-46.46 F114.56
G1 X229.89 Y-50.22 F79.31
G1 X229.59 Y-50.34
G1 X229.29 Y-50.46
G1 X225.82 Y-46.86 F114.56
G1 X224.31 Y-45.30 F149.81
G1 X220.85 Y-41.70 F123.37
G1 X219.34 Y-40.14
G1 X219.31 Y-40.03
G1 X219.28 Y-39.92
G1 X220.22 Y-35.01 F149.81
G1 X221.17 Y-30.10 F176.25
G1 X222.12 Y-25.19
G1 X222.87 Y-21.27
G1 X223.82 Y-16.37
G1 X224.77 Y-11.46
G1 X225.71 Y-6.55 F149.81
G1 X226.47 Y-2.63 F123.37
G1 X226.60 Y-2.52
G1 X226.74 Y-2.41
G1 X228.17 Y-2.41
G1 X229.61 Y-2.41
G1 X229.75 Y-2.55 F88.13
G1 X229.89 Y-2.69
G1 X229.89 Y-2.69
G4 S1.
M9
G4 S1.
M5
G4 S1.
G0 X242.90 Y-2.21
M3
M8
G4 S3.33
G1 X242.90 Y-7.21
G1 X242.90 Y-12.21 F176.25
G1 X242.90 Y-17.21
G1 X242.90 Y-22.21
G1 X242.90 Y-25.97
G1 X242.90 Y-30.97
G1 X242.90 Y-35.97
G1 X242.90 Y-40.97 F149.81
G1 X242.90 Y-45.97 F114.56
G1 X242.90 Y-49.73 F79.31
G1 X242.60 Y-49.86
G1 X242.30 Y-49.98
G1 X238.83 Y-46.38 F114.56
G1 X237.33 Y-44.82 F149.81
G1 X233.86 Y-41.22 F123.37
G1 X232.36 Y-39.66
G1 X232.32 Y-39.55
G1 X232.29 Y-39.43
G1 X233.24 Y-34.53 F149.81
G1 X234.18 Y-29.62 F176.25
G1 X235.13 Y-24.71
G1 X235.89 Y-20.79
G1 X236.83 Y-15.88
G1 X237.78 Y-10.97
G1 X238.73 Y-6.06 F149.81
G1 X239.48 Y-2.15 F123.37
G1 X239.62 Y-2.04
G1 X239.75 Y-1.93
G1 X241.18 Y-1.93
G1 X242.62 Y-1.93
G1 X242.76 Y-2.07 F88.13
G1 X242.90 Y-2.21
G1 X242.90 Y-2.21
G4 S1.
M9
G4 S1.
M5
G4 S1.
G0 X306.06 Y-2.69
M3
M8
G4 S3.33
G1 X306.06 Y-7.69
G1 X306.06 Y-12.69 F176.25
G1 X306.06 Y-17.69
G1 X306.06 Y-22.69
G1 X306.06 Y-26.46
G1 X306.06 Y-31.46
G1 X306.06 Y-36.46
G1 X306.06 Y-41.46 F149.81
G1 X306.06 Y-46.46 F114.56
G1 X306.06 Y-50.22 F79.31
G1 X305.76 Y-50.34
G1 X305.46 Y-50.46
G1 X301.99 Y-46.86 F114.56
G1 X300.49 Y-45.30 F149.81
G1 X297.02 Y-41.70 F123.37
G1 X295.52 Y-40.14
G1 X295.48 Y-40.03
G1 X295.45 Y-39.92
G1 X296.40 Y-35.01 F149.81
G1 X297.34 Y-30.10 F176.25
G1 X298.29 Y-25.19
G1 X299.05 Y-21.27
G1 X299.99 Y-16.37
G1 X300.94 Y-11.46
G1 X301.89 Y-6.55 F149.81
G1 X302.64 Y-2.63 F123.37
G1 X302.78 Y-2.52
G1 X302.91 Y-2.41
G1 X304.35 Y-2.41
G1 X305.78 Y-2.41
G1 X305.92 Y-2.55 F88.13
G1 X306.06 Y-2.69
G1 X306.06 Y-2.69
G4 S1.
M9
G4 S1.
M5
G4 S1.
G0 X254.95 Y-0.77
M3
M8
G4 S3.33
G1 X254.95 Y-5.77
G1 X254.95 Y-10.77 F176.25
G1 X254.95 Y-15.77
G1 X254.95 Y-20.77
G1 X254.95 Y-24.53
G1 X254.95 Y-29.53
G1 X254.95 Y-34.53
G1 X254.95 Y-39.53 F149.81
G1 X254.95 Y-44.53 F114.56
G1 X254.95 Y-48.29 F79.31
G1 X254.65 Y-48.41
G1 X254.35 Y-48.53
G1 X250.88 Y-44.93 F114.56
G1 X249.37 Y-43.37 F149.81
G1 X245.90 Y-39.77 F123.37
G1 X244.40 Y-38.21
G1 X244.37 Y-38.10
G1 X244.33 Y-37.99
G1 X245.28 Y-33.08 F149.81
G1 X246.23 Y-28.17 F176.25
G1 X247.18 Y-23.26
G1 X247.93 Y-19.35
G1 X248.88 Y-14.44
G1 X249.83 Y-9.53
G1 X250.77 Y-4.62 F149.81
G1 X251.53 Y-0.70 F123.37
G1 X251.66 Y-0.59
G1 X251.79 Y-0.48
G1 X253.23 Y-0.48
G1 X254.66 Y-0.48
G1 X254.81 Y-0.62 F88.13
G1 X254.95 Y-0.77
G1 X254.95 Y-0.77
G4 S1.
M9
G4 S1.
M5
G4 S1.
G0 X268.44 Y-1.73
M3
M8
G4 S3.33
G1 X268.44 Y-6.73
G1 X268.44 Y-11.73 F176.25
G1 X268.44 Y-16.73
G1 X268.44 Y-21.73
G1 X268.44 Y-25.49
G1 X268.44 Y-30.49
G1 X268.44 Y-35.49
G1 X268.44 Y-40.49 F149.81
G1 X268.44 Y-45.49 F114.56
G1 X268.44 Y-49.25 F79.31
G1 X268.14 Y-49.37
G1 X267.84 Y-49.50
G1 X264.37 Y-45.89 F114.56
G1 X262.87 Y-44.34 F149.81
G1 X259.40 Y-40.74 F123.37
G1 X257.90 Y-39.18
G1 X257.86 Y-39.07
G1 X257.83 Y-38.95
G1 X258.78 Y-34.04 F149.81
G1 X259.73 Y-29.13 F176.25
G1 X260.67 Y-24.22
G1 X261.43 Y-20.31
G1 X262.37 Y-15.40
G1 X263.32 Y-10.49
G1 X264.27 Y-5.58 F149.81
G1 X265.02 Y-1.67 F123.37
G1 X265.16 Y-1.56
G1 X265.29 Y-1.45
G1 X266.73 Y-1.45
G1 X268.16 Y-1.45
G1 X268.30 Y-1.59 F88.13
G1 X268.44 Y-1.73
G1 X268.44 Y-1.73
G4 S1.
M9
G4 S1.
M5
G4 S1.
G0 X280.97 Y-4.14
M3
M8
G4 S3.33
G1 X280.97 Y-9.14
G1 X280.97 Y-14.14 F176.25
G1 X280.97 Y-19.14
G1 X280.97 Y-24.14
G1 X280.97 Y-27.90
G1 X280.97 Y-32.90
G1 X280.97 Y-37.90
G1 X280.97 Y-42.90 F149.81
G1 X280.97 Y-47.90 F114.56
G1 X280.97 Y-51.66 F79.31
G1 X280.67 Y-51.78
G1 X280.37 Y-51.91
G1 X276.90 Y-48.31 F114.56
G1 X275.40 Y-46.75 F149.81
G1 X271.93 Y-43.15 F123.37
G1 X270.43 Y-41.59
G1 X270.40 Y-41.48
G1 X270.36 Y-41.36
G1 X271.31 Y-36.45 F149.81
G1 X272.26 Y-31.54 F176.25
G1 X273.20 Y-26.64
G1 X273.96 Y-22.72
G1 X274.91 Y-17.81
G1 X275.85 Y-12.90
G1 X276.80 Y-7.99 F149.81
G1 X277.56 Y-4.08 F123.37
G1 X277.69 Y-3.97
G1 X277.82 Y-3.86
G1 X279.26 Y-3.86
G1 X280.69 Y-3.86
G1 X280.83 Y-4.00 F88.13
G1 X280.97 Y-4.14
G1 X280.97 Y-4.14
G4 S1.
M9
G4 S1.
M5
G4 S1.
G0 X293.02 Y-2.21
M3
M8
G4 S3.33
G1 X293.02 Y-7.21
G1 X293.02 Y-12.21 F176.25
G1 X293.02 Y-17.21
G1 X293.02 Y-22.21
G1 X293.02 Y-25.97
G1 X293.02 Y-30.97
G1 X293.02 Y-35.97
G1 X293.02 Y-40.97 F149.81
G1 X293.02 Y-45.97 F114.56
G1 X293.02 Y-49.73 F79.31
G1 X292.72 Y-49.86
G1 X292.42 Y-49.98
G1 X288.95 Y-46.38 F114.56
G1 X287.45 Y-44.82 F149.81
G1 X283.98 Y-41.22 F123.37
G1 X282.48 Y-39.66
G1 X282.45 Y-39.55
G1 X282.41 Y-39.43
G1 X283.36 Y-34.53 F149.81
G1 X284.31 Y-29.62 F176.25
G1 X285.25 Y-24.71
G1 X286.01 Y-20.79
G1 X286.96 Y-15.88
G1 X287.90 Y-10.97
G1 X288.85 Y-6.06 F149.81
G1 X289.60 Y-2.15 F123.37
G1 X289.74 Y-2.04
G1 X289.87 Y-1.93
G1 X291.31 Y-1.93
G1 X292.74 Y-1.93
G1 X292.88 Y-2.07 F88.13
G1 X293.02 Y-2.21
G1 X293.02 Y-2.21
G4 S1.
M9
G4 S1.
M5
G4 S1.
M1413 00:39:19
M1404
