;-------------------------------Cut file parameters------------------------
; Input file name : Part Studio 1 - background_blue_1 (1).dxf
; File rotation : 0 File scale : 1
; Machine : Desktop
; Material name : Glass - Soda Lime
; Material thickness : 0.15 in
; Cut path  : Outside
; Cut quality : mediumRate
; Raw Material width : 242.5mm
; Raw Material height : 121.1mm
;-------------------------------Do Not modify the Gcode file---------------
G90
G21
M1403
M1405 X3.97 Y-2.17
M1406 X246.50 Y-123.32
M1407 S4.21
M1410 2.2.0; Generated on Wam
M1411 Glass - Soda Lime
M1412 0.15 in
G0 X63.22 Y-4.06
M3
M8
G4 S4.21
G1 X64.03 Y-4.66 F133.10
G1 X64.83 Y-5.26 F119.79
G1 X65.70 Y-5.77 F113.13
G1 X66.56 Y-6.28 F106.48
G1 X67.47 Y-6.70 F99.82
G1 X68.38 Y-7.13 F93.17
G1 X69.33 Y-7.46
G1 X70.28 Y-7.79
G1 X71.26 Y-8.02
G1 X72.23 Y-8.26
G1 X73.23 Y-8.39
G1 X74.22 Y-8.53
G1 X75.13 Y-8.57
G1 X76.04 Y-8.60
G1 X76.10 Y-8.67
G1 X76.16 Y-8.74
G1 X76.16 Y-13.74 F106.48
G1 X76.16 Y-18.74 F119.79
G1 X76.16 Y-23.74 F133.10
G1 X76.16 Y-28.74
G1 X76.16 Y-29.63 F126.45
G1 X76.16 Y-34.63 F133.10
G1 X76.16 Y-39.63
G1 X76.16 Y-44.63 F113.13
G1 X76.16 Y-49.63 F93.17
G1 X76.16 Y-50.53
G1 X76.08 Y-50.60
G1 X75.99 Y-50.67
G1 X73.56 Y-50.11 F113.13
G1 X71.13 Y-49.55 F133.10
G1 X70.46 Y-49.43 F126.45
G1 X69.79 Y-49.31 F119.79
G1 X68.43 Y-49.14 F133.10
G1 X67.06 Y-48.98
G1 X66.38 Y-48.93 F126.45
G1 X65.70 Y-48.89 F119.79
G1 X64.33 Y-48.87 F133.10
G1 X62.95 Y-48.86
G1 X61.59 Y-48.94
G1 X60.22 Y-49.03
G1 X58.86 Y-49.22
G1 X57.50 Y-49.41
G1 X56.16 Y-49.69
G1 X54.82 Y-49.98
G1 X53.50 Y-50.36
G1 X52.19 Y-50.75
G1 X50.90 Y-51.23
G1 X49.62 Y-51.71
G1 X48.99 Y-51.98 F126.45
G1 X48.36 Y-52.26 F119.79
G1 X47.14 Y-52.88 F133.10
G1 X45.92 Y-53.50
G1 X44.74 Y-54.20
G1 X43.57 Y-54.91 F113.13
G1 X42.62 Y-55.57 F93.17
G1 X41.68 Y-56.23
G1 X41.62 Y-56.23
G1 X41.55 Y-56.24
G1 X40.38 Y-55.69 F113.13
G1 X39.20 Y-55.14 F133.10
G1 X38.04 Y-54.73 F126.45
G1 X36.89 Y-54.32 F119.79
G1 X35.72 Y-54.14 F113.13
G1 X34.56 Y-53.96 F106.48
G1 X33.39 Y-54.14 F99.82
G1 X32.22 Y-54.32 F93.17
G1 X31.09 Y-54.92 F106.48
G1 X29.96 Y-55.53 F119.79
G1 X28.90 Y-56.49 F133.10
G1 X27.85 Y-57.45
G1 X26.90 Y-58.68
G1 X25.95 Y-59.91
G1 X24.81 Y-62.09
G1 X23.66 Y-64.26
G1 X22.97 Y-66.58
G1 X22.27 Y-68.89
G1 X22.02 Y-70.88
G1 X21.78 Y-72.87
G1 X21.80 Y-74.72
G1 X21.83 Y-76.56
G1 X22.03 Y-77.94
G1 X22.22 Y-79.31
G1 X22.54 Y-80.46 F126.45
G1 X22.86 Y-81.60 F119.79
G1 X23.37 Y-82.49 F113.13
G1 X23.87 Y-83.38 F106.48
G1 X24.29 Y-83.75 F99.82
G1 X24.70 Y-84.13 F93.17
G1 X25.22 Y-84.37
G1 X25.73 Y-84.62
G1 X26.31 Y-84.73
G1 X26.89 Y-84.84
G1 X27.48 Y-84.82
G1 X28.08 Y-84.80
G1 X28.83 Y-84.55
G1 X29.58 Y-84.31
G1 X30.19 Y-83.83
G1 X30.79 Y-83.34 F86.52
G1 X31.28 Y-82.61 F59.89
G1 X31.76 Y-81.88
G1 X31.93 Y-81.93
G1 X32.09 Y-81.98
G1 X32.02 Y-85.29 F86.52
G1 X31.95 Y-88.59 F113.13
G1 X31.92 Y-91.69 F133.10
G1 X31.89 Y-94.79
G1 X31.93 Y-97.68
G1 X31.98 Y-100.58
G1 X32.13 Y-103.18
G1 X32.27 Y-105.79
G1 X32.45 Y-107.33
G1 X32.62 Y-108.87
G1 X32.86 Y-110.22
G1 X33.10 Y-111.57
G1 X33.42 Y-112.71 F126.45
G1 X33.74 Y-113.84 F119.79
G1 X34.15 Y-114.75 F113.13
G1 X34.56 Y-115.65 F106.48
G1 X35.07 Y-116.32 F99.82
G1 X35.58 Y-116.98 F86.52
G1 X36.25 Y-117.47 F59.89
G1 X36.92 Y-117.96
G1 X36.87 Y-118.12
G1 X36.82 Y-118.28
G1 X31.82 Y-118.28 F86.52
G1 X26.82 Y-118.28 F113.13
G1 X21.82 Y-118.28 F133.10
G1 X20.77 Y-118.28 F126.45
G1 X15.77 Y-118.28 F133.10
G1 X10.77 Y-118.28 F113.13
G1 X5.77 Y-118.28 F93.17
G1 X4.72 Y-118.28
G1 X4.65 Y-118.21
G1 X4.58 Y-118.15
G1 X4.58 Y-113.15 F113.13
G1 X4.58 Y-108.15 F133.10
G1 X4.58 Y-103.15
G1 X4.58 Y-98.15
G1 X4.58 Y-93.15
G1 X4.58 Y-88.87
G1 X4.58 Y-83.87
G1 X4.58 Y-78.87
G1 X4.58 Y-73.87
G1 X4.58 Y-68.87
G1 X4.58 Y-63.87 F113.13
G1 X4.58 Y-59.58 F93.17
G1 X4.60 Y-59.54
G1 X4.62 Y-59.50
G1 X8.16 Y-55.96 F113.13
G1 X11.69 Y-52.43 F133.10
G1 X15.23 Y-48.89
G1 X18.76 Y-45.36
G1 X22.30 Y-41.82
G1 X25.83 Y-38.29
G1 X29.37 Y-34.75
G1 X32.90 Y-31.22
G1 X33.04 Y-31.08 F126.45
G1 X36.58 Y-27.54 F133.10
G1 X40.12 Y-24.00
G1 X43.65 Y-20.47
G1 X47.19 Y-16.93
G1 X50.72 Y-13.40
G1 X54.26 Y-9.86
G1 X57.79 Y-6.33 F113.13
G1 X61.33 Y-2.79 F93.17
G1 X61.47 Y-2.65
G1 X61.56 Y-2.65
G1 X61.65 Y-2.65
G1 X62.44 Y-3.35 F66.55
G1 X63.22 Y-4.06
G1 X63.22 Y-4.06
G4 S1.
M9
G4 S1.
M5
G4 S1.
G0 X64.95 Y-94.03
M3
M8
G4 S4.21
G1 X66.90 Y-94.40
G1 X68.84 Y-94.78 F133.10
G1 X70.80 Y-95.06
G1 X72.76 Y-95.33 F113.13
G1 X74.47 Y-95.49 F93.17
G1 X76.18 Y-95.65
G1 X76.30 Y-95.79
G1 X76.43 Y-95.93
G1 X76.43 Y-100.93 F113.13
G1 X76.43 Y-105.93 F133.10
G1 X76.43 Y-106.08 F126.45
G1 X76.43 Y-111.08 F113.13
G1 X76.43 Y-116.08 F93.17
G1 X76.43 Y-116.24
G1 X76.29 Y-116.38
G1 X76.15 Y-116.52
G1 X71.15 Y-116.52 F113.13
G1 X66.15 Y-116.52 F133.10
G1 X61.15 Y-116.52
G1 X58.74 Y-116.52
G1 X53.74 Y-116.52 F113.13
G1 X48.74 Y-116.52 F86.52
G1 X43.74 Y-116.52 F59.89
G1 X41.33 Y-116.52
G1 X41.24 Y-116.15
G1 X41.15 Y-115.78
G1 X41.79 Y-115.46 F86.52
G1 X42.43 Y-115.15 F106.48
G1 X42.86 Y-114.86 F99.82
G1 X43.28 Y-114.57 F93.17
G1 X43.67 Y-114.23
G1 X44.06 Y-113.88
G1 X44.39 Y-113.48
G1 X44.73 Y-113.08
G1 X45.01 Y-112.64
G1 X45.29 Y-112.19
G1 X45.52 Y-111.70
G1 X45.75 Y-111.21
G1 X45.95 Y-110.63
G1 X46.16 Y-110.05 F86.52
G1 X46.39 Y-109.17 F59.89
G1 X46.62 Y-108.29
G1 X46.90 Y-108.23
G1 X47.18 Y-108.16
G1 X47.60 Y-108.65 F86.52
G1 X48.01 Y-109.13 F93.17
G1 X48.26 Y-109.38
G1 X48.51 Y-109.63
G1 X48.76 Y-109.85
G1 X49.02 Y-110.07
G1 X49.30 Y-110.25
G1 X49.58 Y-110.44
G1 X49.76 Y-110.53
G1 X49.95 Y-110.63
G1 X50.26 Y-110.73
G1 X50.57 Y-110.84
G1 X50.89 Y-110.89
G1 X51.21 Y-110.95
G1 X51.53 Y-110.97
G1 X51.86 Y-111.00
G1 X52.31 Y-110.97
G1 X52.76 Y-110.95
G1 X53.21 Y-110.88
G1 X53.66 Y-110.81
G1 X54.09 Y-110.71
G1 X54.53 Y-110.60
G1 X54.96 Y-110.45
G1 X55.39 Y-110.29
G1 X55.70 Y-110.14
G1 X56.00 Y-109.99
G1 X56.30 Y-109.79
G1 X56.60 Y-109.60
G1 X56.88 Y-109.36
G1 X57.16 Y-109.13
G1 X57.43 Y-108.84
G1 X57.70 Y-108.55
G1 X57.87 Y-108.34
G1 X58.04 Y-108.12
G1 X58.28 Y-107.76
G1 X58.52 Y-107.39
G1 X58.74 Y-106.99
G1 X58.95 Y-106.59
G1 X59.15 Y-106.16
G1 X59.35 Y-105.73
G1 X59.63 Y-104.95
G1 X59.91 Y-104.17
G1 X60.04 Y-103.69
G1 X60.17 Y-103.21
G1 X60.28 Y-102.72
G1 X60.39 Y-102.22
G1 X60.50 Y-101.40
G1 X60.61 Y-100.57
G1 X60.66 Y-99.58
G1 X60.71 Y-98.58
G1 X60.69 Y-97.59
G1 X60.68 Y-96.59
G1 X60.58 Y-94.96
G1 X60.49 Y-93.33
G1 X60.68 Y-93.17
G1 X60.87 Y-93.02
G1 X62.91 Y-93.52 F66.55
G1 X64.95 Y-94.03
G1 X64.95 Y-94.03
G4 S1.
M9
G4 S1.
M5
G4 S1.
G0 X66.33 Y-57.63
M3
M8
G4 S4.21
G1 X66.33 Y-62.63
G1 X66.33 Y-67.63 F133.10
G1 X66.33 Y-71.72
G1 X66.33 Y-76.72
G1 X66.33 Y-81.72 F113.13
G1 X66.33 Y-85.81 F93.17
G1 X66.20 Y-85.95
G1 X66.06 Y-86.09
G1 X65.46 Y-86.10 F113.13
G1 X64.87 Y-86.12 F106.48
G1 X63.87 Y-86.21 F99.82
G1 X62.88 Y-86.31 F93.17
G1 X62.40 Y-86.40
G1 X61.92 Y-86.48
G1 X60.95 Y-86.73
G1 X59.99 Y-86.98
G1 X59.06 Y-87.32
G1 X58.13 Y-87.66
G1 X57.23 Y-88.09
G1 X56.34 Y-88.52
G1 X55.49 Y-89.04
G1 X54.64 Y-89.56
G1 X53.86 Y-90.16
G1 X53.07 Y-90.76
G1 X52.55 Y-91.23
G1 X52.02 Y-91.70
G1 X51.83 Y-91.69
G1 X51.64 Y-91.69
G1 X48.10 Y-88.15 F106.48
G1 X44.57 Y-84.62 F119.79
G1 X41.03 Y-81.08 F133.10
G1 X40.64 Y-80.69 F126.45
G1 X37.10 Y-77.15 F133.10
G1 X33.57 Y-73.61 F113.13
G1 X30.03 Y-70.08 F93.17
G1 X29.63 Y-69.68
G1 X29.66 Y-69.45
G1 X29.69 Y-69.22
G1 X30.88 Y-68.50 F113.13
G1 X32.07 Y-67.77 F133.10
G1 X32.93 Y-67.28 F126.45
G1 X33.79 Y-66.79 F119.79
G1 X35.55 Y-65.87 F133.10
G1 X37.31 Y-64.96
G1 X39.11 Y-64.13
G1 X40.91 Y-63.31
G1 X42.74 Y-62.59
G1 X44.58 Y-61.86
G1 X46.46 Y-61.23
G1 X48.33 Y-60.60
G1 X50.24 Y-60.06
G1 X52.16 Y-59.52
G1 X54.08 Y-59.09
G1 X56.01 Y-58.66
G1 X56.98 Y-58.48 F126.45
G1 X57.96 Y-58.30 F119.79
G1 X58.94 Y-58.14 F113.13
G1 X59.92 Y-57.98 F106.48
G1 X61.88 Y-57.75 F119.79
G1 X63.84 Y-57.52 F113.13
G1 X64.93 Y-57.43 F93.17
G1 X66.02 Y-57.34
G1 X66.18 Y-57.49 F66.55
G1 X66.33 Y-57.63
G1 X66.33 Y-57.63
G4 S1.
M9
G4 S1.
M5
G4 S1.
G0 X142.51 Y-4.19
M3
M8
G4 S4.21
G1 X142.96 Y-5.40
G1 X143.40 Y-6.61 F133.10
G1 X144.00 Y-8.48
G1 X144.60 Y-10.36
G1 X145.11 Y-12.27
G1 X145.61 Y-14.18
G1 X146.02 Y-16.11
G1 X146.42 Y-18.04
G1 X146.72 Y-19.99
G1 X147.03 Y-21.94
G1 X147.23 Y-23.90
G1 X147.44 Y-25.87
G1 X147.54 Y-27.84
G1 X147.64 Y-29.81
G1 X147.64 Y-34.81
G1 X147.64 Y-39.81
G1 X147.65 Y-44.81
G1 X147.65 Y-49.81
G1 X147.65 Y-54.81
G1 X147.65 Y-57.64
G1 X147.65 Y-62.64
G1 X147.66 Y-67.64
G1 X147.66 Y-72.64
G1 X147.66 Y-77.64 F113.13
G1 X147.66 Y-82.64 F86.52
G1 X147.67 Y-85.48 F59.89
G1 X147.52 Y-85.54
G1 X147.38 Y-85.60
G1 X143.85 Y-82.06 F86.52
G1 X140.32 Y-78.51 F113.13
G1 X136.79 Y-74.97 F133.10
G1 X133.26 Y-71.43
G1 X132.70 Y-70.87 F126.45
G1 X129.17 Y-67.32 F133.10
G1 X125.64 Y-63.78 F113.13
G1 X122.11 Y-60.24 F86.52
G1 X118.59 Y-56.70 F59.89
G1 X118.02 Y-56.13
G1 X118.07 Y-56.00
G1 X118.12 Y-55.86
G1 X118.92 Y-55.77 F86.52
G1 X119.72 Y-55.67 F106.48
G1 X120.25 Y-55.58 F99.82
G1 X120.77 Y-55.50 F93.17
G1 X121.91 Y-55.24
G1 X123.05 Y-54.98
G1 X124.23 Y-54.63
G1 X125.41 Y-54.27
G1 X125.99 Y-54.06
G1 X126.57 Y-53.85
G1 X127.12 Y-53.62
G1 X127.68 Y-53.39
G1 X128.20 Y-53.15
G1 X128.72 Y-52.90
G1 X129.19 Y-52.63
G1 X129.67 Y-52.37
G1 X130.28 Y-51.94
G1 X130.89 Y-51.51
G1 X131.38 Y-51.04
G1 X131.87 Y-50.56
G1 X132.26 Y-50.03
G1 X132.66 Y-49.50
G1 X132.87 Y-49.11
G1 X133.09 Y-48.73
G1 X133.28 Y-48.31
G1 X133.47 Y-47.90
G1 X133.71 Y-47.21
G1 X133.96 Y-46.52
G1 X134.09 Y-46.04
G1 X134.22 Y-45.55
G1 X134.32 Y-45.05
G1 X134.42 Y-44.55
G1 X134.48 Y-44.04
G1 X134.54 Y-43.53
G1 X134.55 Y-43.03
G1 X134.57 Y-42.52
G1 X134.53 Y-42.02
G1 X134.50 Y-41.52
G1 X134.46 Y-41.28
G1 X134.42 Y-41.05
G1 X134.31 Y-40.58
G1 X134.19 Y-40.11
G1 X134.02 Y-39.67
G1 X133.85 Y-39.23
G1 X133.63 Y-38.82
G1 X133.42 Y-38.41
G1 X133.17 Y-38.02
G1 X132.92 Y-37.63
G1 X132.64 Y-37.26
G1 X132.36 Y-36.90
G1 X131.74 Y-36.23
G1 X131.12 Y-35.55
G1 X130.44 Y-34.95
G1 X129.76 Y-34.36
G1 X129.40 Y-34.09
G1 X129.03 Y-33.82
G1 X128.65 Y-33.57
G1 X128.26 Y-33.32
G1 X127.85 Y-33.09
G1 X127.44 Y-32.86
G1 X127.00 Y-32.66
G1 X126.57 Y-32.46
G1 X126.11 Y-32.28
G1 X125.64 Y-32.09
G1 X125.16 Y-31.94
G1 X124.68 Y-31.78
G1 X124.18 Y-31.65
G1 X123.69 Y-31.51
G1 X122.94 Y-31.35
G1 X122.18 Y-31.19
G1 X121.68 Y-31.11
G1 X121.19 Y-31.03
G1 X120.47 Y-30.94
G1 X119.74 Y-30.86
G1 X118.64 Y-30.80
G1 X117.54 Y-30.75
G1 X116.09 Y-30.79
G1 X114.63 Y-30.83
G1 X114.56 Y-30.75
G1 X114.49 Y-30.66
G1 X114.68 Y-29.79 F99.82
G1 X114.86 Y-28.92 F93.17
G1 X114.90 Y-28.50
G1 X114.94 Y-28.08
G1 X114.95 Y-27.76
G1 X114.95 Y-27.43
G1 X114.88 Y-26.85
G1 X114.82 Y-26.27
G1 X114.73 Y-25.91
G1 X114.65 Y-25.54
G1 X114.53 Y-25.17
G1 X114.41 Y-24.80
G1 X114.26 Y-24.43
G1 X114.11 Y-24.07
G1 X113.94 Y-23.72
G1 X113.76 Y-23.36
G1 X113.56 Y-23.04
G1 X113.36 Y-22.71
G1 X113.14 Y-22.41
G1 X112.92 Y-22.12
G1 X112.68 Y-21.87
G1 X112.44 Y-21.61
G1 X112.28 Y-21.47
G1 X112.11 Y-21.34
G1 X111.86 Y-21.17
G1 X111.60 Y-21.01
G1 X111.33 Y-20.90
G1 X111.06 Y-20.78
G1 X110.79 Y-20.72
G1 X110.51 Y-20.65
G1 X110.23 Y-20.62
G1 X109.94 Y-20.59
G1 X109.66 Y-20.60
G1 X109.37 Y-20.61
G1 X108.99 Y-20.67
G1 X108.60 Y-20.72
G1 X108.23 Y-20.82
G1 X107.85 Y-20.92
G1 X107.58 Y-21.02
G1 X107.31 Y-21.12
G1 X106.97 Y-21.30
G1 X106.62 Y-21.47
G1 X106.39 Y-21.63
G1 X106.15 Y-21.79
G1 X105.93 Y-21.98
G1 X105.71 Y-22.17
G1 X105.52 Y-22.40
G1 X105.32 Y-22.62
G1 X105.03 Y-23.07
G1 X104.75 Y-23.52
G1 X104.47 Y-24.17
G1 X104.20 Y-24.82 F86.52
G1 X103.91 Y-25.79 F59.89
G1 X103.63 Y-26.76
G1 X103.44 Y-26.74
G1 X103.25 Y-26.72
G1 X103.16 Y-25.63 F86.52
G1 X103.07 Y-24.53 F93.17
G1 X103.00 Y-24.13
G1 X102.93 Y-23.72
G1 X102.83 Y-23.35
G1 X102.73 Y-22.97
G1 X102.60 Y-22.63
G1 X102.46 Y-22.29
G1 X102.33 Y-22.06
G1 X102.20 Y-21.83
G1 X101.99 Y-21.56
G1 X101.78 Y-21.29
G1 X101.59 Y-21.12
G1 X101.40 Y-20.95
G1 X101.19 Y-20.80
G1 X100.97 Y-20.66
G1 X100.64 Y-20.51
G1 X100.31 Y-20.37
G1 X99.95 Y-20.27
G1 X99.58 Y-20.18
G1 X99.20 Y-20.13
G1 X98.81 Y-20.08
G1 X98.40 Y-20.08
G1 X98.00 Y-20.08
G1 X97.60 Y-20.12
G1 X97.19 Y-20.15
G1 X96.79 Y-20.23
G1 X96.39 Y-20.31
G1 X96.01 Y-20.43
G1 X95.62 Y-20.55
G1 X95.16 Y-20.77
G1 X94.69 Y-20.99
G1 X94.35 Y-21.23
G1 X94.00 Y-21.47
G1 X93.61 Y-21.84
G1 X93.22 Y-22.22
G1 X92.94 Y-22.60
G1 X92.66 Y-22.97
G1 X92.41 Y-23.41
G1 X92.17 Y-23.84
G1 X91.90 Y-24.46
G1 X91.63 Y-25.07
G1 X91.40 Y-25.76
G1 X91.17 Y-26.44
G1 X90.91 Y-27.39
G1 X90.65 Y-28.33
G1 X90.52 Y-28.37
G1 X90.39 Y-28.40
G1 X86.86 Y-24.87 F106.48
G1 X85.34 Y-23.35 F113.13
G1 X81.81 Y-19.82 F93.17
G1 X80.29 Y-18.30
G1 X80.29 Y-18.21
G1 X80.29 Y-18.12
G1 X80.67 Y-17.72 F113.13
G1 X81.05 Y-17.32 F106.48
G1 X81.38 Y-16.94 F99.82
G1 X81.71 Y-16.56 F93.17
G1 X82.30 Y-15.75
G1 X82.90 Y-14.94
G1 X83.41 Y-14.08
G1 X83.92 Y-13.21
G1 X84.35 Y-12.30
G1 X84.77 Y-11.39
G1 X84.95 Y-10.92
G1 X85.13 Y-10.45
G1 X85.41 Y-9.49
G1 X85.69 Y-8.52
G1 X85.80 Y-8.03
G1 X85.90 Y-7.54
G1 X86.04 Y-6.55
G1 X86.17 Y-5.55
G1 X86.21 Y-4.89
G1 X86.24 Y-4.24
G1 X86.31 Y-4.17
G1 X86.38 Y-4.11
G1 X91.38 Y-4.11 F106.48
G1 X96.38 Y-4.11 F119.79
G1 X101.38 Y-4.11 F133.10
G1 X106.38 Y-4.11
G1 X111.38 Y-4.11
G1 X114.39 Y-4.11
G1 X119.39 Y-4.11
G1 X124.39 Y-4.11
G1 X129.39 Y-4.11
G1 X134.39 Y-4.11
G1 X139.39 Y-4.11 F113.13
G1 X142.40 Y-4.11 F93.17
G1 X142.45 Y-4.15 F66.55
G1 X142.51 Y-4.19
G1 X142.51 Y-4.19
G4 S1.
M9
G4 S1.
M5
G4 S1.
G0 X232.37 Y-82.45
M3
M8
G4 S4.21
G1 X231.86 Y-83.30
G1 X231.35 Y-84.16 F119.79
G1 X230.27 Y-85.82 F133.10
G1 X229.20 Y-87.48
G1 X228.04 Y-89.08
G1 X226.88 Y-90.68
G1 X225.64 Y-92.22
G1 X224.39 Y-93.76
G1 X223.07 Y-95.23
G1 X221.75 Y-96.71
G1 X220.36 Y-98.11
G1 X218.96 Y-99.52
G1 X217.49 Y-100.85
G1 X216.02 Y-102.18
G1 X214.49 Y-103.44
G1 X212.95 Y-104.69
G1 X211.36 Y-105.86
G1 X209.76 Y-107.03
G1 X208.11 Y-108.12
G1 X206.45 Y-109.21
G1 X204.75 Y-110.21
G1 X203.05 Y-111.21
G1 X201.29 Y-112.12
G1 X199.54 Y-113.03
G1 X197.73 Y-113.85
G1 X195.92 Y-114.67 F113.13
G1 X194.89 Y-115.10 F93.17
G1 X193.86 Y-115.52
G1 X193.65 Y-115.38
G1 X193.44 Y-115.23
G1 X193.44 Y-110.23 F113.13
G1 X193.44 Y-105.23 F133.10
G1 X193.44 Y-100.23
G1 X193.44 Y-95.23
G1 X193.44 Y-90.23
G1 X193.44 Y-87.18
G1 X193.44 Y-82.18
G1 X193.44 Y-77.18
G1 X193.44 Y-72.18
G1 X193.44 Y-67.18
G1 X193.44 Y-62.18 F113.13
G1 X193.44 Y-59.13 F93.17
G1 X193.57 Y-58.99
G1 X193.70 Y-58.85
G1 X194.80 Y-58.80 F113.13
G1 X195.90 Y-58.74 F106.48
G1 X196.88 Y-58.60 F99.82
G1 X197.86 Y-58.45 F93.17
G1 X198.82 Y-58.20
G1 X199.78 Y-57.96
G1 X200.71 Y-57.62
G1 X201.64 Y-57.28
G1 X202.54 Y-56.85
G1 X203.43 Y-56.41
G1 X204.28 Y-55.90
G1 X205.12 Y-55.38
G1 X205.91 Y-54.78
G1 X206.70 Y-54.17
G1 X207.23 Y-53.71
G1 X207.75 Y-53.24
G1 X207.94 Y-53.24
G1 X208.13 Y-53.25
G1 X211.67 Y-56.78 F106.48
G1 X215.20 Y-60.32 F119.79
G1 X218.74 Y-63.85 F133.10
G1 X221.06 Y-66.18
G1 X224.60 Y-69.71
G1 X228.13 Y-73.25
G1 X231.67 Y-76.78 F113.13
G1 X233.99 Y-79.10 F93.17
G1 X234.01 Y-79.26
G1 X234.03 Y-79.42
G1 X233.20 Y-80.93 F66.55
G1 X232.37 Y-82.45
G1 X232.37 Y-82.45
G4 S1.
M9
G4 S1.
M5
G4 S1.
G0 X195.55 Y-7.65
M3
M8
G4 S4.21
G1 X195.99 Y-12.63
G1 X196.42 Y-17.61 F133.10
G1 X196.86 Y-22.59
G1 X196.91 Y-23.17 F126.45
G1 X197.34 Y-28.15 F133.10
G1 X197.78 Y-33.13 F113.13
G1 X198.22 Y-38.11 F93.17
G1 X198.27 Y-38.69
G1 X198.14 Y-38.85
G1 X198.02 Y-39.00
G1 X197.42 Y-39.06 F113.13
G1 X196.83 Y-39.13 F106.48
G1 X196.34 Y-39.21 F99.82
G1 X195.85 Y-39.29 F93.17
G1 X194.89 Y-39.52
G1 X193.92 Y-39.76
G1 X192.98 Y-40.09
G1 X192.05 Y-40.41
G1 X191.15 Y-40.83
G1 X190.25 Y-41.25
G1 X189.40 Y-41.76
G1 X188.55 Y-42.27
G1 X187.75 Y-42.86
G1 X186.95 Y-43.45
G1 X186.22 Y-44.12
G1 X185.48 Y-44.79
G1 X185.00 Y-45.30
G1 X184.52 Y-45.81
G1 X184.33 Y-45.82
G1 X184.14 Y-45.83
G1 X180.31 Y-42.62 F106.48
G1 X176.48 Y-39.41 F119.79
G1 X172.65 Y-36.19 F133.10
G1 X168.82 Y-32.98
G1 X166.62 Y-31.13
G1 X162.79 Y-27.92
G1 X158.96 Y-24.70
G1 X155.13 Y-21.49
G1 X151.30 Y-18.27 F113.13
G1 X149.09 Y-16.43 F93.17
G1 X149.12 Y-16.17
G1 X149.15 Y-15.91
G1 X150.93 Y-15.02 F113.13
G1 X152.70 Y-14.13 F133.10
G1 X153.60 Y-13.72 F126.45
G1 X154.50 Y-13.31 F119.79
G1 X156.33 Y-12.55 F133.10
G1 X158.16 Y-11.80
G1 X159.09 Y-11.46 F126.45
G1 X160.02 Y-11.12 F119.79
G1 X160.97 Y-10.80 F113.13
G1 X161.91 Y-10.48 F106.48
G1 X163.81 Y-9.92 F119.79
G1 X165.71 Y-9.36 F133.10
G1 X167.63 Y-8.90
G1 X169.56 Y-8.44
G1 X171.50 Y-8.08
G1 X173.44 Y-7.72
G1 X175.40 Y-7.46
G1 X177.36 Y-7.20
G1 X178.35 Y-7.11 F126.45
G1 X179.35 Y-7.02 F119.79
G1 X181.32 Y-6.91 F133.10
G1 X183.29 Y-6.80
G1 X185.27 Y-6.80
G1 X187.25 Y-6.79
G1 X189.22 Y-6.89
G1 X191.20 Y-6.99 F113.13
G1 X193.25 Y-7.19 F93.17
G1 X195.31 Y-7.40
G1 X195.43 Y-7.52 F66.55
G1 X195.55 Y-7.65
G1 X195.55 Y-7.65
G4 S1.
M9
G4 S1.
M5
G4 S1.
G0 X132.33 Y-112.40
M3
M8
G4 S4.21
G1 X128.80 Y-115.94
G1 X127.14 Y-117.59 F113.13
G1 X123.61 Y-121.13 F93.17
G1 X121.95 Y-122.78
G1 X121.84 Y-122.81
G1 X121.72 Y-122.85
G1 X120.16 Y-122.51 F113.13
G1 X118.60 Y-122.16 F133.10
G1 X113.61 Y-121.88
G1 X108.62 Y-121.60
G1 X107.26 Y-121.53
G1 X102.26 Y-121.25
G1 X97.27 Y-120.97
G1 X95.91 Y-120.89
G1 X94.66 Y-120.88 F126.45
G1 X93.41 Y-120.87 F119.79
G1 X92.44 Y-120.81 F113.13
G1 X91.48 Y-120.76 F106.48
G1 X90.53 Y-120.63 F99.82
G1 X89.59 Y-120.50 F93.17
G1 X88.72 Y-120.31
G1 X87.84 Y-120.11
G1 X87.38 Y-119.95
G1 X86.92 Y-119.79
G1 X86.65 Y-119.65
G1 X86.37 Y-119.50
G1 X86.19 Y-119.38
G1 X86.01 Y-119.25
G1 X85.77 Y-119.02
G1 X85.52 Y-118.80
G1 X85.35 Y-118.59
G1 X85.18 Y-118.38
G1 X84.90 Y-117.94
G1 X84.62 Y-117.50
G1 X84.42 Y-117.08
G1 X84.22 Y-116.66
G1 X83.99 Y-116.06
G1 X83.76 Y-115.45
G1 X83.42 Y-114.32
G1 X83.09 Y-113.19
G1 X82.94 Y-112.54
G1 X82.79 Y-111.89
G1 X82.65 Y-111.15
G1 X82.52 Y-110.41
G1 X82.44 Y-109.77
G1 X82.35 Y-109.14
G1 X82.32 Y-108.61
G1 X82.29 Y-108.08
G1 X82.30 Y-107.28
G1 X82.31 Y-106.49
G1 X83.22 Y-102.45 F106.48
G1 X84.12 Y-98.42 F93.17
G1 X84.26 Y-98.31
G1 X84.39 Y-98.20
G1 X89.39 Y-98.20 F113.13
G1 X94.39 Y-98.20 F133.10
G1 X99.39 Y-98.20
G1 X104.39 Y-98.20
G1 X105.42 Y-98.20 F126.45
G1 X110.42 Y-98.20 F133.10
G1 X115.42 Y-98.20
G1 X120.42 Y-98.20 F113.13
G1 X125.42 Y-98.20 F93.17
G1 X126.45 Y-98.20
G1 X126.59 Y-98.33
G1 X126.73 Y-98.46
G1 X126.81 Y-99.56 F113.13
G1 X126.89 Y-100.66 F106.48
G1 X126.97 Y-101.14 F99.82
G1 X127.04 Y-101.63 F93.17
G1 X127.26 Y-102.60
G1 X127.48 Y-103.57
G1 X127.63 Y-104.04
G1 X127.77 Y-104.51
G1 X128.14 Y-105.44
G1 X128.50 Y-106.36
G1 X128.72 Y-106.81
G1 X128.93 Y-107.25
G1 X129.43 Y-108.11
G1 X129.92 Y-108.97
G1 X130.51 Y-109.77
G1 X131.09 Y-110.58
G1 X131.72 Y-111.30
G1 X132.35 Y-112.02
G1 X132.34 Y-112.21 F66.55
G1 X132.33 Y-112.40
G1 X132.33 Y-112.40
G4 S1.
M9
G4 S1.
M5
G4 S1.
G0 X157.17 Y-35.33
M3
M8
G4 S4.21
G1 X160.70 Y-38.87
G1 X164.24 Y-42.40 F133.10
G1 X167.77 Y-45.94
G1 X171.31 Y-49.47
G1 X172.09 Y-50.26 F126.45
G1 X175.63 Y-53.79 F133.10
G1 X179.16 Y-57.33
G1 X182.70 Y-60.86 F113.13
G1 X186.23 Y-64.40 F93.17
G1 X187.01 Y-65.18
G1 X187.05 Y-65.27
G1 X187.09 Y-65.36
G1 X187.09 Y-70.36 F113.13
G1 X187.09 Y-75.36 F133.10
G1 X187.09 Y-80.36
G1 X187.09 Y-85.36
G1 X187.09 Y-89.28
G1 X187.09 Y-94.28
G1 X187.09 Y-99.28
G1 X187.09 Y-104.28
G1 X187.09 Y-109.28 F113.13
G1 X187.09 Y-113.20 F93.17
G1 X186.95 Y-113.34
G1 X186.81 Y-113.48
G1 X181.81 Y-113.48 F113.13
G1 X176.81 Y-113.48 F133.10
G1 X171.81 Y-113.48
G1 X166.81 Y-113.48
G1 X162.88 Y-113.48
G1 X157.88 Y-113.48
G1 X152.88 Y-113.48
G1 X147.88 Y-113.48 F113.13
G1 X142.88 Y-113.48 F86.52
G1 X138.95 Y-113.48 F59.89
G1 X138.87 Y-113.11
G1 X138.79 Y-112.73
G1 X139.51 Y-112.40 F86.52
G1 X140.23 Y-112.08 F106.48
G1 X140.66 Y-111.79 F99.82
G1 X141.09 Y-111.50 F93.17
G1 X141.42 Y-111.18
G1 X141.74 Y-110.86
G1 X141.86 Y-110.70
G1 X141.99 Y-110.53
G1 X142.11 Y-110.32
G1 X142.23 Y-110.10
G1 X142.38 Y-109.72
G1 X142.53 Y-109.34
G1 X142.63 Y-108.91
G1 X142.73 Y-108.48
G1 X142.81 Y-107.90
G1 X142.89 Y-107.31
G1 X142.94 Y-106.59
G1 X142.98 Y-105.87 F86.52
G1 X143.00 Y-105.12 F59.89
G1 X143.02 Y-104.37
G1 X143.30 Y-104.25
G1 X143.58 Y-104.13
G1 X143.97 Y-104.47 F86.52
G1 X144.36 Y-104.82 F93.17
G1 X144.65 Y-105.01
G1 X144.93 Y-105.20
G1 X145.15 Y-105.31
G1 X145.37 Y-105.42
G1 X145.60 Y-105.49
G1 X145.84 Y-105.56
G1 X146.08 Y-105.59
G1 X146.32 Y-105.62
G1 X146.56 Y-105.62
G1 X146.81 Y-105.62
G1 X147.05 Y-105.59
G1 X147.29 Y-105.55
G1 X147.61 Y-105.45
G1 X147.93 Y-105.36
G1 X148.16 Y-105.25
G1 X148.38 Y-105.15
G1 X148.66 Y-104.96
G1 X148.94 Y-104.77
G1 X149.19 Y-104.55
G1 X149.44 Y-104.33
G1 X149.65 Y-104.07
G1 X149.85 Y-103.81
G1 X149.98 Y-103.61
G1 X150.10 Y-103.40
G1 X150.24 Y-103.07
G1 X150.38 Y-102.75
G1 X150.46 Y-102.48
G1 X150.55 Y-102.21
G1 X150.64 Y-101.78
G1 X150.74 Y-101.34
G1 X150.92 Y-100.04 F106.48
G1 X151.10 Y-98.74 F119.79
G1 X151.28 Y-97.02 F133.10
G1 X151.45 Y-95.30
G1 X151.64 Y-92.80
G1 X151.84 Y-90.31
G1 X152.08 Y-86.62 F113.13
G1 X152.33 Y-82.93 F93.17
G1 X152.50 Y-82.59 F113.13
G1 X152.68 Y-82.25 F119.79
G1 X152.78 Y-81.99 F113.13
G1 X152.89 Y-81.73 F106.48
G1 X152.96 Y-81.47 F99.82
G1 X153.03 Y-81.21 F93.17
G1 X153.06 Y-80.95
G1 X153.09 Y-80.69
G1 X153.17 Y-75.69 F106.48
G1 X153.25 Y-70.69 F119.79
G1 X153.32 Y-65.69 F133.10
G1 X153.40 Y-60.70
G1 X153.44 Y-58.16
G1 X153.52 Y-53.16
G1 X153.60 Y-48.16
G1 X153.68 Y-43.16 F113.13
G1 X153.76 Y-38.16 F93.17
G1 X153.80 Y-35.63
G1 X153.93 Y-35.49
G1 X154.06 Y-35.35
G1 X155.52 Y-35.31
G1 X156.98 Y-35.26
G1 X157.07 Y-35.30 F66.55
G1 X157.17 Y-35.33
G1 X157.17 Y-35.33
G4 S1.
M9
G4 S1.
M5
G4 S1.
G0 X27.13 Y-33.23
M3
M8
G4 S4.21
G1 X23.76 Y-33.23
G1 X20.38 Y-33.22 F133.10
G1 X18.20 Y-33.26
G1 X16.02 Y-33.30
G1 X14.47 Y-33.38
G1 X12.93 Y-33.47
G1 X11.80 Y-33.62 F126.45
G1 X10.68 Y-33.77 F119.79
G1 X10.11 Y-33.89 F113.13
G1 X9.53 Y-34.01 F106.48
G1 X9.10 Y-34.14 F99.82
G1 X8.67 Y-34.26 F93.17
G1 X8.27 Y-34.41
G1 X7.88 Y-34.57
G1 X7.52 Y-34.75
G1 X7.17 Y-34.93
G1 X6.85 Y-35.15
G1 X6.54 Y-35.36
G1 X6.35 Y-35.54
G1 X6.15 Y-35.72
G1 X5.93 Y-36.00
G1 X5.71 Y-36.27 F86.52
G1 X5.44 Y-36.75 F59.89
G1 X5.17 Y-37.22
G1 X4.81 Y-37.13
G1 X4.45 Y-37.03
G1 X4.45 Y-32.03 F86.52
G1 X4.45 Y-27.03 F113.13
G1 X4.45 Y-22.90 F133.10
G1 X4.45 Y-17.90
G1 X4.45 Y-12.90 F113.13
G1 X4.45 Y-8.77 F93.17
G1 X4.59 Y-8.63
G1 X4.73 Y-8.49
G1 X9.73 Y-8.49 F113.13
G1 X14.73 Y-8.49 F133.10
G1 X14.88 Y-8.49 F126.45
G1 X19.88 Y-8.49 F113.13
G1 X24.88 Y-8.49 F93.17
G1 X25.03 Y-8.49
G1 X25.17 Y-8.63
G1 X25.31 Y-8.78
G1 X25.22 Y-10.87 F113.13
G1 X25.14 Y-12.95 F133.10
G1 X25.14 Y-13.94 F126.45
G1 X25.13 Y-14.93 F119.79
G1 X25.20 Y-16.91 F133.10
G1 X25.27 Y-18.89
G1 X25.35 Y-19.87 F126.45
G1 X25.42 Y-20.85 F119.79
G1 X25.64 Y-22.82 F133.10
G1 X25.86 Y-24.79
G1 X26.01 Y-25.77 F126.45
G1 X26.16 Y-26.74 F119.79
G1 X26.53 Y-28.69 F133.10
G1 X26.90 Y-30.63 F113.13
G1 X27.16 Y-31.75 F93.17
G1 X27.42 Y-32.87
G1 X27.28 Y-33.05 F66.55
G1 X27.13 Y-33.23
G1 X27.13 Y-33.23
G4 S1.
M9
G4 S1.
M5
G4 S1.
G0 X79.45 Y-44.02
M3
M8
G4 S4.21
G1 X80.04 Y-44.00
G1 X80.64 Y-43.99 F119.79
G1 X81.63 Y-43.89 F113.13
G1 X82.62 Y-43.79 F106.48
G1 X83.59 Y-43.59 F99.82
G1 X84.57 Y-43.39 F93.17
G1 X85.04 Y-43.26
G1 X85.51 Y-43.13
G1 X86.45 Y-42.79
G1 X87.38 Y-42.44
G1 X88.27 Y-42.01
G1 X89.17 Y-41.58
G1 X90.01 Y-41.06
G1 X90.86 Y-40.54
G1 X91.65 Y-39.94
G1 X92.44 Y-39.34
G1 X92.96 Y-38.87
G1 X93.49 Y-38.40
G1 X93.68 Y-38.41
G1 X93.87 Y-38.41
G1 X97.40 Y-41.95 F106.48
G1 X100.94 Y-45.49 F119.79
G1 X104.48 Y-49.02 F133.10
G1 X108.01 Y-52.56
G1 X111.55 Y-56.09
G1 X115.08 Y-59.63
G1 X118.62 Y-63.16
G1 X122.15 Y-66.70
G1 X122.25 Y-66.80 F126.45
G1 X125.79 Y-70.33 F133.10
G1 X129.32 Y-73.87
G1 X132.86 Y-77.40
G1 X136.39 Y-80.94
G1 X139.93 Y-84.47
G1 X143.46 Y-88.01 F113.13
G1 X147.00 Y-91.55 F86.52
G1 X150.54 Y-95.08 F59.89
G1 X150.63 Y-95.18
G1 X150.51 Y-95.47
G1 X150.39 Y-95.77
G1 X145.39 Y-95.77 F86.52
G1 X140.39 Y-95.77 F113.13
G1 X135.39 Y-95.77 F133.10
G1 X130.39 Y-95.77
G1 X128.99 Y-95.77
G1 X123.99 Y-95.77
G1 X118.99 Y-95.77
G1 X113.99 Y-95.77
G1 X108.99 Y-95.77
G1 X107.59 Y-95.77
G1 X106.07 Y-95.74
G1 X104.55 Y-95.71
G1 X103.56 Y-95.66 F126.45
G1 X102.56 Y-95.61 F119.79
G1 X100.60 Y-95.43 F133.10
G1 X98.63 Y-95.25
G1 X96.67 Y-94.96
G1 X94.72 Y-94.68
G1 X93.74 Y-94.50 F126.45
G1 X92.76 Y-94.32 F119.79
G1 X91.79 Y-94.12 F113.13
G1 X90.82 Y-93.92 F106.48
G1 X88.91 Y-93.43 F119.79
G1 X86.99 Y-92.95 F133.10
G1 X85.10 Y-92.37
G1 X83.20 Y-91.79 F113.13
G1 X81.28 Y-91.09 F93.17
G1 X79.35 Y-90.38
G1 X79.26 Y-90.26
G1 X79.17 Y-90.14
G1 X79.17 Y-85.14 F113.13
G1 X79.17 Y-80.14 F133.10
G1 X79.17 Y-75.14
G1 X79.17 Y-70.14
G1 X79.17 Y-67.22
G1 X79.17 Y-62.22
G1 X79.17 Y-57.22
G1 X79.17 Y-52.22
G1 X79.17 Y-47.22 F113.13
G1 X79.17 Y-44.30 F93.17
G1 X79.31 Y-44.16 F66.55
G1 X79.45 Y-44.02
G1 X79.45 Y-44.02
G4 S1.
M9
G4 S1.
M5
G4 S1.
G0 X213.44 Y-8.21
M3
M8
G4 S4.21
G1 X215.42 Y-8.33
G1 X217.40 Y-8.46 F133.10
G1 X218.39 Y-8.55 F126.45
G1 X219.37 Y-8.65 F119.79
G1 X221.33 Y-8.92 F133.10
G1 X223.28 Y-9.20
G1 X225.22 Y-9.57
G1 X227.17 Y-9.94
G1 X228.14 Y-10.17 F126.45
G1 X229.11 Y-10.40 F119.79
G1 X231.02 Y-10.92 F133.10
G1 X232.93 Y-11.44
G1 X234.80 Y-12.06
G1 X236.68 Y-12.68
G1 X237.61 Y-13.03 F126.45
G1 X238.54 Y-13.38 F119.79
G1 X240.37 Y-14.14 F133.10
G1 X242.19 Y-14.91 F113.13
G1 X244.08 Y-15.81 F93.17
G1 X245.97 Y-16.72
G1 X246.01 Y-16.97
G1 X246.05 Y-17.21
G1 X242.52 Y-20.75 F113.13
G1 X238.98 Y-24.28 F133.10
G1 X235.45 Y-27.82
G1 X233.15 Y-30.11
G1 X229.62 Y-33.65
G1 X226.08 Y-37.18
G1 X222.55 Y-40.72 F113.13
G1 X220.25 Y-43.01 F93.17
G1 X220.06 Y-43.02
G1 X219.87 Y-43.02
G1 X219.05 Y-42.29 F113.13
G1 X218.24 Y-41.55 F106.48
G1 X217.44 Y-40.96 F99.82
G1 X216.64 Y-40.37 F93.17
G1 X215.79 Y-39.86
G1 X214.94 Y-39.36
G1 X214.04 Y-38.94
G1 X213.14 Y-38.52
G1 X212.20 Y-38.20
G1 X211.26 Y-37.87
G1 X210.30 Y-37.64
G1 X209.33 Y-37.41
G1 X208.35 Y-37.27
G1 X207.36 Y-37.14
G1 X206.66 Y-37.10
G1 X205.96 Y-37.06
G1 X205.83 Y-36.92
G1 X205.70 Y-36.78
G1 X205.70 Y-31.78 F106.48
G1 X205.70 Y-26.78 F119.79
G1 X205.70 Y-22.69 F133.10
G1 X205.70 Y-17.69
G1 X205.70 Y-12.69 F113.13
G1 X205.70 Y-8.59 F93.17
G1 X205.83 Y-8.45
G1 X205.97 Y-8.31
G1 X207.73 Y-8.25 F113.13
G1 X209.49 Y-8.18 F99.82
G1 X211.46 Y-8.20 F66.55
G1 X213.44 Y-8.21
G1 X213.44 Y-8.21
G4 S1.
M9
G4 S1.
M5
G4 S1.
M1413 00:22:01
M1404
